{
"type": "FeatureCollection",
"name": "HotspotGetisWGS",
"crs": { "type": "name", "properties": { "name": "urn:ogc:def:crs:OGC:1.3:CRS84" } },
"features": [
{ "type": "Feature", "properties": { "SOURCE_ID": 0, "CO2_Stock": 29.133, "GiZScore": -1.0883180190599999, "GiPValue": 0.27645475534000002, "NNeighbors": 10, "Gi_Bin": 0, "Confidence": "0%" }, "geometry": { "type": "Point", "coordinates": [ 110.335090623533517, 1.553129954284032 ] } },
{ "type": "Feature", "properties": { "SOURCE_ID": 1, "CO2_Stock": 23.614, "GiZScore": -1.0883180190599999, "GiPValue": 0.27645475534000002, "NNeighbors": 10, "Gi_Bin": 0, "Confidence": "0%" }, "geometry": { "type": "Point", "coordinates": [ 110.335011033532453, 1.553131006490787 ] } },
{ "type": "Feature", "properties": { "SOURCE_ID": 2, "CO2_Stock": 49.444, "GiZScore": -1.1454138756400001, "GiPValue": 0.25203777243999997, "NNeighbors": 11, "Gi_Bin": 0, "Confidence": "0%" }, "geometry": { "type": "Point", "coordinates": [ 110.334940559958909, 1.553137317932908 ] } },
{ "type": "Feature", "properties": { "SOURCE_ID": 3, "CO2_Stock": 23.614, "GiZScore": -1.1454138756400001, "GiPValue": 0.25203777243999997, "NNeighbors": 11, "Gi_Bin": 0, "Confidence": "0%" }, "geometry": { "type": "Point", "coordinates": [ 110.334836076723604, 1.55313977218276 ] } },
{ "type": "Feature", "properties": { "SOURCE_ID": 4, "CO2_Stock": 57.562, "GiZScore": -1.08304696179, "GiPValue": 0.27878759552, "NNeighbors": 10, "Gi_Bin": 0, "Confidence": "0%" }, "geometry": { "type": "Point", "coordinates": [ 110.334735625149051, 1.55314766103578 ] } },
{ "type": "Feature", "properties": { "SOURCE_ID": 5, "CO2_Stock": 42.05, "GiZScore": 0.03848405789, "GiPValue": 0.96930174202999997, "NNeighbors": 13, "Gi_Bin": 0, "Confidence": "0%" }, "geometry": { "type": "Point", "coordinates": [ 110.334430869189305, 1.553163598821072 ] } },
{ "type": "Feature", "properties": { "SOURCE_ID": 6, "CO2_Stock": 1915.727, "GiZScore": 0.13871101572, "GiPValue": 0.889678513, "NNeighbors": 12, "Gi_Bin": 0, "Confidence": "0%" }, "geometry": { "type": "Point", "coordinates": [ 110.334373368336344, 1.553163774188874 ] } },
{ "type": "Feature", "properties": { "SOURCE_ID": 7, "CO2_Stock": 2944.967, "GiZScore": 0.21889014164000001, "GiPValue": 0.82673562624999997, "NNeighbors": 13, "Gi_Bin": 0, "Confidence": "0%" }, "geometry": { "type": "Point", "coordinates": [ 110.334315516747779, 1.553167456013341 ] } },
{ "type": "Feature", "properties": { "SOURCE_ID": 8, "CO2_Stock": 2664.716, "GiZScore": 0.3830061382, "GiPValue": 0.70171521372000001, "NNeighbors": 13, "Gi_Bin": 0, "Confidence": "0%" }, "geometry": { "type": "Point", "coordinates": [ 110.334251879820442, 1.553170610835082 ] } },
{ "type": "Feature", "properties": { "SOURCE_ID": 9, "CO2_Stock": 2944.967, "GiZScore": 0.49386701762000002, "GiPValue": 0.62140010097999998, "NNeighbors": 12, "Gi_Bin": 0, "Confidence": "0%" }, "geometry": { "type": "Point", "coordinates": [ 110.334205072805901, 1.553174292659548 ] } },
{ "type": "Feature", "properties": { "SOURCE_ID": 10, "CO2_Stock": 2596.327, "GiZScore": 0.49171325031000002, "GiPValue": 0.62292207163000002, "NNeighbors": 12, "Gi_Bin": 0, "Confidence": "0%" }, "geometry": { "type": "Point", "coordinates": [ 110.334147221217336, 1.553178499688045 ] } },
{ "type": "Feature", "properties": { "SOURCE_ID": 11, "CO2_Stock": 1859.11, "GiZScore": 0.41032053552999997, "GiPValue": 0.68157083093000004, "NNeighbors": 11, "Gi_Bin": 0, "Confidence": "0%" }, "geometry": { "type": "Point", "coordinates": [ 110.334076747643849, 1.553184811130166 ] } },
{ "type": "Feature", "properties": { "SOURCE_ID": 12, "CO2_Stock": 1695.703, "GiZScore": -0.00782904221, "GiPValue": 0.9937533919, "NNeighbors": 12, "Gi_Bin": 0, "Confidence": "0%" }, "geometry": { "type": "Point", "coordinates": [ 110.333991022467785, 1.553184811130166 ] } },
{ "type": "Feature", "properties": { "SOURCE_ID": 13, "CO2_Stock": 23.614, "GiZScore": -0.90922244663999996, "GiPValue": 0.36323272821000002, "NNeighbors": 13, "Gi_Bin": 0, "Confidence": "0%" }, "geometry": { "type": "Point", "coordinates": [ 110.333827325171001, 1.55319313975167 ] } },
{ "type": "Feature", "properties": { "SOURCE_ID": 14, "CO2_Stock": 42.05, "GiZScore": -1.0296366076400001, "GiPValue": 0.30318063837999998, "NNeighbors": 12, "Gi_Bin": 0, "Confidence": "0%" }, "geometry": { "type": "Point", "coordinates": [ 110.333781044259865, 1.553192789016066 ] } },
{ "type": "Feature", "properties": { "SOURCE_ID": 15, "CO2_Stock": 29.133, "GiZScore": -1.08698135509, "GiPValue": 0.27704506654, "NNeighbors": 13, "Gi_Bin": 0, "Confidence": "0%" }, "geometry": { "type": "Point", "coordinates": [ 110.33373476244941, 1.553198048251375 ] } },
{ "type": "Feature", "properties": { "SOURCE_ID": 16, "CO2_Stock": 35.264, "GiZScore": -1.1387905624000001, "GiPValue": 0.25479053808000002, "NNeighbors": 11, "Gi_Bin": 0, "Confidence": "0%" }, "geometry": { "type": "Point", "coordinates": [ 110.333675158082144, 1.553199451193791 ] } },
{ "type": "Feature", "properties": { "SOURCE_ID": 17, "CO2_Stock": 35.264, "GiZScore": -1.2457524580699999, "GiPValue": 0.21285531241, "NNeighbors": 13, "Gi_Bin": 0, "Confidence": "0%" }, "geometry": { "type": "Point", "coordinates": [ 110.333622916464492, 1.553206813943348 ] } },
{ "type": "Feature", "properties": { "SOURCE_ID": 18, "CO2_Stock": 35.264, "GiZScore": -1.34195019856, "GiPValue": 0.17961214379000001, "NNeighbors": 15, "Gi_Bin": 0, "Confidence": "0%" }, "geometry": { "type": "Point", "coordinates": [ 110.333570499479038, 1.553207690782358 ] } },
{ "type": "Feature", "properties": { "SOURCE_ID": 19, "CO2_Stock": 57.562, "GiZScore": -1.3379688051700001, "GiPValue": 0.18090660596, "NNeighbors": 15, "Gi_Bin": 0, "Confidence": "0%" }, "geometry": { "type": "Point", "coordinates": [ 110.333519836171547, 1.553211371707505 ] } },
{ "type": "Feature", "properties": { "SOURCE_ID": 20, "CO2_Stock": 23.614, "GiZScore": -1.23724499051, "GiPValue": 0.21599616698, "NNeighbors": 13, "Gi_Bin": 0, "Confidence": "0%" }, "geometry": { "type": "Point", "coordinates": [ 110.333372718775991, 1.553214475267851 ] } },
{ "type": "Feature", "properties": { "SOURCE_ID": 21, "CO2_Stock": 42.05, "GiZScore": -1.2350220969800001, "GiPValue": 0.21682230394, "NNeighbors": 13, "Gi_Bin": 0, "Confidence": "0%" }, "geometry": { "type": "Point", "coordinates": [ 110.333319074215979, 1.553215878210267 ] } },
{ "type": "Feature", "properties": { "SOURCE_ID": 22, "CO2_Stock": 66.344, "GiZScore": -1.2336084890100001, "GiPValue": 0.21734885167000001, "NNeighbors": 13, "Gi_Bin": 0, "Confidence": "0%" }, "geometry": { "type": "Point", "coordinates": [ 110.333268235540686, 1.55322148728186 ] } },
{ "type": "Feature", "properties": { "SOURCE_ID": 23, "CO2_Stock": 49.444, "GiZScore": -1.34296040842, "GiPValue": 0.17928479412000001, "NNeighbors": 15, "Gi_Bin": 0, "Confidence": "0%" }, "geometry": { "type": "Point", "coordinates": [ 110.332950934937742, 1.553247298723932 ] } },
{ "type": "Feature", "properties": { "SOURCE_ID": 24, "CO2_Stock": 49.444, "GiZScore": -1.39093780983, "GiPValue": 0.1642442861, "NNeighbors": 16, "Gi_Bin": 0, "Confidence": "0%" }, "geometry": { "type": "Point", "coordinates": [ 110.332892032041684, 1.55324940223818 ] } },
{ "type": "Feature", "properties": { "SOURCE_ID": 25, "CO2_Stock": 29.133, "GiZScore": -1.44089800548, "GiPValue": 0.14961349965000001, "NNeighbors": 17, "Gi_Bin": 0, "Confidence": "0%" }, "geometry": { "type": "Point", "coordinates": [ 110.332834531188723, 1.553255012209092 ] } },
{ "type": "Feature", "properties": { "SOURCE_ID": 26, "CO2_Stock": 49.444, "GiZScore": -1.44672089035, "GiPValue": 0.14797511115, "NNeighbors": 17, "Gi_Bin": 0, "Confidence": "0%" }, "geometry": { "type": "Point", "coordinates": [ 110.33262661602555, 1.553265530679766 ] } },
{ "type": "Feature", "properties": { "SOURCE_ID": 27, "CO2_Stock": 35.264, "GiZScore": -1.44612457716, "GiPValue": 0.14814226344, "NNeighbors": 17, "Gi_Bin": 0, "Confidence": "0%" }, "geometry": { "type": "Point", "coordinates": [ 110.33257542661471, 1.553266232150918 ] } },
{ "type": "Feature", "properties": { "SOURCE_ID": 28, "CO2_Stock": 23.614, "GiZScore": -1.4442227194899999, "GiPValue": 0.14867633604, "NNeighbors": 17, "Gi_Bin": 0, "Confidence": "0%" }, "geometry": { "type": "Point", "coordinates": [ 110.332518977968505, 1.553272192857435 ] } },
{ "type": "Feature", "properties": { "SOURCE_ID": 29, "CO2_Stock": 29.133, "GiZScore": -1.39766643059, "GiPValue": 0.16221325943000001, "NNeighbors": 16, "Gi_Bin": 0, "Confidence": "0%" }, "geometry": { "type": "Point", "coordinates": [ 110.332464631937285, 1.553274647107344 ] } },
{ "type": "Feature", "properties": { "SOURCE_ID": 30, "CO2_Stock": 42.05, "GiZScore": -1.3498958410299999, "GiPValue": 0.17704939595, "NNeighbors": 15, "Gi_Bin": 0, "Confidence": "0%" }, "geometry": { "type": "Point", "coordinates": [ 110.332312516109766, 1.553283404705383 ] } },
{ "type": "Feature", "properties": { "SOURCE_ID": 31, "CO2_Stock": 57.562, "GiZScore": -1.2520307516, "GiPValue": 0.21055868312000001, "NNeighbors": 13, "Gi_Bin": 0, "Confidence": "0%" }, "geometry": { "type": "Point", "coordinates": [ 110.33224519825734, 1.55328568358749 ] } },
{ "type": "Feature", "properties": { "SOURCE_ID": 32, "CO2_Stock": 23.614, "GiZScore": -1.19599861523, "GiPValue": 0.2316971211, "NNeighbors": 12, "Gi_Bin": 0, "Confidence": "0%" }, "geometry": { "type": "Point", "coordinates": [ 110.332194534949906, 1.553290767454996 ] } },
{ "type": "Feature", "properties": { "SOURCE_ID": 33, "CO2_Stock": 49.444, "GiZScore": -1.1432876059899999, "GiPValue": 0.25291921838999998, "NNeighbors": 11, "Gi_Bin": 0, "Confidence": "0%" }, "geometry": { "type": "Point", "coordinates": [ 110.332138822848435, 1.553291038150917 ] } },
{ "type": "Feature", "properties": { "SOURCE_ID": 34, "CO2_Stock": 49.444, "GiZScore": -1.0855420358700001, "GiPValue": 0.27768167312000003, "NNeighbors": 10, "Gi_Bin": 0, "Confidence": "0%" }, "geometry": { "type": "Point", "coordinates": [ 110.332087720671836, 1.553292441093333 ] } },
{ "type": "Feature", "properties": { "SOURCE_ID": 35, "CO2_Stock": 49.444, "GiZScore": -0.83492828244999995, "GiPValue": 0.40375809760999998, "NNeighbors": 6, "Gi_Bin": 0, "Confidence": "0%" }, "geometry": { "type": "Point", "coordinates": [ 110.331913299858968, 1.55330022742362 ] } },
{ "type": "Feature", "properties": { "SOURCE_ID": 36, "CO2_Stock": 42.05, "GiZScore": -0.90440805485999998, "GiPValue": 0.36577907879, "NNeighbors": 7, "Gi_Bin": 0, "Confidence": "0%" }, "geometry": { "type": "Point", "coordinates": [ 110.331856674945641, 1.553303908348767 ] } },
{ "type": "Feature", "properties": { "SOURCE_ID": 37, "CO2_Stock": 35.264, "GiZScore": -1.1433446030100001, "GiPValue": 0.25289556227, "NNeighbors": 11, "Gi_Bin": 0, "Confidence": "0%" }, "geometry": { "type": "Point", "coordinates": [ 110.331688457656242, 1.55331089428239 ] } },
{ "type": "Feature", "properties": { "SOURCE_ID": 38, "CO2_Stock": 35.264, "GiZScore": -1.1920561171299999, "GiPValue": 0.2332392636, "NNeighbors": 12, "Gi_Bin": 0, "Confidence": "0%" }, "geometry": { "type": "Point", "coordinates": [ 110.331616582039715, 1.553314576106857 ] } },
{ "type": "Feature", "properties": { "SOURCE_ID": 39, "CO2_Stock": 23.614, "GiZScore": -1.13889775567, "GiPValue": 0.25474582084000003, "NNeighbors": 11, "Gi_Bin": 0, "Confidence": "0%" }, "geometry": { "type": "Point", "coordinates": [ 110.331545231627217, 1.553318257931323 ] } },
{ "type": "Feature", "properties": { "SOURCE_ID": 40, "CO2_Stock": 42.05, "GiZScore": -1.1920561171299999, "GiPValue": 0.2332392636, "NNeighbors": 12, "Gi_Bin": 0, "Confidence": "0%" }, "geometry": { "type": "Point", "coordinates": [ 110.331473530479116, 1.553321588120866 ] } },
{ "type": "Feature", "properties": { "SOURCE_ID": 41, "CO2_Stock": 23.614, "GiZScore": -1.29362168238, "GiPValue": 0.19579612929000001, "NNeighbors": 14, "Gi_Bin": 0, "Confidence": "0%" }, "geometry": { "type": "Point", "coordinates": [ 110.331405599289042, 1.553325357179517 ] } },
{ "type": "Feature", "properties": { "SOURCE_ID": 42, "CO2_Stock": 66.344, "GiZScore": -1.29362168238, "GiPValue": 0.19579612929000001, "NNeighbors": 14, "Gi_Bin": 0, "Confidence": "0%" }, "geometry": { "type": "Point", "coordinates": [ 110.331336538550488, 1.553329663133468 ] } },
{ "type": "Feature", "properties": { "SOURCE_ID": 43, "CO2_Stock": 42.05, "GiZScore": -1.29296850031, "GiPValue": 0.19602195386, "NNeighbors": 14, "Gi_Bin": 0, "Confidence": "0%" }, "geometry": { "type": "Point", "coordinates": [ 110.331200206724247, 1.553346180082201 ] } },
{ "type": "Feature", "properties": { "SOURCE_ID": 44, "CO2_Stock": 42.05, "GiZScore": -1.3435450853099999, "GiPValue": 0.17909553746000001, "NNeighbors": 15, "Gi_Bin": 0, "Confidence": "0%" }, "geometry": { "type": "Point", "coordinates": [ 110.331118557275659, 1.553348398709659 ] } },
{ "type": "Feature", "properties": { "SOURCE_ID": 45, "CO2_Stock": 35.264, "GiZScore": -1.2464964465199999, "GiPValue": 0.21258221707, "NNeighbors": 13, "Gi_Bin": 0, "Confidence": "0%" }, "geometry": { "type": "Point", "coordinates": [ 110.331067970410572, 1.553352170466326 ] } },
{ "type": "Feature", "properties": { "SOURCE_ID": 46, "CO2_Stock": 49.444, "GiZScore": -1.1978538292500001, "GiPValue": 0.23097394863000001, "NNeighbors": 12, "Gi_Bin": 0, "Confidence": "0%" }, "geometry": { "type": "Point", "coordinates": [ 110.331025370424584, 1.55335438909384 ] } },
{ "type": "Feature", "properties": { "SOURCE_ID": 47, "CO2_Stock": 23.614, "GiZScore": -1.2976456920599999, "GiPValue": 0.19440911337, "NNeighbors": 14, "Gi_Bin": 0, "Confidence": "0%" }, "geometry": { "type": "Point", "coordinates": [ 110.330933736702661, 1.553359936112201 ] } },
{ "type": "Feature", "properties": { "SOURCE_ID": 48, "CO2_Stock": 66.344, "GiZScore": -1.2487924130200001, "GiPValue": 0.21174103386000001, "NNeighbors": 13, "Gi_Bin": 0, "Confidence": "0%" }, "geometry": { "type": "Point", "coordinates": [ 110.330895352738423, 1.553361267108812 ] } },
{ "type": "Feature", "properties": { "SOURCE_ID": 49, "CO2_Stock": 42.05, "GiZScore": -0.96959002162999997, "GiPValue": 0.33225090096999998, "NNeighbors": 8, "Gi_Bin": 0, "Confidence": "0%" }, "geometry": { "type": "Point", "coordinates": [ 110.33073657383386, 1.553366694517365 ] } },
{ "type": "Feature", "properties": { "SOURCE_ID": 50, "CO2_Stock": 49.444, "GiZScore": -0.9065125015, "GiPValue": 0.36466466117000002, "NNeighbors": 7, "Gi_Bin": 0, "Confidence": "0%" }, "geometry": { "type": "Point", "coordinates": [ 110.330662467898662, 1.553372019403241 ] } },
{ "type": "Feature", "properties": { "SOURCE_ID": 51, "CO2_Stock": 35.264, "GiZScore": -0.76036994860999996, "GiPValue": 0.44703348734999998, "NNeighbors": 5, "Gi_Bin": 0, "Confidence": "0%" }, "geometry": { "type": "Point", "coordinates": [ 110.329831462851814, 1.55342003330793 ] } },
{ "type": "Feature", "properties": { "SOURCE_ID": 52, "CO2_Stock": 23.614, "GiZScore": -0.90278322815000001, "GiPValue": 0.36664096433, "NNeighbors": 7, "Gi_Bin": 0, "Confidence": "0%" }, "geometry": { "type": "Point", "coordinates": [ 110.329730954619947, 1.553421031555388 ] } },
{ "type": "Feature", "properties": { "SOURCE_ID": 53, "CO2_Stock": 35.264, "GiZScore": -0.90278322815000001, "GiPValue": 0.36664096433, "NNeighbors": 7, "Gi_Bin": 0, "Confidence": "0%" }, "geometry": { "type": "Point", "coordinates": [ 110.329676373865595, 1.553427687437875 ] } },
{ "type": "Feature", "properties": { "SOURCE_ID": 54, "CO2_Stock": 49.444, "GiZScore": -0.90278322815000001, "GiPValue": 0.36664096433, "NNeighbors": 7, "Gi_Bin": 0, "Confidence": "0%" }, "geometry": { "type": "Point", "coordinates": [ 110.329621126713675, 1.553427687437875 ] } },
{ "type": "Feature", "properties": { "SOURCE_ID": 55, "CO2_Stock": 66.344, "GiZScore": -0.90278322815000001, "GiPValue": 0.36664096433, "NNeighbors": 7, "Gi_Bin": 0, "Confidence": "0%" }, "geometry": { "type": "Point", "coordinates": [ 110.329563217568477, 1.553435009717987 ] } },
{ "type": "Feature", "properties": { "SOURCE_ID": 56, "CO2_Stock": 57.562, "GiZScore": -0.90187205767, "GiPValue": 0.3671248463, "NNeighbors": 7, "Gi_Bin": 0, "Confidence": "0%" }, "geometry": { "type": "Point", "coordinates": [ 110.329513296201696, 1.553436007965445 ] } },
{ "type": "Feature", "properties": { "SOURCE_ID": 57, "CO2_Stock": 29.133, "GiZScore": -0.90187205767, "GiPValue": 0.3671248463, "NNeighbors": 7, "Gi_Bin": 0, "Confidence": "0%" }, "geometry": { "type": "Point", "coordinates": [ 110.329464040333278, 1.553441000102112 ] } },
{ "type": "Feature", "properties": { "SOURCE_ID": 58, "CO2_Stock": 42.05, "GiZScore": -0.67698710154999997, "GiPValue": 0.49841414264, "NNeighbors": 4, "Gi_Bin": 0, "Confidence": "0%" }, "geometry": { "type": "Point", "coordinates": [ 110.32923079126806, 1.553453676945708 ] } },
{ "type": "Feature", "properties": { "SOURCE_ID": 59, "CO2_Stock": 49.444, "GiZScore": -0.47628843775000002, "GiPValue": 0.6338689031, "NNeighbors": 2, "Gi_Bin": 0, "Confidence": "0%" }, "geometry": { "type": "Point", "coordinates": [ 110.329170885627946, 1.553456606037571 ] } },
{ "type": "Feature", "properties": { "SOURCE_ID": 60, "CO2_Stock": 35.264, "GiZScore": -0.76134025916000003, "GiPValue": 0.44645386631, "NNeighbors": 5, "Gi_Bin": 0, "Confidence": "0%" }, "geometry": { "type": "Point", "coordinates": [ 110.328838607715625, 1.553469120103841 ] } },
{ "type": "Feature", "properties": { "SOURCE_ID": 61, "CO2_Stock": 66.344, "GiZScore": -0.76134025916000003, "GiPValue": 0.44645386631, "NNeighbors": 5, "Gi_Bin": 0, "Confidence": "0%" }, "geometry": { "type": "Point", "coordinates": [ 110.32878109786941, 1.553469918701808 ] } },
{ "type": "Feature", "properties": { "SOURCE_ID": 62, "CO2_Stock": 29.133, "GiZScore": -0.76134025916000003, "GiPValue": 0.44645386631, "NNeighbors": 5, "Gi_Bin": 0, "Confidence": "0%" }, "geometry": { "type": "Point", "coordinates": [ 110.328729978605679, 1.553475775986328 ] } },
{ "type": "Feature", "properties": { "SOURCE_ID": 63, "CO2_Stock": 49.444, "GiZScore": -0.76134025916000003, "GiPValue": 0.44645386631, "NNeighbors": 5, "Gi_Bin": 0, "Confidence": "0%" }, "geometry": { "type": "Point", "coordinates": [ 110.328652234013475, 1.553481899470114 ] } },
{ "type": "Feature", "properties": { "SOURCE_ID": 64, "CO2_Stock": 23.614, "GiZScore": -0.90577722748, "GiPValue": 0.36505378693000001, "NNeighbors": 7, "Gi_Bin": 0, "Confidence": "0%" }, "geometry": { "type": "Point", "coordinates": [ 110.328571560329294, 1.553483763764746 ] } },
{ "type": "Feature", "properties": { "SOURCE_ID": 65, "CO2_Stock": 35.264, "GiZScore": -0.76753293264, "GiPValue": 0.44276472698000002, "NNeighbors": 5, "Gi_Bin": 0, "Confidence": "0%" }, "geometry": { "type": "Point", "coordinates": [ 110.328362607348538, 1.553497168159822 ] } },
{ "type": "Feature", "properties": { "SOURCE_ID": 66, "CO2_Stock": 35.264, "GiZScore": -0.83756941415999997, "GiPValue": 0.40227258493000001, "NNeighbors": 6, "Gi_Bin": 0, "Confidence": "0%" }, "geometry": { "type": "Point", "coordinates": [ 110.32832133925848, 1.553500097251742 ] } },
{ "type": "Feature", "properties": { "SOURCE_ID": 67, "CO2_Stock": 35.264, "GiZScore": -0.76077035404000004, "GiPValue": 0.44679425082000002, "NNeighbors": 5, "Gi_Bin": 0, "Confidence": "0%" }, "geometry": { "type": "Point", "coordinates": [ 110.328162122384128, 1.553510214624737 ] } },
{ "type": "Feature", "properties": { "SOURCE_ID": 68, "CO2_Stock": 35.264, "GiZScore": -0.83265539797, "GiPValue": 0.40503911401999998, "NNeighbors": 6, "Gi_Bin": 0, "Confidence": "0%" }, "geometry": { "type": "Point", "coordinates": [ 110.328114197512264, 1.553512877517335 ] } },
{ "type": "Feature", "properties": { "SOURCE_ID": 69, "CO2_Stock": 66.344, "GiZScore": -0.75724140534999995, "GiPValue": 0.44890525433, "NNeighbors": 5, "Gi_Bin": 0, "Confidence": "0%" }, "geometry": { "type": "Point", "coordinates": [ 110.328053493274183, 1.553515539510613 ] } },
{ "type": "Feature", "properties": { "SOURCE_ID": 70, "CO2_Stock": 57.562, "GiZScore": -0.67411814637, "GiPValue": 0.500236208, "NNeighbors": 4, "Gi_Bin": 0, "Confidence": "0%" }, "geometry": { "type": "Point", "coordinates": [ 110.327849813018531, 1.553528053576883 ] } },
{ "type": "Feature", "properties": { "SOURCE_ID": 71, "CO2_Stock": 35.264, "GiZScore": -0.58755023773000004, "GiPValue": 0.55683422363000001, "NNeighbors": 3, "Gi_Bin": 0, "Confidence": "0%" }, "geometry": { "type": "Point", "coordinates": [ 110.327703908808417, 1.553537106152589 ] } },
{ "type": "Feature", "properties": { "SOURCE_ID": 72, "CO2_Stock": 29.133, "GiZScore": -0.6846270109, "GiPValue": 0.49357932250999997, "NNeighbors": 5, "Gi_Bin": 0, "Confidence": "0%" }, "geometry": { "type": "Point", "coordinates": [ 110.327433699405788, 1.553550506950387 ] } },
{ "type": "Feature", "properties": { "SOURCE_ID": 73, "CO2_Stock": 49.444, "GiZScore": -0.88733221954999997, "GiPValue": 0.37490007346999998, "NNeighbors": 8, "Gi_Bin": 0, "Confidence": "0%" }, "geometry": { "type": "Point", "coordinates": [ 110.327102487190075, 1.553575267984286 ] } },
{ "type": "Feature", "properties": { "SOURCE_ID": 74, "CO2_Stock": 49.444, "GiZScore": -0.2240032639, "GiPValue": 0.82275476371, "NNeighbors": 8, "Gi_Bin": 0, "Confidence": "0%" }, "geometry": { "type": "Point", "coordinates": [ 110.326972025238831, 1.553577397578863 ] } },
{ "type": "Feature", "properties": { "SOURCE_ID": 75, "CO2_Stock": 35.264, "GiZScore": 1.13221135318, "GiPValue": 0.25754560686, "NNeighbors": 10, "Gi_Bin": 0, "Confidence": "0%" }, "geometry": { "type": "Point", "coordinates": [ 110.326661046869901, 1.553595502730332 ] } },
{ "type": "Feature", "properties": { "SOURCE_ID": 76, "CO2_Stock": 42.05, "GiZScore": 1.5774936560199999, "GiPValue": 0.11468198069, "NNeighbors": 10, "Gi_Bin": 0, "Confidence": "0%" }, "geometry": { "type": "Point", "coordinates": [ 110.326601939827697, 1.553598165622873 ] } },
{ "type": "Feature", "properties": { "SOURCE_ID": 77, "CO2_Stock": 49.444, "GiZScore": 1.7704534673500001, "GiPValue": 0.07665162956, "NNeighbors": 11, "Gi_Bin": 0, "Confidence": "0%" }, "geometry": { "type": "Point", "coordinates": [ 110.326535377405776, 1.55360615250197 ] } },
{ "type": "Feature", "properties": { "SOURCE_ID": 78, "CO2_Stock": 49.444, "GiZScore": 1.5023258347199999, "GiPValue": 0.13301297975000001, "NNeighbors": 10, "Gi_Bin": 0, "Confidence": "0%" }, "geometry": { "type": "Point", "coordinates": [ 110.326351341940949, 1.553605486104345 ] } },
{ "type": "Feature", "properties": { "SOURCE_ID": 79, "CO2_Stock": 49.444, "GiZScore": 1.8922725728000001, "GiPValue": 0.0584546733, "NNeighbors": 9, "Gi_Bin": 0, "Confidence": "0%" }, "geometry": { "type": "Point", "coordinates": [ 110.326277857437219, 1.553607616598299 ] } },
{ "type": "Feature", "properties": { "SOURCE_ID": 80, "CO2_Stock": 35.264, "GiZScore": 1.87650126332, "GiPValue": 0.06058648139, "NNeighbors": 8, "Gi_Bin": 0, "Confidence": "0%" }, "geometry": { "type": "Point", "coordinates": [ 110.326207567325412, 1.553609746192876 ] } },
{ "type": "Feature", "properties": { "SOURCE_ID": 81, "CO2_Stock": 23.614, "GiZScore": -0.68623840029000005, "GiPValue": 0.49256279101, "NNeighbors": 4, "Gi_Bin": 0, "Confidence": "0%" }, "geometry": { "type": "Point", "coordinates": [ 110.335814383527065, 1.55320380750976 ] } },
{ "type": "Feature", "properties": { "SOURCE_ID": 82, "CO2_Stock": 23.614, "GiZScore": -0.76994660186999997, "GiPValue": 0.44133157501999998, "NNeighbors": 5, "Gi_Bin": 0, "Confidence": "0%" }, "geometry": { "type": "Point", "coordinates": [ 110.335725397409249, 1.553208540641663 ] } },
{ "type": "Feature", "properties": { "SOURCE_ID": 83, "CO2_Stock": 49.444, "GiZScore": -0.84222331232000003, "GiPValue": 0.39966297551000002, "NNeighbors": 6, "Gi_Bin": 0, "Confidence": "0%" }, "geometry": { "type": "Point", "coordinates": [ 110.335642091409454, 1.553211380700702 ] } },
{ "type": "Feature", "properties": { "SOURCE_ID": 84, "CO2_Stock": 29.133, "GiZScore": -0.90818096664000003, "GiPValue": 0.36378262865, "NNeighbors": 7, "Gi_Bin": 0, "Confidence": "0%" }, "geometry": { "type": "Point", "coordinates": [ 110.335549318246478, 1.553216114731981 ] } },
{ "type": "Feature", "properties": { "SOURCE_ID": 85, "CO2_Stock": 23.614, "GiZScore": -0.90471271825, "GiPValue": 0.36561761169000001, "NNeighbors": 7, "Gi_Bin": 0, "Confidence": "0%" }, "geometry": { "type": "Point", "coordinates": [ 110.335459386041919, 1.553227474068706 ] } },
{ "type": "Feature", "properties": { "SOURCE_ID": 86, "CO2_Stock": 49.444, "GiZScore": -0.90124446986999995, "GiPValue": 0.36745836152, "NNeighbors": 7, "Gi_Bin": 0, "Confidence": "0%" }, "geometry": { "type": "Point", "coordinates": [ 110.335375133056004, 1.553230314127745 ] } },
{ "type": "Feature", "properties": { "SOURCE_ID": 87, "CO2_Stock": 57.562, "GiZScore": -0.9704592208, "GiPValue": 0.33181765441, "NNeighbors": 8, "Gi_Bin": 0, "Confidence": "0%" }, "geometry": { "type": "Point", "coordinates": [ 110.335286146938188, 1.553230314127745 ] } },
{ "type": "Feature", "properties": { "SOURCE_ID": 88, "CO2_Stock": 49.444, "GiZScore": -1.0874825234900001, "GiPValue": 0.27682363487, "NNeighbors": 10, "Gi_Bin": 0, "Confidence": "0%" }, "geometry": { "type": "Point", "coordinates": [ 110.335194320761332, 1.553237887318687 ] } },
{ "type": "Feature", "properties": { "SOURCE_ID": 89, "CO2_Stock": 49.444, "GiZScore": -1.14262555533, "GiPValue": 0.25319410969, "NNeighbors": 11, "Gi_Bin": 0, "Confidence": "0%" }, "geometry": { "type": "Point", "coordinates": [ 110.335103752736075, 1.553246478542178 ] } },
{ "type": "Feature", "properties": { "SOURCE_ID": 90, "CO2_Stock": 23.614, "GiZScore": -1.1454138756400001, "GiPValue": 0.25203777243999997, "NNeighbors": 11, "Gi_Bin": 0, "Confidence": "0%" }, "geometry": { "type": "Point", "coordinates": [ 110.335019736271875, 1.553245295034401 ] } },
{ "type": "Feature", "properties": { "SOURCE_ID": 91, "CO2_Stock": 49.444, "GiZScore": -1.1454138756400001, "GiPValue": 0.25203777243999997, "NNeighbors": 11, "Gi_Bin": 0, "Confidence": "0%" }, "geometry": { "type": "Point", "coordinates": [ 110.33493927033112, 1.553250502109051 ] } },
{ "type": "Feature", "properties": { "SOURCE_ID": 92, "CO2_Stock": 42.05, "GiZScore": -1.1975413994099999, "GiPValue": 0.23109562303, "NNeighbors": 12, "Gi_Bin": 0, "Confidence": "0%" }, "geometry": { "type": "Point", "coordinates": [ 110.334837741368744, 1.553256655270445 ] } },
{ "type": "Feature", "properties": { "SOURCE_ID": 93, "CO2_Stock": 23.614, "GiZScore": -1.08304696179, "GiPValue": 0.27878759552, "NNeighbors": 10, "Gi_Bin": 0, "Confidence": "0%" }, "geometry": { "type": "Point", "coordinates": [ 110.334741182059986, 1.55326209796749 ] } },
{ "type": "Feature", "properties": { "SOURCE_ID": 94, "CO2_Stock": 49.444, "GiZScore": -1.02556119337, "GiPValue": 0.30509848164999998, "NNeighbors": 9, "Gi_Bin": 0, "Confidence": "0%" }, "geometry": { "type": "Point", "coordinates": [ 110.334649592404844, 1.553267778085512 ] } },
{ "type": "Feature", "properties": { "SOURCE_ID": 95, "CO2_Stock": 49.444, "GiZScore": -0.62309876326000002, "GiPValue": 0.53321962592000005, "NNeighbors": 11, "Gi_Bin": 0, "Confidence": "0%" }, "geometry": { "type": "Point", "coordinates": [ 110.334564866375558, 1.553270381622838 ] } },
{ "type": "Feature", "properties": { "SOURCE_ID": 96, "CO2_Stock": 75.781, "GiZScore": -0.4275601618, "GiPValue": 0.66897137660999995, "NNeighbors": 12, "Gi_Bin": 0, "Confidence": "0%" }, "geometry": { "type": "Point", "coordinates": [ 110.334501203367893, 1.553276061740917 ] } },
{ "type": "Feature", "properties": { "SOURCE_ID": 97, "CO2_Stock": 35.264, "GiZScore": -0.12503517874, "GiPValue": 0.90049570028000003, "NNeighbors": 12, "Gi_Bin": 0, "Confidence": "0%" }, "geometry": { "type": "Point", "coordinates": [ 110.334421842693928, 1.553284225786456 ] } },
{ "type": "Feature", "properties": { "SOURCE_ID": 98, "CO2_Stock": 23.614, "GiZScore": 0.13871101572, "GiPValue": 0.889678513, "NNeighbors": 12, "Gi_Bin": 0, "Confidence": "0%" }, "geometry": { "type": "Point", "coordinates": [ 110.334348002958052, 1.553285171873256 ] } },
{ "type": "Feature", "properties": { "SOURCE_ID": 99, "CO2_Stock": 23.614, "GiZScore": 0.3261136254, "GiPValue": 0.74433838903000005, "NNeighbors": 12, "Gi_Bin": 0, "Confidence": "0%" }, "geometry": { "type": "Point", "coordinates": [ 110.334261856899218, 1.553288958918358 ] } },
{ "type": "Feature", "properties": { "SOURCE_ID": 100, "CO2_Stock": 57.562, "GiZScore": 0.37689362957, "GiPValue": 0.70625265661000003, "NNeighbors": 13, "Gi_Bin": 0, "Confidence": "0%" }, "geometry": { "type": "Point", "coordinates": [ 110.334196064296975, 1.553293455528603 ] } },
{ "type": "Feature", "properties": { "SOURCE_ID": 101, "CO2_Stock": 14.466, "GiZScore": -0.860203994, "GiPValue": 0.38967661228, "NNeighbors": 16, "Gi_Bin": 0, "Confidence": "0%" }, "geometry": { "type": "Point", "coordinates": [ 110.333928667973737, 1.553354796486701 ] } },
{ "type": "Feature", "properties": { "SOURCE_ID": 102, "CO2_Stock": 7.697, "GiZScore": -0.97832551792, "GiPValue": 0.32791336559000001, "NNeighbors": 14, "Gi_Bin": 0, "Confidence": "0%" }, "geometry": { "type": "Point", "coordinates": [ 110.333923146136328, 1.553409623655227 ] } },
{ "type": "Feature", "properties": { "SOURCE_ID": 103, "CO2_Stock": 23.614, "GiZScore": -0.92081663745999998, "GiPValue": 0.35714617787000003, "NNeighbors": 10, "Gi_Bin": 0, "Confidence": "0%" }, "geometry": { "type": "Point", "coordinates": [ 110.333925118349612, 1.553448673117828 ] } },
{ "type": "Feature", "properties": { "SOURCE_ID": 104, "CO2_Stock": 29.133, "GiZScore": -0.98945928271000005, "GiPValue": 0.32243849495, "NNeighbors": 8, "Gi_Bin": 0, "Confidence": "0%" }, "geometry": { "type": "Point", "coordinates": [ 110.333925907055004, 1.553486539971914 ] } },
{ "type": "Feature", "properties": { "SOURCE_ID": 105, "CO2_Stock": 10.793, "GiZScore": -0.92771258937000001, "GiPValue": 0.3535566872, "NNeighbors": 7, "Gi_Bin": 0, "Confidence": "0%" }, "geometry": { "type": "Point", "coordinates": [ 110.333925907055004, 1.553518884089272 ] } },
{ "type": "Feature", "properties": { "SOURCE_ID": 106, "CO2_Stock": 14.466, "GiZScore": -0.92771258937000001, "GiPValue": 0.3535566872, "NNeighbors": 7, "Gi_Bin": 0, "Confidence": "0%" }, "geometry": { "type": "Point", "coordinates": [ 110.333929851481514, 1.55356542850177 ] } },
{ "type": "Feature", "properties": { "SOURCE_ID": 107, "CO2_Stock": 10.793, "GiZScore": -0.92771258937000001, "GiPValue": 0.3535566872, "NNeighbors": 7, "Gi_Bin": 0, "Confidence": "0%" }, "geometry": { "type": "Point", "coordinates": [ 110.333933795908024, 1.55362538360464 ] } },
{ "type": "Feature", "properties": { "SOURCE_ID": 108, "CO2_Stock": 49.444, "GiZScore": -1.3497378152199999, "GiPValue": 0.1771000979, "NNeighbors": 15, "Gi_Bin": 0, "Confidence": "0%" }, "geometry": { "type": "Point", "coordinates": [ 110.33369562035665, 1.55331951068689 ] } },
{ "type": "Feature", "properties": { "SOURCE_ID": 109, "CO2_Stock": 66.344, "GiZScore": -1.2994878079600001, "GiPValue": 0.19377657488, "NNeighbors": 14, "Gi_Bin": 0, "Confidence": "0%" }, "geometry": { "type": "Point", "coordinates": [ 110.333649865548921, 1.553324243818849 ] } },
{ "type": "Feature", "properties": { "SOURCE_ID": 110, "CO2_Stock": 42.05, "GiZScore": -1.3372798647799999, "GiPValue": 0.18113130097, "NNeighbors": 15, "Gi_Bin": 0, "Confidence": "0%" }, "geometry": { "type": "Point", "coordinates": [ 110.333507340091728, 1.553332132671812 ] } },
{ "type": "Feature", "properties": { "SOURCE_ID": 111, "CO2_Stock": 66.344, "GiZScore": -1.3353873751700001, "GiPValue": 0.18174959461000001, "NNeighbors": 15, "Gi_Bin": 0, "Confidence": "0%" }, "geometry": { "type": "Point", "coordinates": [ 110.333454222534385, 1.553333184878625 ] } },
{ "type": "Feature", "properties": { "SOURCE_ID": 112, "CO2_Stock": 35.264, "GiZScore": -1.2847479931400001, "GiPValue": 0.19888036128, "NNeighbors": 14, "Gi_Bin": 0, "Confidence": "0%" }, "geometry": { "type": "Point", "coordinates": [ 110.333383398225294, 1.553342301306202 ] } },
{ "type": "Feature", "properties": { "SOURCE_ID": 113, "CO2_Stock": 57.562, "GiZScore": -1.2350220969800001, "GiPValue": 0.21682230394, "NNeighbors": 13, "Gi_Bin": 0, "Confidence": "0%" }, "geometry": { "type": "Point", "coordinates": [ 110.33333185717953, 1.553341599834994 ] } },
{ "type": "Feature", "properties": { "SOURCE_ID": 114, "CO2_Stock": 49.444, "GiZScore": -1.2364425835699999, "GiPValue": 0.2162941192, "NNeighbors": 13, "Gi_Bin": 0, "Confidence": "0%" }, "geometry": { "type": "Point", "coordinates": [ 110.333263137284007, 1.553346157599151 ] } },
{ "type": "Feature", "properties": { "SOURCE_ID": 115, "CO2_Stock": 49.444, "GiZScore": -1.28625312254, "GiPValue": 0.19835473682, "NNeighbors": 14, "Gi_Bin": 0, "Confidence": "0%" }, "geometry": { "type": "Point", "coordinates": [ 110.333204934959838, 1.553349664055816 ] } },
{ "type": "Feature", "properties": { "SOURCE_ID": 116, "CO2_Stock": 66.344, "GiZScore": -1.3844499166599999, "GiPValue": 0.1662207335, "NNeighbors": 16, "Gi_Bin": 0, "Confidence": "0%" }, "geometry": { "type": "Point", "coordinates": [ 110.333138668414904, 1.55335141683446 ] } },
{ "type": "Feature", "properties": { "SOURCE_ID": 117, "CO2_Stock": 57.562, "GiZScore": -1.3833375798400001, "GiPValue": 0.16656138027, "NNeighbors": 16, "Gi_Bin": 0, "Confidence": "0%" }, "geometry": { "type": "Point", "coordinates": [ 110.33309168603256, 1.553354221819916 ] } },
{ "type": "Feature", "properties": { "SOURCE_ID": 118, "CO2_Stock": 49.444, "GiZScore": -1.33949325116, "GiPValue": 0.18041015005, "NNeighbors": 15, "Gi_Bin": 0, "Confidence": "0%" }, "geometry": { "type": "Point", "coordinates": [ 110.3330387429437, 1.553357026805372 ] } },
{ "type": "Feature", "properties": { "SOURCE_ID": 119, "CO2_Stock": 29.133, "GiZScore": -1.34296040842, "GiPValue": 0.17928479412000001, "NNeighbors": 15, "Gi_Bin": 0, "Confidence": "0%" }, "geometry": { "type": "Point", "coordinates": [ 110.332998072003477, 1.553358428848469 ] } },
{ "type": "Feature", "properties": { "SOURCE_ID": 120, "CO2_Stock": 35.264, "GiZScore": -1.34296040842, "GiPValue": 0.17928479412000001, "NNeighbors": 15, "Gi_Bin": 0, "Confidence": "0%" }, "geometry": { "type": "Point", "coordinates": [ 110.332949335943169, 1.553366493069234 ] } },
{ "type": "Feature", "properties": { "SOURCE_ID": 121, "CO2_Stock": 35.264, "GiZScore": -1.3448528980300001, "GiPValue": 0.17867274367, "NNeighbors": 15, "Gi_Bin": 0, "Confidence": "0%" }, "geometry": { "type": "Point", "coordinates": [ 110.332904107238846, 1.55336474029059 ] } },
{ "type": "Feature", "properties": { "SOURCE_ID": 122, "CO2_Stock": 35.264, "GiZScore": -1.4381668805600001, "GiPValue": 0.15038670991, "NNeighbors": 17, "Gi_Bin": 0, "Confidence": "0%" }, "geometry": { "type": "Point", "coordinates": [ 110.332862384091811, 1.553367194540442 ] } },
{ "type": "Feature", "properties": { "SOURCE_ID": 123, "CO2_Stock": 42.05, "GiZScore": -1.4853399361299999, "GiPValue": 0.13745379784, "NNeighbors": 18, "Gi_Bin": 0, "Confidence": "0%" }, "geometry": { "type": "Point", "coordinates": [ 110.332822062987873, 1.553367194540442 ] } },
{ "type": "Feature", "properties": { "SOURCE_ID": 124, "CO2_Stock": 23.614, "GiZScore": -1.48824487361, "GiPValue": 0.13668632707, "NNeighbors": 18, "Gi_Bin": 0, "Confidence": "0%" }, "geometry": { "type": "Point", "coordinates": [ 110.332782794090747, 1.553371752304599 ] } },
{ "type": "Feature", "properties": { "SOURCE_ID": 125, "CO2_Stock": 29.133, "GiZScore": -1.49087187904, "GiPValue": 0.13599513567, "NNeighbors": 18, "Gi_Bin": 0, "Confidence": "0%" }, "geometry": { "type": "Point", "coordinates": [ 110.332745979443473, 1.553374557290056 ] } },
{ "type": "Feature", "properties": { "SOURCE_ID": 126, "CO2_Stock": 49.444, "GiZScore": -1.53293542746, "GiPValue": 0.12529176578000001, "NNeighbors": 19, "Gi_Bin": 0, "Confidence": "0%" }, "geometry": { "type": "Point", "coordinates": [ 110.332700749839773, 1.553377362275512 ] } },
{ "type": "Feature", "properties": { "SOURCE_ID": 127, "CO2_Stock": 29.133, "GiZScore": -1.49159083994, "GiPValue": 0.135806441, "NNeighbors": 18, "Gi_Bin": 0, "Confidence": "0%" }, "geometry": { "type": "Point", "coordinates": [ 110.33265148677674, 1.553380674478603 ] } },
{ "type": "Feature", "properties": { "SOURCE_ID": 128, "CO2_Stock": 23.614, "GiZScore": -1.44672089035, "GiPValue": 0.14797511115, "NNeighbors": 17, "Gi_Bin": 0, "Confidence": "0%" }, "geometry": { "type": "Point", "coordinates": [ 110.33259854368788, 1.553385232242704 ] } },
{ "type": "Feature", "properties": { "SOURCE_ID": 129, "CO2_Stock": 42.05, "GiZScore": -1.4455858214699999, "GiPValue": 0.14829340581, "NNeighbors": 17, "Gi_Bin": 0, "Confidence": "0%" }, "geometry": { "type": "Point", "coordinates": [ 110.332543146349167, 1.5533848815071 ] } },
{ "type": "Feature", "properties": { "SOURCE_ID": 130, "CO2_Stock": 18.744, "GiZScore": -1.3971675287800001, "GiPValue": 0.16236319878, "NNeighbors": 16, "Gi_Bin": 0, "Confidence": "0%" }, "geometry": { "type": "Point", "coordinates": [ 110.332489151952871, 1.553387335757009 ] } },
{ "type": "Feature", "properties": { "SOURCE_ID": 131, "CO2_Stock": 57.562, "GiZScore": -1.4447076962700001, "GiPValue": 0.14854000721, "NNeighbors": 17, "Gi_Bin": 0, "Confidence": "0%" }, "geometry": { "type": "Point", "coordinates": [ 110.332432351671741, 1.553390842213673 ] } },
{ "type": "Feature", "properties": { "SOURCE_ID": 132, "CO2_Stock": 18.744, "GiZScore": -1.4447076962700001, "GiPValue": 0.14854000721, "NNeighbors": 17, "Gi_Bin": 0, "Confidence": "0%" }, "geometry": { "type": "Point", "coordinates": [ 110.332372747304532, 1.553391894420429 ] } },
{ "type": "Feature", "properties": { "SOURCE_ID": 133, "CO2_Stock": 49.444, "GiZScore": -1.3981653324100001, "GiPValue": 0.1620634246, "NNeighbors": 16, "Gi_Bin": 0, "Confidence": "0%" }, "geometry": { "type": "Point", "coordinates": [ 110.332321207158031, 1.553395399977774 ] } },
{ "type": "Feature", "properties": { "SOURCE_ID": 134, "CO2_Stock": 35.264, "GiZScore": -1.30136255409, "GiPValue": 0.19313438472, "NNeighbors": 14, "Gi_Bin": 0, "Confidence": "0%" }, "geometry": { "type": "Point", "coordinates": [ 110.332260901319614, 1.55339680292019 ] } },
{ "type": "Feature", "properties": { "SOURCE_ID": 135, "CO2_Stock": 23.614, "GiZScore": -1.0872582255800001, "GiPValue": 0.27692272168999998, "NNeighbors": 10, "Gi_Bin": 0, "Confidence": "0%" }, "geometry": { "type": "Point", "coordinates": [ 110.332193232731584, 1.553402062155499 ] } },
{ "type": "Feature", "properties": { "SOURCE_ID": 136, "CO2_Stock": 23.614, "GiZScore": -1.1415202664599999, "GiPValue": 0.25365350234, "NNeighbors": 11, "Gi_Bin": 0, "Confidence": "0%" }, "geometry": { "type": "Point", "coordinates": [ 110.331635119765053, 1.5534348037732 ] } },
{ "type": "Feature", "properties": { "SOURCE_ID": 137, "CO2_Stock": 49.444, "GiZScore": -1.13889775567, "GiPValue": 0.25474582084000003, "NNeighbors": 11, "Gi_Bin": 0, "Confidence": "0%" }, "geometry": { "type": "Point", "coordinates": [ 110.331573061147935, 1.553437082655307 ] } },
{ "type": "Feature", "properties": { "SOURCE_ID": 138, "CO2_Stock": 49.444, "GiZScore": -1.13889775567, "GiPValue": 0.25474582084000003, "NNeighbors": 11, "Gi_Bin": 0, "Confidence": "0%" }, "geometry": { "type": "Point", "coordinates": [ 110.331500483160823, 1.553439186169555 ] } },
{ "type": "Feature", "properties": { "SOURCE_ID": 139, "CO2_Stock": 66.344, "GiZScore": -1.24401356077, "GiPValue": 0.21349459602000001, "NNeighbors": 13, "Gi_Bin": 0, "Confidence": "0%" }, "geometry": { "type": "Point", "coordinates": [ 110.331433866779605, 1.553443043361824 ] } },
{ "type": "Feature", "properties": { "SOURCE_ID": 140, "CO2_Stock": 66.344, "GiZScore": -1.29474304565, "GiPValue": 0.19540888524, "NNeighbors": 14, "Gi_Bin": 0, "Confidence": "0%" }, "geometry": { "type": "Point", "coordinates": [ 110.331380222219536, 1.553445497611676 ] } },
{ "type": "Feature", "properties": { "SOURCE_ID": 141, "CO2_Stock": 35.264, "GiZScore": -1.2942118178499999, "GiPValue": 0.19559226582, "NNeighbors": 14, "Gi_Bin": 0, "Confidence": "0%" }, "geometry": { "type": "Point", "coordinates": [ 110.331203489249674, 1.553452856763954 ] } },
{ "type": "Feature", "properties": { "SOURCE_ID": 142, "CO2_Stock": 23.614, "GiZScore": -1.2936805900499999, "GiPValue": 0.19577577252, "NNeighbors": 14, "Gi_Bin": 0, "Confidence": "0%" }, "geometry": { "type": "Point", "coordinates": [ 110.331118640912621, 1.553457063792507 ] } },
{ "type": "Feature", "properties": { "SOURCE_ID": 143, "CO2_Stock": 42.05, "GiZScore": -1.1978538292500001, "GiPValue": 0.23097394863000001, "NNeighbors": 12, "Gi_Bin": 0, "Confidence": "0%" }, "geometry": { "type": "Point", "coordinates": [ 110.331052023632026, 1.55346267376342 ] } },
{ "type": "Feature", "properties": { "SOURCE_ID": 144, "CO2_Stock": 49.444, "GiZScore": -1.24891832183, "GiPValue": 0.21169497378, "NNeighbors": 13, "Gi_Bin": 0, "Confidence": "0%" }, "geometry": { "type": "Point", "coordinates": [ 110.33097769286627, 1.553468283734333 ] } },
{ "type": "Feature", "properties": { "SOURCE_ID": 145, "CO2_Stock": 29.133, "GiZScore": -1.2988890096000001, "GiPValue": 0.19398202192, "NNeighbors": 14, "Gi_Bin": 0, "Confidence": "0%" }, "geometry": { "type": "Point", "coordinates": [ 110.330927204926638, 1.553473192234094 ] } },
{ "type": "Feature", "properties": { "SOURCE_ID": 146, "CO2_Stock": 29.133, "GiZScore": -1.2487924130200001, "GiPValue": 0.21174103386000001, "NNeighbors": 13, "Gi_Bin": 0, "Confidence": "0%" }, "geometry": { "type": "Point", "coordinates": [ 110.330868301131261, 1.553477749998194 ] } },
{ "type": "Feature", "properties": { "SOURCE_ID": 147, "CO2_Stock": 29.133, "GiZScore": -0.83551061682000005, "GiPValue": 0.40343027992000002, "NNeighbors": 6, "Gi_Bin": 0, "Confidence": "0%" }, "geometry": { "type": "Point", "coordinates": [ 110.330661079345418, 1.553484038957265 ] } },
{ "type": "Feature", "properties": { "SOURCE_ID": 148, "CO2_Stock": 3089.773, "GiZScore": 6.5354912275299997, "GiPValue": 6e-11, "NNeighbors": 5, "Gi_Bin": 3, "Confidence": "99%" }, "geometry": { "type": "Point", "coordinates": [ 110.32740201449144, 1.554221981259502 ] } },
{ "type": "Feature", "properties": { "SOURCE_ID": 149, "CO2_Stock": 3016.501, "GiZScore": 8.9919554013899994, "GiPValue": 0.0, "NNeighbors": 7, "Gi_Bin": 3, "Confidence": "99%" }, "geometry": { "type": "Point", "coordinates": [ 110.327325230375152, 1.554194106772684 ] } },
{ "type": "Feature", "properties": { "SOURCE_ID": 150, "CO2_Stock": 3089.773, "GiZScore": 8.9978298519099997, "GiPValue": 0.0, "NNeighbors": 8, "Gi_Bin": 3, "Confidence": "99%" }, "geometry": { "type": "Point", "coordinates": [ 110.327190593770922, 1.5541720185239 ] } },
{ "type": "Feature", "properties": { "SOURCE_ID": 151, "CO2_Stock": 4572.671, "GiZScore": 9.0072746376899993, "GiPValue": 0.0, "NNeighbors": 8, "Gi_Bin": 3, "Confidence": "99%" }, "geometry": { "type": "Point", "coordinates": [ 110.327102238977204, 1.554154137303669 ] } },
{ "type": "Feature", "properties": { "SOURCE_ID": 152, "CO2_Stock": 5535.033, "GiZScore": 6.7144313413800001, "GiPValue": 1.9999999999999999e-11, "NNeighbors": 7, "Gi_Bin": 3, "Confidence": "99%" }, "geometry": { "type": "Point", "coordinates": [ 110.326991795035383, 1.5541267889202 ] } },
{ "type": "Feature", "properties": { "SOURCE_ID": 153, "CO2_Stock": 3164.825, "GiZScore": 2.2625876411200001, "GiPValue": 0.02366112069, "NNeighbors": 4, "Gi_Bin": 0, "Confidence": "0%" }, "geometry": { "type": "Point", "coordinates": [ 110.326869781315395, 1.554129944641261 ] } },
{ "type": "Feature", "properties": { "SOURCE_ID": 154, "CO2_Stock": 3550.532, "GiZScore": 1.16927954845, "GiPValue": 0.24229104065000001, "NNeighbors": 5, "Gi_Bin": 0, "Confidence": "0%" }, "geometry": { "type": "Point", "coordinates": [ 110.326748818902956, 1.554128892434505 ] } },
{ "type": "Feature", "properties": { "SOURCE_ID": 155, "CO2_Stock": 19927.438, "GiZScore": 11.341215378199999, "GiPValue": 0.0, "NNeighbors": 9, "Gi_Bin": 3, "Confidence": "99%" }, "geometry": { "type": "Point", "coordinates": [ 110.327278422461291, 1.554118900067238 ] } },
{ "type": "Feature", "properties": { "SOURCE_ID": 156, "CO2_Stock": 17186.042, "GiZScore": 10.7087167373, "GiPValue": 0.0, "NNeighbors": 10, "Gi_Bin": 3, "Confidence": "99%" }, "geometry": { "type": "Point", "coordinates": [ 110.327265800476368, 1.554041063744137 ] } },
{ "type": "Feature", "properties": { "SOURCE_ID": 157, "CO2_Stock": 23106.121, "GiZScore": 9.7628446750800002, "GiPValue": 0.0, "NNeighbors": 10, "Gi_Bin": 3, "Confidence": "99%" }, "geometry": { "type": "Point", "coordinates": [ 110.32726369696212, 1.553942190479745 ] } },
{ "type": "Feature", "properties": { "SOURCE_ID": 158, "CO2_Stock": 24905.721, "GiZScore": 9.7935132877199997, "GiPValue": 0.0, "NNeighbors": 8, "Gi_Bin": 3, "Confidence": "99%" }, "geometry": { "type": "Point", "coordinates": [ 110.327274215432737, 1.553839109287537 ] } },
{ "type": "Feature", "properties": { "SOURCE_ID": 159, "CO2_Stock": 370.13, "GiZScore": 6.7725723562000004, "GiPValue": 9.9999999999999994e-12, "NNeighbors": 9, "Gi_Bin": 3, "Confidence": "99%" }, "geometry": { "type": "Point", "coordinates": [ 110.327318392829625, 1.553757065036564 ] } },
{ "type": "Feature", "properties": { "SOURCE_ID": 160, "CO2_Stock": 133.467, "GiZScore": 4.3953633781899999, "GiPValue": 1.105876e-05, "NNeighbors": 10, "Gi_Bin": 3, "Confidence": "99%" }, "geometry": { "type": "Point", "coordinates": [ 110.327244964083889, 1.553658003813894 ] } },
{ "type": "Feature", "properties": { "SOURCE_ID": 161, "CO2_Stock": 120.525, "GiZScore": 4.1000336634199996, "GiPValue": 4.1309e-05, "NNeighbors": 11, "Gi_Bin": 3, "Confidence": "99%" }, "geometry": { "type": "Point", "coordinates": [ 110.327186061187831, 1.553666418770263 ] } },
{ "type": "Feature", "properties": { "SOURCE_ID": 162, "CO2_Stock": 96.723, "GiZScore": 2.0032808577000001, "GiPValue": 0.04514715096, "NNeighbors": 9, "Gi_Bin": 0, "Confidence": "0%" }, "geometry": { "type": "Point", "coordinates": [ 110.327106120451162, 1.55369026069701 ] } },
{ "type": "Feature", "properties": { "SOURCE_ID": 163, "CO2_Stock": 66.344, "GiZScore": -0.03491595926, "GiPValue": 0.97214675472000001, "NNeighbors": 10, "Gi_Bin": 0, "Confidence": "0%" }, "geometry": { "type": "Point", "coordinates": [ 110.327006992678605, 1.553728574514139 ] } },
{ "type": "Feature", "properties": { "SOURCE_ID": 164, "CO2_Stock": 85.871, "GiZScore": -0.04250061834, "GiPValue": 0.96609961882999995, "NNeighbors": 10, "Gi_Bin": 0, "Confidence": "0%" }, "geometry": { "type": "Point", "coordinates": [ 110.326942479811635, 1.553758026411856 ] } },
{ "type": "Feature", "properties": { "SOURCE_ID": 165, "CO2_Stock": 85.871, "GiZScore": 0.74757829989000002, "GiPValue": 0.45471456373000002, "NNeighbors": 10, "Gi_Bin": 0, "Confidence": "0%" }, "geometry": { "type": "Point", "coordinates": [ 110.326778048668075, 1.553834431014252 ] } },
{ "type": "Feature", "properties": { "SOURCE_ID": 166, "CO2_Stock": 66.344, "GiZScore": 1.36531473632, "GiPValue": 0.17215414931, "NNeighbors": 11, "Gi_Bin": 0, "Confidence": "0%" }, "geometry": { "type": "Point", "coordinates": [ 110.32672335280057, 1.553863882911912 ] } },
{ "type": "Feature", "properties": { "SOURCE_ID": 167, "CO2_Stock": 85.871, "GiZScore": 1.9856837521499999, "GiPValue": 0.04706845024, "NNeighbors": 10, "Gi_Bin": 0, "Confidence": "0%" }, "geometry": { "type": "Point", "coordinates": [ 110.326612558123145, 1.55391577379396 ] } },
{ "type": "Feature", "properties": { "SOURCE_ID": 168, "CO2_Stock": 5641.204, "GiZScore": 0.48688938316000002, "GiPValue": 0.6263367248, "NNeighbors": 12, "Gi_Bin": 0, "Confidence": "0%" }, "geometry": { "type": "Point", "coordinates": [ 110.326810051942402, 1.553711342604402 ] } },
{ "type": "Feature", "properties": { "SOURCE_ID": 169, "CO2_Stock": 3313.807, "GiZScore": 1.2575321394500001, "GiPValue": 0.20856103332000001, "NNeighbors": 12, "Gi_Bin": 0, "Confidence": "0%" }, "geometry": { "type": "Point", "coordinates": [ 110.326652976353841, 1.553740794502119 ] } },
{ "type": "Feature", "properties": { "SOURCE_ID": 170, "CO2_Stock": 3873.264, "GiZScore": 1.85020629003, "GiPValue": 0.06428382274, "NNeighbors": 14, "Gi_Bin": 0, "Confidence": "0%" }, "geometry": { "type": "Point", "coordinates": [ 110.326556206603698, 1.553754818530081 ] } },
{ "type": "Feature", "properties": { "SOURCE_ID": 171, "CO2_Stock": 3550.532, "GiZScore": 1.5536173525000001, "GiPValue": 0.12027571766, "NNeighbors": 14, "Gi_Bin": 0, "Confidence": "0%" }, "geometry": { "type": "Point", "coordinates": [ 110.326500107793777, 1.553752013544624 ] } },
{ "type": "Feature", "properties": { "SOURCE_ID": 172, "CO2_Stock": 4043.447, "GiZScore": 1.91618749007, "GiPValue": 0.05534123513, "NNeighbors": 13, "Gi_Bin": 0, "Confidence": "0%" }, "geometry": { "type": "Point", "coordinates": [ 110.326415960028612, 1.553762532015298 ] } },
{ "type": "Feature", "properties": { "SOURCE_ID": 173, "CO2_Stock": 9034.924, "GiZScore": 2.5512029088000001, "GiPValue": 0.01073518055, "NNeighbors": 11, "Gi_Bin": 0, "Confidence": "0%" }, "geometry": { "type": "Point", "coordinates": [ 110.326323441373802, 1.553795042507261 ] } },
{ "type": "Feature", "properties": { "SOURCE_ID": 174, "CO2_Stock": 2596.327, "GiZScore": 3.2169989083, "GiPValue": 0.00129539092, "NNeighbors": 13, "Gi_Bin": 2, "Confidence": "95%" }, "geometry": { "type": "Point", "coordinates": [ 110.326253318535862, 1.553828000861586 ] } },
{ "type": "Feature", "properties": { "SOURCE_ID": 175, "CO2_Stock": 5535.033, "GiZScore": 3.3114109683200001, "GiPValue": 0.00092826773, "NNeighbors": 11, "Gi_Bin": 2, "Confidence": "95%" }, "geometry": { "type": "Point", "coordinates": [ 110.326185299212227, 1.553872178258473 ] } },
{ "type": "Feature", "properties": { "SOURCE_ID": 176, "CO2_Stock": 5847.987, "GiZScore": 3.7194487524199999, "GiPValue": 0.00019965805, "NNeighbors": 8, "Gi_Bin": 3, "Confidence": "99%" }, "geometry": { "type": "Point", "coordinates": [ 110.326148835300557, 1.553937392596652 ] } },
{ "type": "Feature", "properties": { "SOURCE_ID": 177, "CO2_Stock": 5535.033, "GiZScore": 2.8900949526700002, "GiPValue": 0.0038512548, "NNeighbors": 7, "Gi_Bin": 1, "Confidence": "90%" }, "geometry": { "type": "Point", "coordinates": [ 110.326113072860096, 1.553994893449612 ] } },
{ "type": "Feature", "properties": { "SOURCE_ID": 178, "CO2_Stock": 5743.665, "GiZScore": 2.8900949526700002, "GiPValue": 0.0038512548, "NNeighbors": 7, "Gi_Bin": 1, "Confidence": "90%" }, "geometry": { "type": "Point", "coordinates": [ 110.326090632976388, 1.554054497816878 ] } },
{ "type": "Feature", "properties": { "SOURCE_ID": 179, "CO2_Stock": 3390.907, "GiZScore": 0.72268785735999996, "GiPValue": 0.46987168272000002, "NNeighbors": 13, "Gi_Bin": 0, "Confidence": "0%" }, "geometry": { "type": "Point", "coordinates": [ 110.326731514148094, 1.553745703001823 ] } },
{ "type": "Feature", "properties": { "SOURCE_ID": 180, "CO2_Stock": 1590.578, "GiZScore": 2.5869025068, "GiPValue": 0.00968429887, "NNeighbors": 8, "Gi_Bin": 0, "Confidence": "0%" }, "geometry": { "type": "Point", "coordinates": [ 110.326022332164939, 1.553811516288476 ] } },
{ "type": "Feature", "properties": { "SOURCE_ID": 181, "CO2_Stock": 1695.703, "GiZScore": 2.8900949526700002, "GiPValue": 0.0038512548, "NNeighbors": 7, "Gi_Bin": 1, "Confidence": "90%" }, "geometry": { "type": "Point", "coordinates": [ 110.326002885225023, 1.553841434934327 ] } },
{ "type": "Feature", "properties": { "SOURCE_ID": 182, "CO2_Stock": 845.437, "GiZScore": -0.30590088493000001, "GiPValue": 0.7596801126, "NNeighbors": 15, "Gi_Bin": 0, "Confidence": "0%" }, "geometry": { "type": "Point", "coordinates": [ 110.337155375220448, 1.553761775685473 ] } },
{ "type": "Feature", "properties": { "SOURCE_ID": 183, "CO2_Stock": 469.118, "GiZScore": -0.30590088493000001, "GiPValue": 0.7596801126, "NNeighbors": 15, "Gi_Bin": 0, "Confidence": "0%" }, "geometry": { "type": "Point", "coordinates": [ 110.337201002324434, 1.553727368523312 ] } },
{ "type": "Feature", "properties": { "SOURCE_ID": 184, "CO2_Stock": 845.437, "GiZScore": -0.30590088493000001, "GiPValue": 0.7596801126, "NNeighbors": 15, "Gi_Bin": 0, "Confidence": "0%" }, "geometry": { "type": "Point", "coordinates": [ 110.337166595162273, 1.553673513521858 ] } },
{ "type": "Feature", "properties": { "SOURCE_ID": 185, "CO2_Stock": 496.137, "GiZScore": -0.30590088493000001, "GiPValue": 0.7596801126, "NNeighbors": 15, "Gi_Bin": 0, "Confidence": "0%" }, "geometry": { "type": "Point", "coordinates": [ 110.33712321276613, 1.553685481699688 ] } },
{ "type": "Feature", "properties": { "SOURCE_ID": 186, "CO2_Stock": 1080.148, "GiZScore": -0.30590088493000001, "GiPValue": 0.7596801126, "NNeighbors": 15, "Gi_Bin": 0, "Confidence": "0%" }, "geometry": { "type": "Point", "coordinates": [ 110.337129944191645, 1.553735596420665 ] } },
{ "type": "Feature", "properties": { "SOURCE_ID": 187, "CO2_Stock": 1038.832, "GiZScore": -0.30590088493000001, "GiPValue": 0.7596801126, "NNeighbors": 15, "Gi_Bin": 0, "Confidence": "0%" }, "geometry": { "type": "Point", "coordinates": [ 110.337261962869377, 1.553646212802505 ] } },
{ "type": "Feature", "properties": { "SOURCE_ID": 188, "CO2_Stock": 920.441, "GiZScore": -0.30590088493000001, "GiPValue": 0.7596801126, "NNeighbors": 15, "Gi_Bin": 0, "Confidence": "0%" }, "geometry": { "type": "Point", "coordinates": [ 110.337280288354691, 1.553638733141042 ] } },
{ "type": "Feature", "properties": { "SOURCE_ID": 189, "CO2_Stock": 523.665, "GiZScore": -0.29263598913, "GiPValue": 0.76980040241000003, "NNeighbors": 17, "Gi_Bin": 0, "Confidence": "0%" }, "geometry": { "type": "Point", "coordinates": [ 110.33717444894171, 1.553563560609859 ] } },
{ "type": "Feature", "properties": { "SOURCE_ID": 190, "CO2_Stock": 552.168, "GiZScore": -0.36328275624, "GiPValue": 0.71639367397999998, "NNeighbors": 20, "Gi_Bin": 0, "Confidence": "0%" }, "geometry": { "type": "Point", "coordinates": [ 110.337187912692059, 1.553535137536642 ] } },
{ "type": "Feature", "properties": { "SOURCE_ID": 191, "CO2_Stock": 1038.832, "GiZScore": -0.32832596435, "GiPValue": 0.74266521512000006, "NNeighbors": 18, "Gi_Bin": 0, "Confidence": "0%" }, "geometry": { "type": "Point", "coordinates": [ 110.33711685455927, 1.553494747184857 ] } },
{ "type": "Feature", "properties": { "SOURCE_ID": 192, "CO2_Stock": 581.64, "GiZScore": -0.34963642427000002, "GiPValue": 0.72661157221999995, "NNeighbors": 16, "Gi_Bin": 0, "Confidence": "0%" }, "geometry": { "type": "Point", "coordinates": [ 110.337089179721943, 1.553529154347018 ] } },
{ "type": "Feature", "properties": { "SOURCE_ID": 193, "CO2_Stock": 496.137, "GiZScore": -0.34963642427000002, "GiPValue": 0.72661157221999995, "NNeighbors": 16, "Gi_Bin": 0, "Confidence": "0%" }, "geometry": { "type": "Point", "coordinates": [ 110.337120594839632, 1.553553088903982 ] } },
{ "type": "Feature", "properties": { "SOURCE_ID": 194, "CO2_Stock": 1252.445, "GiZScore": -0.30590088493000001, "GiPValue": 0.7596801126, "NNeighbors": 15, "Gi_Bin": 0, "Confidence": "0%" }, "geometry": { "type": "Point", "coordinates": [ 110.337123586884104, 1.553587496066143 ] } },
{ "type": "Feature", "properties": { "SOURCE_ID": 195, "CO2_Stock": 809.853, "GiZScore": -0.30590088493000001, "GiPValue": 0.7596801126, "NNeighbors": 15, "Gi_Bin": 0, "Confidence": "0%" }, "geometry": { "type": "Point", "coordinates": [ 110.337070480118598, 1.553571041170642 ] } },
{ "type": "Feature", "properties": { "SOURCE_ID": 196, "CO2_Stock": 809.853, "GiZScore": -0.30590088493000001, "GiPValue": 0.7596801126, "NNeighbors": 15, "Gi_Bin": 0, "Confidence": "0%" }, "geometry": { "type": "Point", "coordinates": [ 110.337054024323834, 1.553655562154518 ] } },
{ "type": "Feature", "properties": { "SOURCE_ID": 197, "CO2_Stock": 418.156, "GiZScore": -0.33852605546999998, "GiPValue": 0.73496679608000004, "NNeighbors": 10, "Gi_Bin": 0, "Confidence": "0%" }, "geometry": { "type": "Point", "coordinates": [ 110.337280662472665, 1.553327199890418 ] } },
{ "type": "Feature", "properties": { "SOURCE_ID": 198, "CO2_Stock": 1540.486, "GiZScore": -0.26023340276000001, "GiPValue": 0.7946837402, "NNeighbors": 8, "Gi_Bin": 0, "Confidence": "0%" }, "geometry": { "type": "Point", "coordinates": [ 110.337309832882568, 1.553324207845947 ] } },
{ "type": "Feature", "properties": { "SOURCE_ID": 199, "CO2_Stock": 611.462, "GiZScore": -0.23517078247000001, "GiPValue": 0.81407618251000002, "NNeighbors": 6, "Gi_Bin": 0, "Confidence": "0%" }, "geometry": { "type": "Point", "coordinates": [ 110.337338256855105, 1.553303264434135 ] } },
{ "type": "Feature", "properties": { "SOURCE_ID": 200, "CO2_Stock": 774.217, "GiZScore": -0.23517078247000001, "GiPValue": 0.81407618251000002, "NNeighbors": 6, "Gi_Bin": 0, "Confidence": "0%" }, "geometry": { "type": "Point", "coordinates": [ 110.337321801060341, 1.553280824550484 ] } },
{ "type": "Feature", "properties": { "SOURCE_ID": 201, "CO2_Stock": 496.137, "GiZScore": -0.21331840948, "GiPValue": 0.83107861545999995, "NNeighbors": 7, "Gi_Bin": 0, "Confidence": "0%" }, "geometry": { "type": "Point", "coordinates": [ 110.337278417764821, 1.553292044492309 ] } },
{ "type": "Feature", "properties": { "SOURCE_ID": 203, "CO2_Stock": 14.466, "GiZScore": 0.75941568204999998, "GiPValue": 0.44760394167000001, "NNeighbors": 2, "Gi_Bin": 0, "Confidence": "0%" }, "geometry": { "type": "Point", "coordinates": [ 110.333856726706642, 1.55448098960602 ] } },
{ "type": "Feature", "properties": { "SOURCE_ID": 204, "CO2_Stock": 5043.486, "GiZScore": 0.75941568204999998, "GiPValue": 0.44760394167000001, "NNeighbors": 2, "Gi_Bin": 0, "Confidence": "0%" }, "geometry": { "type": "Point", "coordinates": [ 110.333869586112542, 1.554593066716677 ] } },
{ "type": "Feature", "properties": { "SOURCE_ID": 205, "CO2_Stock": 1208.159, "GiZScore": 0.13726317353, "GiPValue": 0.89082277816, "NNeighbors": 4, "Gi_Bin": 0, "Confidence": "0%" }, "geometry": { "type": "Point", "coordinates": [ 110.334045192231883, 1.555601570955787 ] } },
{ "type": "Feature", "properties": { "SOURCE_ID": 206, "CO2_Stock": 1164.274, "GiZScore": 0.59138275501000004, "GiPValue": 0.55426399542000004, "NNeighbors": 7, "Gi_Bin": 0, "Confidence": "0%" }, "geometry": { "type": "Point", "coordinates": [ 110.334032859828653, 1.555744824863837 ] } },
{ "type": "Feature", "properties": { "SOURCE_ID": 207, "CO2_Stock": 1208.159, "GiZScore": 0.59138275501000004, "GiPValue": 0.55426399542000004, "NNeighbors": 7, "Gi_Bin": 0, "Confidence": "0%" }, "geometry": { "type": "Point", "coordinates": [ 110.334033517233081, 1.555784429208074 ] } },
{ "type": "Feature", "properties": { "SOURCE_ID": 208, "CO2_Stock": 1208.159, "GiZScore": 0.59138275501000004, "GiPValue": 0.55426399542000004, "NNeighbors": 7, "Gi_Bin": 0, "Confidence": "0%" }, "geometry": { "type": "Point", "coordinates": [ 110.334034832041937, 1.555833401790096 ] } },
{ "type": "Feature", "properties": { "SOURCE_ID": 209, "CO2_Stock": 1208.159, "GiZScore": 0.60349342722, "GiPValue": 0.54618048995000001, "NNeighbors": 7, "Gi_Bin": 0, "Confidence": "0%" }, "geometry": { "type": "Point", "coordinates": [ 110.334040254953891, 1.555892398215633 ] } },
{ "type": "Feature", "properties": { "SOURCE_ID": 210, "CO2_Stock": 4129.257, "GiZScore": 0.62678289352000005, "GiPValue": 0.53080156189000005, "NNeighbors": 8, "Gi_Bin": 0, "Confidence": "0%" }, "geometry": { "type": "Point", "coordinates": [ 110.33404781465498, 1.555969306438385 ] } },
{ "type": "Feature", "properties": { "SOURCE_ID": 211, "CO2_Stock": 1298.354, "GiZScore": 0.62678289352000005, "GiPValue": 0.53080156189000005, "NNeighbors": 8, "Gi_Bin": 0, "Confidence": "0%" }, "geometry": { "type": "Point", "coordinates": [ 110.334048800311962, 1.55601006191489 ] } },
{ "type": "Feature", "properties": { "SOURCE_ID": 212, "CO2_Stock": 1298.354, "GiZScore": 0.69773616365000002, "GiPValue": 0.48534221252999998, "NNeighbors": 5, "Gi_Bin": 0, "Confidence": "0%" }, "geometry": { "type": "Point", "coordinates": [ 110.33405175908149, 1.556169795899393 ] } },
{ "type": "Feature", "properties": { "SOURCE_ID": 213, "CO2_Stock": 1488.989, "GiZScore": 0.74234922057999997, "GiPValue": 0.45787578308, "NNeighbors": 4, "Gi_Bin": 0, "Confidence": "0%" }, "geometry": { "type": "Point", "coordinates": [ 110.33405011512076, 1.556226655535795 ] } },
{ "type": "Feature", "properties": { "SOURCE_ID": 214, "CO2_Stock": 1749.093, "GiZScore": 0.26207435748000002, "GiPValue": 0.79326411607000002, "NNeighbors": 1, "Gi_Bin": 0, "Confidence": "0%" }, "geometry": { "type": "Point", "coordinates": [ 110.3341420213373, 1.557564217214917 ] } },
{ "type": "Feature", "properties": { "SOURCE_ID": 215, "CO2_Stock": 809.853, "GiZScore": 0.21153632464, "GiPValue": 0.83246879063000001, "NNeighbors": 3, "Gi_Bin": 0, "Confidence": "0%" }, "geometry": { "type": "Point", "coordinates": [ 110.334184700463595, 1.558676032872654 ] } },
{ "type": "Feature", "properties": { "SOURCE_ID": 216, "CO2_Stock": 1749.093, "GiZScore": 0.23572741062, "GiPValue": 0.81364419879000005, "NNeighbors": 4, "Gi_Bin": 0, "Confidence": "0%" }, "geometry": { "type": "Point", "coordinates": [ 110.334181414340833, 1.558651054202812 ] } },
{ "type": "Feature", "properties": { "SOURCE_ID": 217, "CO2_Stock": 1488.989, "GiZScore": 0.25800712649000002, "GiPValue": 0.7964014075, "NNeighbors": 5, "Gi_Bin": 0, "Confidence": "0%" }, "geometry": { "type": "Point", "coordinates": [ 110.334178127318808, 1.558614571405371 ] } },
{ "type": "Feature", "properties": { "SOURCE_ID": 218, "CO2_Stock": 1298.354, "GiZScore": 0.78334600898999995, "GiPValue": 0.43342395893000002, "NNeighbors": 5, "Gi_Bin": 0, "Confidence": "0%" }, "geometry": { "type": "Point", "coordinates": [ 110.334167874148136, 1.558372405562125 ] } },
{ "type": "Feature", "properties": { "SOURCE_ID": 219, "CO2_Stock": 1298.354, "GiZScore": 0.74234922057999997, "GiPValue": 0.45787578308, "NNeighbors": 4, "Gi_Bin": 0, "Confidence": "0%" }, "geometry": { "type": "Point", "coordinates": [ 110.33416655933928, 1.558329021367285 ] } },
{ "type": "Feature", "properties": { "SOURCE_ID": 220, "CO2_Stock": 4129.257, "GiZScore": 0.75661805377000002, "GiPValue": 0.44927872816999997, "NNeighbors": 3, "Gi_Bin": 0, "Confidence": "0%" }, "geometry": { "type": "Point", "coordinates": [ 110.334164588025374, 1.558286951081982 ] } },
{ "type": "Feature", "properties": { "SOURCE_ID": 221, "CO2_Stock": 740.15, "GiZScore": -0.20204840303, "GiPValue": 0.8398788844, "NNeighbors": 8, "Gi_Bin": 0, "Confidence": "0%" }, "geometry": { "type": "Point", "coordinates": [ 110.32992665159378, 1.567424628743652 ] } },
{ "type": "Feature", "properties": { "SOURCE_ID": 222, "CO2_Stock": 882.583, "GiZScore": -0.20204840303, "GiPValue": 0.8398788844, "NNeighbors": 8, "Gi_Bin": 0, "Confidence": "0%" }, "geometry": { "type": "Point", "coordinates": [ 110.329925336784925, 1.567478531409165 ] } },
{ "type": "Feature", "properties": { "SOURCE_ID": 223, "CO2_Stock": 845.437, "GiZScore": -0.22605142543000001, "GiPValue": 0.82116142377000001, "NNeighbors": 9, "Gi_Bin": 0, "Confidence": "0%" }, "geometry": { "type": "Point", "coordinates": [ 110.329854415349075, 1.567685955542458 ] } },
{ "type": "Feature", "properties": { "SOURCE_ID": 224, "CO2_Stock": 740.15, "GiZScore": -0.22605142543000001, "GiPValue": 0.82116142377000001, "NNeighbors": 9, "Gi_Bin": 0, "Confidence": "0%" }, "geometry": { "type": "Point", "coordinates": [ 110.329918834686509, 1.567682011115949 ] } },
{ "type": "Feature", "properties": { "SOURCE_ID": 225, "CO2_Stock": 706.875, "GiZScore": -0.24196571053, "GiPValue": 0.80880673307999995, "NNeighbors": 11, "Gi_Bin": 0, "Confidence": "0%" }, "geometry": { "type": "Point", "coordinates": [ 110.32996090407255, 1.567685955542458 ] } },
{ "type": "Feature", "properties": { "SOURCE_ID": 226, "CO2_Stock": 882.583, "GiZScore": -0.27865629662000002, "GiPValue": 0.78050860500999997, "NNeighbors": 13, "Gi_Bin": 0, "Confidence": "0%" }, "geometry": { "type": "Point", "coordinates": [ 110.330048988170347, 1.56768069630715 ] } },
{ "type": "Feature", "properties": { "SOURCE_ID": 227, "CO2_Stock": 706.875, "GiZScore": -0.28922396319, "GiPValue": 0.77240999549, "NNeighbors": 13, "Gi_Bin": 0, "Confidence": "0%" }, "geometry": { "type": "Point", "coordinates": [ 110.330133127841634, 1.567684640733603 ] } },
{ "type": "Feature", "properties": { "SOURCE_ID": 228, "CO2_Stock": 706.875, "GiZScore": -0.2732332792, "GiPValue": 0.78467390012000005, "NNeighbors": 12, "Gi_Bin": 0, "Confidence": "0%" }, "geometry": { "type": "Point", "coordinates": [ 110.330218581422457, 1.567678067588815 ] } },
{ "type": "Feature", "properties": { "SOURCE_ID": 229, "CO2_Stock": 642.17, "GiZScore": -0.25286930595000001, "GiPValue": 0.80036920933, "NNeighbors": 11, "Gi_Bin": 0, "Confidence": "0%" }, "geometry": { "type": "Point", "coordinates": [ 110.330269854470259, 1.56767280835345 ] } },
{ "type": "Feature", "properties": { "SOURCE_ID": 230, "CO2_Stock": 809.853, "GiZScore": -0.25286930595000001, "GiPValue": 0.80036920933, "NNeighbors": 11, "Gi_Bin": 0, "Confidence": "0%" }, "geometry": { "type": "Point", "coordinates": [ 110.330315868282753, 1.567663605590951 ] } },
{ "type": "Feature", "properties": { "SOURCE_ID": 231, "CO2_Stock": 706.875, "GiZScore": -0.24122069134, "GiPValue": 0.80938407517, "NNeighbors": 9, "Gi_Bin": 0, "Confidence": "0%" }, "geometry": { "type": "Point", "coordinates": [ 110.33036977004889, 1.567647829683665 ] } },
{ "type": "Feature", "properties": { "SOURCE_ID": 232, "CO2_Stock": 809.853, "GiZScore": -0.27865629662000002, "GiPValue": 0.78050860500999997, "NNeighbors": 13, "Gi_Bin": 0, "Confidence": "0%" }, "geometry": { "type": "Point", "coordinates": [ 110.330057110847065, 1.567598276139563 ] } },
{ "type": "Feature", "properties": { "SOURCE_ID": 233, "CO2_Stock": 809.853, "GiZScore": -0.30601222976999998, "GiPValue": 0.7595953346, "NNeighbors": 15, "Gi_Bin": 0, "Confidence": "0%" }, "geometry": { "type": "Point", "coordinates": [ 110.330113642230856, 1.567596961330764 ] } },
{ "type": "Feature", "properties": { "SOURCE_ID": 234, "CO2_Stock": 958.963, "GiZScore": -0.2732332792, "GiPValue": 0.78467390012000005, "NNeighbors": 12, "Gi_Bin": 0, "Confidence": "0%" }, "geometry": { "type": "Point", "coordinates": [ 110.330192522666835, 1.56759038818592 ] } },
{ "type": "Feature", "properties": { "SOURCE_ID": 235, "CO2_Stock": 809.853, "GiZScore": -0.24122069134, "GiPValue": 0.80938407517, "NNeighbors": 9, "Gi_Bin": 0, "Confidence": "0%" }, "geometry": { "type": "Point", "coordinates": [ 110.330367707004143, 1.567546261151051 ] } },
{ "type": "Feature", "properties": { "SOURCE_ID": 236, "CO2_Stock": 845.437, "GiZScore": -0.2392083975, "GiPValue": 0.81094399160999997, "NNeighbors": 8, "Gi_Bin": 0, "Confidence": "0%" }, "geometry": { "type": "Point", "coordinates": [ 110.330438699486479, 1.567530485243765 ] } },
{ "type": "Feature", "properties": { "SOURCE_ID": 237, "CO2_Stock": 642.17, "GiZScore": -0.12892164519, "GiPValue": 0.89741964922999995, "NNeighbors": 2, "Gi_Bin": 0, "Confidence": "0%" }, "geometry": { "type": "Point", "coordinates": [ 110.330690621175279, 1.567574796639576 ] } },
{ "type": "Feature", "properties": { "SOURCE_ID": 238, "CO2_Stock": 642.17, "GiZScore": -0.12668348502, "GiPValue": 0.89919091758000003, "NNeighbors": 1, "Gi_Bin": 0, "Confidence": "0%" }, "geometry": { "type": "Point", "coordinates": [ 110.331127174579478, 1.567464017250643 ] } },
{ "type": "Feature", "properties": { "SOURCE_ID": 239, "CO2_Stock": 283.398, "GiZScore": -0.51521140798999998, "GiPValue": 0.60640530012000005, "NNeighbors": 4, "Gi_Bin": 0, "Confidence": "0%" }, "geometry": { "type": "Point", "coordinates": [ 110.332327697565233, 1.566839548706241 ] } },
{ "type": "Feature", "properties": { "SOURCE_ID": 240, "CO2_Stock": 263.711, "GiZScore": -0.51521140798999998, "GiPValue": 0.60640530012000005, "NNeighbors": 4, "Gi_Bin": 0, "Confidence": "0%" }, "geometry": { "type": "Point", "coordinates": [ 110.332244913172246, 1.566760463224853 ] } },
{ "type": "Feature", "properties": { "SOURCE_ID": 241, "CO2_Stock": 283.398, "GiZScore": -0.51521140798999998, "GiPValue": 0.60640530012000005, "NNeighbors": 4, "Gi_Bin": 0, "Confidence": "0%" }, "geometry": { "type": "Point", "coordinates": [ 110.332301444556094, 1.566753889180688 ] } },
{ "type": "Feature", "properties": { "SOURCE_ID": 242, "CO2_Stock": 263.711, "GiZScore": -0.51521140798999998, "GiPValue": 0.60640530012000005, "NNeighbors": 4, "Gi_Bin": 0, "Confidence": "0%" }, "geometry": { "type": "Point", "coordinates": [ 110.332359289849421, 1.566746001227045 ] } },
{ "type": "Feature", "properties": { "SOURCE_ID": 243, "CO2_Stock": 244.9, "GiZScore": -0.67541047651999997, "GiPValue": 0.49941501569000002, "NNeighbors": 7, "Gi_Bin": 0, "Confidence": "0%" }, "geometry": { "type": "Point", "coordinates": [ 110.332939858887414, 1.565931632738682 ] } },
{ "type": "Feature", "properties": { "SOURCE_ID": 244, "CO2_Stock": 303.947, "GiZScore": -0.67541047651999997, "GiPValue": 0.49941501569000002, "NNeighbors": 7, "Gi_Bin": 0, "Confidence": "0%" }, "geometry": { "type": "Point", "coordinates": [ 110.332959961433119, 1.565901614268114 ] } },
{ "type": "Feature", "properties": { "SOURCE_ID": 245, "CO2_Stock": 325.009, "GiZScore": -0.67541047651999997, "GiPValue": 0.49941501569000002, "NNeighbors": 7, "Gi_Bin": 0, "Confidence": "0%" }, "geometry": { "type": "Point", "coordinates": [ 110.333045268424485, 1.565991437654759 ] } },
{ "type": "Feature", "properties": { "SOURCE_ID": 246, "CO2_Stock": 263.711, "GiZScore": -0.67541047651999997, "GiPValue": 0.49941501569000002, "NNeighbors": 7, "Gi_Bin": 0, "Confidence": "0%" }, "geometry": { "type": "Point", "coordinates": [ 110.333071561903125, 1.565953311795965 ] } },
{ "type": "Feature", "properties": { "SOURCE_ID": 247, "CO2_Stock": 325.009, "GiZScore": -0.62112674501999998, "GiPValue": 0.53451623686000005, "NNeighbors": 6, "Gi_Bin": 0, "Confidence": "0%" }, "geometry": { "type": "Point", "coordinates": [ 110.33311669438001, 1.565886433711967 ] } },
{ "type": "Feature", "properties": { "SOURCE_ID": 248, "CO2_Stock": 325.009, "GiZScore": -0.53861877664000002, "GiPValue": 0.59014993112000003, "NNeighbors": 5, "Gi_Bin": 0, "Confidence": "0%" }, "geometry": { "type": "Point", "coordinates": [ 110.333317943768179, 1.565561162417737 ] } },
{ "type": "Feature", "properties": { "SOURCE_ID": 249, "CO2_Stock": 263.711, "GiZScore": -0.53861877664000002, "GiPValue": 0.59014993112000003, "NNeighbors": 5, "Gi_Bin": 0, "Confidence": "0%" }, "geometry": { "type": "Point", "coordinates": [ 110.333239063332144, 1.565483596790614 ] } },
{ "type": "Feature", "properties": { "SOURCE_ID": 250, "CO2_Stock": 393.41, "GiZScore": -0.63305380495999997, "GiPValue": 0.52669851115, "NNeighbors": 7, "Gi_Bin": 0, "Confidence": "0%" }, "geometry": { "type": "Point", "coordinates": [ 110.333411286201965, 1.565366589596465 ] } },
{ "type": "Feature", "properties": { "SOURCE_ID": 251, "CO2_Stock": 418.156, "GiZScore": -0.51651123702000001, "GiPValue": 0.60549739475999997, "NNeighbors": 6, "Gi_Bin": 0, "Confidence": "0%" }, "geometry": { "type": "Point", "coordinates": [ 110.333623793303502, 1.564888264481851 ] } },
{ "type": "Feature", "properties": { "SOURCE_ID": 252, "CO2_Stock": 325.009, "GiZScore": -0.46095215199, "GiPValue": 0.64483293550999998, "NNeighbors": 5, "Gi_Bin": 0, "Confidence": "0%" }, "geometry": { "type": "Point", "coordinates": [ 110.333643512737979, 1.564829103480406 ] } },
{ "type": "Feature", "properties": { "SOURCE_ID": 253, "CO2_Stock": 303.947, "GiZScore": -0.58754705537999996, "GiPValue": 0.55683636024000005, "NNeighbors": 6, "Gi_Bin": 0, "Confidence": "0%" }, "geometry": { "type": "Point", "coordinates": [ 110.333292965098337, 1.565373163640629 ] } },
{ "type": "Feature", "properties": { "SOURCE_ID": 254, "CO2_Stock": 325.009, "GiZScore": -0.63305380495999997, "GiPValue": 0.52669851115, "NNeighbors": 7, "Gi_Bin": 0, "Confidence": "0%" }, "geometry": { "type": "Point", "coordinates": [ 110.333321888194632, 1.565316632256838 ] } },
{ "type": "Feature", "properties": { "SOURCE_ID": 255, "CO2_Stock": 347.183, "GiZScore": -0.62262741206000005, "GiPValue": 0.53352939679, "NNeighbors": 8, "Gi_Bin": 0, "Confidence": "0%" }, "geometry": { "type": "Point", "coordinates": [ 110.333418038311891, 1.565141610696799 ] } },
{ "type": "Feature", "properties": { "SOURCE_ID": 256, "CO2_Stock": 347.183, "GiZScore": -0.60825498308000003, "GiPValue": 0.54301837616000004, "NNeighbors": 8, "Gi_Bin": 0, "Confidence": "0%" }, "geometry": { "type": "Point", "coordinates": [ 110.333444331790531, 1.565085079313008 ] } },
{ "type": "Feature", "properties": { "SOURCE_ID": 257, "CO2_Stock": 393.41, "GiZScore": -0.56716057668999997, "GiPValue": 0.57060509244000002, "NNeighbors": 7, "Gi_Bin": 0, "Confidence": "0%" }, "geometry": { "type": "Point", "coordinates": [ 110.33348377245818, 1.564990422070366 ] } },
{ "type": "Feature", "properties": { "SOURCE_ID": 258, "CO2_Stock": 496.137, "GiZScore": -0.56716057668999997, "GiPValue": 0.57060509244000002, "NNeighbors": 7, "Gi_Bin": 0, "Confidence": "0%" }, "geometry": { "type": "Point", "coordinates": [ 110.333495604838333, 1.564947037875527 ] } },
{ "type": "Feature", "properties": { "SOURCE_ID": 259, "CO2_Stock": 469.118, "GiZScore": -0.56716057668999997, "GiPValue": 0.57060509244000002, "NNeighbors": 7, "Gi_Bin": 0, "Confidence": "0%" }, "geometry": { "type": "Point", "coordinates": [ 110.333524527934685, 1.564873415775537 ] } },
{ "type": "Feature", "properties": { "SOURCE_ID": 260, "CO2_Stock": 496.137, "GiZScore": -0.38564978073, "GiPValue": 0.69975606095999998, "NNeighbors": 4, "Gi_Bin": 0, "Confidence": "0%" }, "geometry": { "type": "Point", "coordinates": [ 110.332695296350892, 1.566522609630795 ] } },
{ "type": "Feature", "properties": { "SOURCE_ID": 261, "CO2_Stock": 496.137, "GiZScore": -0.46257893751000001, "GiPValue": 0.64366621033000004, "NNeighbors": 5, "Gi_Bin": 0, "Confidence": "0%" }, "geometry": { "type": "Point", "coordinates": [ 110.332716987998651, 1.566482018730255 ] } },
{ "type": "Feature", "properties": { "SOURCE_ID": 262, "CO2_Stock": 552.168, "GiZScore": -0.46257893751000001, "GiPValue": 0.64366621033000004, "NNeighbors": 5, "Gi_Bin": 0, "Confidence": "0%" }, "geometry": { "type": "Point", "coordinates": [ 110.332745253690575, 1.566430746581716 ] } },
{ "type": "Feature", "properties": { "SOURCE_ID": 263, "CO2_Stock": 283.398, "GiZScore": -0.59095668137000001, "GiPValue": 0.55454944917000004, "NNeighbors": 7, "Gi_Bin": 0, "Confidence": "0%" }, "geometry": { "type": "Point", "coordinates": [ 110.332838925276235, 1.566294677357519 ] } },
{ "type": "Feature", "properties": { "SOURCE_ID": 264, "CO2_Stock": 263.711, "GiZScore": -0.73126774305999998, "GiPValue": 0.46461563481000001, "NNeighbors": 8, "Gi_Bin": 0, "Confidence": "0%" }, "geometry": { "type": "Point", "coordinates": [ 110.332939857088775, 1.566141226936111 ] } },
{ "type": "Feature", "properties": { "SOURCE_ID": 265, "CO2_Stock": 263.711, "GiZScore": -0.77136897068, "GiPValue": 0.44048826824999998, "NNeighbors": 9, "Gi_Bin": 0, "Confidence": "0%" }, "geometry": { "type": "Point", "coordinates": [ 110.332897186955677, 1.566023882496211 ] } },
{ "type": "Feature", "properties": { "SOURCE_ID": 266, "CO2_Stock": 263.711, "GiZScore": -0.56372577276000002, "GiPValue": 0.5729407773, "NNeighbors": 6, "Gi_Bin": 0, "Confidence": "0%" }, "geometry": { "type": "Point", "coordinates": [ 110.332776559990293, 1.56621261781811 ] } }
]
}
