{
"type": "FeatureCollection",
"name": "Road_skeleton",
"crs": { "type": "name", "properties": { "name": "urn:ogc:def:crs:EPSG::29874" } },
"features": [
{ "type": "Feature", "properties": { "NAMA JALAN": "JALAN JAMBATAN GANTUNG", "KTG JLN": "JRB", "PJG JLN": 2.0, "LBR JLN": 8.6, "JENIS SRT": "SRT1", "CON OF RD": "C1", "TARIKH": null, "NORTHING": 1.552749, "EASTING": 110.324666, "CATATAN": null, "NORTH AKK": 1.552438, "EAST AKHR": 110.330471, "Road_type": "Tertiary road" }, "geometry": { "type": "MultiLineString", "coordinates": [ [ [ 2071375.697690837783739, 5171706.998904200270772 ], [ 2071368.350505601614714, 5171705.197643326595426 ], [ 2071362.194726740475744, 5171705.160025300458074 ], [ 2071329.882054974790663, 5171706.893328656442463 ], [ 2071316.22080349479802, 5171706.956618365831673 ], [ 2071230.072955339914188, 5171713.246952033601701 ], [ 2071134.247995236888528, 5171718.908564361743629 ], [ 2070735.18857833975926, 5171738.539535374380648 ], [ 2070725.443087953375652, 5171740.917058655060828 ] ] ] } },
{ "type": "Feature", "properties": { "NAMA JALAN": "JALAN RUBBER", "KTG JLN": "JRB", "PJG JLN": 0.747, "LBR JLN": 8.6, "JENIS SRT": "SRT1", "CON OF RD": "C1", "TARIKH": null, "NORTHING": 1.551033, "EASTING": 110.337645, "CATATAN": null, "NORTH AKK": 1.551376, "EAST AKHR": 110.331037, "Road_type": "Secondary road" }, "geometry": { "type": "MultiLineString", "coordinates": [ [ [ 2071427.21486369590275, 5171590.010353868827224 ], [ 2071516.485742924036458, 5171584.492240206338465 ], [ 2071516.529761898797005, 5171584.490609414875507 ], [ 2071521.877131903311238, 5171585.264976447448134 ], [ 2071711.70742651540786, 5171575.656243055127561 ], [ 2071864.79790996783413, 5171566.954120917245746 ], [ 2072172.303376032505184, 5171550.658235158771276 ] ] ] } },
{ "type": "Feature", "properties": { "NAMA JALAN": "JALAN RUBBER BARAT", "KTG JLN": "JRB", "PJG JLN": 0.9, "LBR JLN": 7.6, "JENIS SRT": "SRT1", "CON OF RD": "C1", "TARIKH": null, "NORTHING": 1.551387, "EASTING": 110.330803, "CATATAN": null, "NORTH AKK": 1.551848, "EAST AKHR": 110.32281, "Road_type": "Secondary road" }, "geometry": { "type": "MultiLineString", "coordinates": [ [ [ 2070524.335106624057516, 5171631.140204015187919 ], [ 2070526.023060813779011, 5171632.140204015187919 ], [ 2070527.062015810981393, 5171633.140204015187919 ], [ 2070527.171680084662512, 5171633.232855659909546 ], [ 2070533.909934920724481, 5171634.984056546352804 ], [ 2070537.983162638731301, 5171638.889809560030699 ], [ 2070538.618862687377259, 5171639.109779115766287 ], [ 2070539.618862687377259, 5171639.288690730929375 ], [ 2070543.497437769081444, 5171639.594259356148541 ], [ 2070830.003814180614427, 5171623.816424617543817 ], [ 2071026.841621288098395, 5171612.278556240722537 ], [ 2071169.427780297817662, 5171604.91709488350898 ], [ 2071298.439425941556692, 5171597.032887097448111 ], [ 2071338.373140452429652, 5171594.963566300459206 ], [ 2071386.458851804258302, 5171593.340832680463791 ], [ 2071396.395027583930641, 5171593.21859466470778 ], [ 2071410.162303018150851, 5171594.765064028091729 ] ] ] } },
{ "type": "Feature", "properties": { "NAMA JALAN": "JALAN GREEN", "KTG JLN": "JRB", "PJG JLN": 2.4, "LBR JLN": 7.4, "JENIS SRT": "SRT1", "CON OF RD": "C1", "TARIKH": null, "NORTHING": 1.55335, "EASTING": 110.330264, "CATATAN": null, "NORTH AKK": 1.536136, "EAST AKHR": 110.340682, "Road_type": "Secondary road" }, "geometry": { "type": "MultiLineString", "coordinates": [ [ [ 2071351.672800550702959, 5171812.578682207502425 ], [ 2071354.65624758345075, 5171795.175419491715729 ], [ 2071359.085781998932362, 5171784.352669612504542 ], [ 2071364.978319042129442, 5171763.024425095878541 ], [ 2071376.829855865798891, 5171727.102123632095754 ], [ 2071390.219158936291933, 5171678.412178856320679 ], [ 2071397.410623867064714, 5171660.162405813112855 ], [ 2071402.669986329041421, 5171643.80293651856482 ], [ 2071412.384890020126477, 5171611.707361506298184 ], [ 2071431.489920074818656, 5171552.296226315200329 ], [ 2071439.413135213311762, 5171523.917240021750331 ], [ 2071444.606685209088027, 5171510.13310450874269 ], [ 2071457.540035779355094, 5171466.681845265440643 ], [ 2071467.89198234770447, 5171435.09416726604104 ], [ 2071469.081120283575729, 5171428.484281603246927 ], [ 2071472.104106394806877, 5171418.485690134577453 ], [ 2071474.843321829568595, 5171412.472004824317992 ], [ 2071502.380242879036814, 5171320.18041598983109 ], [ 2071512.395648948848248, 5171272.101548726670444 ], [ 2071519.929346818942577, 5171229.279219377785921 ], [ 2071519.960133234970272, 5171224.686495952308178 ], [ 2071524.252516962122172, 5171200.822924898006022 ] ] ] } },
{ "type": "Feature", "properties": { "NAMA JALAN": "JALAN KULAS", "KTG JLN": "JRB", "PJG JLN": 1.39, "LBR JLN": 12.9, "JENIS SRT": "SRT1", "CON OF RD": "C1", "TARIKH": null, "NORTHING": 1.554508, "EASTING": 110.327786, "CATATAN": null, "NORTH AKK": 1.553821, "EAST AKHR": 110.33792, "Road_type": "Main road" }, "geometry": { "type": "MultiLineString", "coordinates": [ [ [ 2070914.090226104483008, 5171914.766900571063161 ], [ 2070938.143480367725715, 5171908.502570910379291 ], [ 2070956.54442594316788, 5171906.138958846218884 ], [ 2070975.973586880834773, 5171905.601430538110435 ], [ 2070998.401420086156577, 5171907.303123099729419 ], [ 2071013.292226568330079, 5171910.014145191758871 ], [ 2071022.980519543867558, 5171912.492814785800874 ], [ 2071068.727095117093995, 5171926.953088733367622 ], [ 2071095.385255411732942, 5171934.277709450572729 ], [ 2071100.680934923933819, 5171936.980083247646689 ], [ 2071116.977953625377268, 5171937.332993117161095 ], [ 2071147.803432309068739, 5171936.164751476608217 ], [ 2071319.512491999892518, 5171925.912412491627038 ], [ 2071411.881011385470629, 5171918.809907568618655 ], [ 2071633.548468739259988, 5171906.584148117341101 ], [ 2071644.123878952348605, 5171907.377160025760531 ], [ 2071674.02038921136409, 5171905.675546350888908 ], [ 2071679.374071778729558, 5171904.455141920596361 ], [ 2071788.321869822684675, 5171897.885482601821423 ], [ 2071798.70923901675269, 5171898.946102139540017 ], [ 2071894.191055207047611, 5171893.487569620832801 ], [ 2071985.147796754725277, 5171886.63818296790123 ], [ 2072059.812393853440881, 5171882.157877596095204 ] ] ] } },
{ "type": "Feature", "properties": { "NAMA JALAN": "JALAN SATOK", "KTG JLN": "JRB", "PJG JLN": 1.351, "LBR JLN": 12.9, "JENIS SRT": "SRT1", "CON OF RD": "C1", "TARIKH": null, "NORTHING": 1.553103, "EASTING": 110.337785, "CATATAN": null, "NORTH AKK": 1.553661, "EAST AKHR": 110.325951, "Road_type": "Main road" }, "geometry": { "type": "MultiLineString", "coordinates": [ [ [ 2070856.145171500975266, 5171926.753005446866155 ], [ 2070856.145171500975266, 5171926.753005446866155 ], [ 2070910.139032153878361, 5171890.19289917498827 ], [ 2070969.887724350206554, 5171858.372065937146544 ], [ 2071019.650091221788898, 5171841.107571308501065 ], [ 2071059.682900414103642, 5171835.507370488718152 ], [ 2071083.588348892983049, 5171833.11632259003818 ], [ 2071167.595492269378155, 5171827.982270977459848 ], [ 2071187.565700941253453, 5171826.393785154446959 ], [ 2071192.433739504311234, 5171825.572082424536347 ], [ 2071196.20215686946176, 5171825.465324241667986 ], [ 2071222.546579805202782, 5171825.130660876631737 ], [ 2071266.513934071408585, 5171822.95789957139641 ], [ 2071367.711662328802049, 5171816.519941191188991 ], [ 2071642.859910060185939, 5171801.751077800057828 ], [ 2071663.057700040284544, 5171799.898533039726317 ], [ 2071728.708401175448671, 5171797.199476962909102 ], [ 2071808.632473353296518, 5171792.853936987929046 ], [ 2071889.457342627225444, 5171788.205828185193241 ], [ 2071893.41343432595022, 5171787.368822921998799 ], [ 2071897.214168674545363, 5171785.683350239880383 ], [ 2071937.308738867519423, 5171783.341634213924408 ], [ 2071957.025835709413514, 5171780.358636168763041 ], [ 2071973.5035629728809, 5171779.814608593471348 ], [ 2071992.678226492367685, 5171781.232814809307456 ], [ 2072017.450850033666939, 5171780.856020769104362 ] ] ] } },
{ "type": "Feature", "properties": { "NAMA JALAN": "JALAN NANAS", "KTG JLN": "JRB", "PJG JLN": 0.667, "LBR JLN": 12.67, "JENIS SRT": "SRT1", "CON OF RD": "C1", "TARIKH": null, "NORTHING": 1.549003, "EASTING": 110.337193, "CATATAN": null, "NORTH AKK": 1.549351, "EAST AKHR": 110.331613, "Road_type": "Secondary road" }, "geometry": { "type": "MultiLineString", "coordinates": [ [ [ 2071497.979111046297476, 5171363.172340025193989 ], [ 2071508.759223164524883, 5171363.209105758927763 ], [ 2071538.729647527681664, 5171361.539328412152827 ], [ 2071581.829359715338796, 5171359.922351084649563 ], [ 2071599.901928628329188, 5171358.643437115475535 ], [ 2071625.606904585845768, 5171358.156524273566902 ], [ 2071641.331801089690998, 5171356.990677267313004 ], [ 2071667.678951693465933, 5171356.03795803617686 ], [ 2071859.85186382336542, 5171345.389258477836847 ], [ 2071864.67668235511519, 5171344.405377593822777 ], [ 2071864.878472594777122, 5171344.411840347573161 ], [ 2071865.445080399047583, 5171344.388544455170631 ], [ 2071865.862012434285134, 5171344.401809447444975 ], [ 2071868.635109913302585, 5171344.329573899507523 ], [ 2071880.468523865332827, 5171343.941048057749867 ], [ 2071923.29895914811641, 5171341.909178747795522 ], [ 2071983.360186614561826, 5171338.547701723873615 ], [ 2071998.486366269411519, 5171339.239688373170793 ], [ 2072034.083320847479627, 5171337.147405821830034 ], [ 2072056.395340329501778, 5171334.450907678343356 ], [ 2072064.327429987723008, 5171334.005455296486616 ], [ 2072074.034699212294072, 5171333.803764407522976 ], [ 2072100.999830574495718, 5171334.653677523136139 ], [ 2072115.228205271530896, 5171333.675784019753337 ], [ 2072130.193469569319859, 5171331.134186352603137 ], [ 2072160.698864919133484, 5171321.695862525142729 ] ] ] } },
{ "type": "Feature", "properties": { "NAMA JALAN": "JALAN NANAS BARAT", "KTG JLN": "JRB", "PJG JLN": 0.829, "LBR JLN": 4.88, "JENIS SRT": "SRT1", "CON OF RD": "C1", "TARIKH": null, "NORTHING": 1.549374, "EASTING": 110.331326, "CATATAN": null, "NORTH AKK": 1.549963, "EAST AKHR": 110.321209, "Road_type": "Tertiary road" }, "geometry": { "type": "MultiLineString", "coordinates": [ [ [ 2070469.31379608460702, 5171417.220299972221255 ], [ 2070535.941871312912554, 5171417.40871980600059 ], [ 2070570.885550768114626, 5171416.161804961971939 ], [ 2070761.478894071187824, 5171405.686608737334609 ], [ 2070772.618153687100857, 5171403.777490699663758 ], [ 2070790.032666227314621, 5171402.946325986646116 ], [ 2070799.422720623435453, 5171403.448782484047115 ], [ 2070822.436762688681483, 5171402.394633986987174 ], [ 2070967.193336858646944, 5171394.416510353796184 ], [ 2070991.615325504913926, 5171391.573577590286732 ], [ 2071004.615565449697897, 5171390.746387748047709 ], [ 2071040.080722122685984, 5171390.173607029020786 ], [ 2071136.480581229319796, 5171384.668082169257104 ], [ 2071155.802264694822952, 5171384.409756919369102 ], [ 2071246.26315557048656, 5171375.28243543766439 ] ], [ [ 2071274.697136350907385, 5171372.413504111580551 ], [ 2071300.519169872161001, 5171369.808112997561693 ] ], [ [ 2071477.854020386468619, 5171351.915384163148701 ], [ 2071485.35872868844308, 5171351.158174227923155 ] ] ] } },
{ "type": "Feature", "properties": { "NAMA JALAN": "JALAN ONG GUAN POH", "KTG JLN": "JRB", "PJG JLN": 0.215, "LBR JLN": 8.6, "JENIS SRT": "SRT1", "CON OF RD": "C1", "TARIKH": null, "NORTHING": 1.55143, "EASTING": 110.328834, "CATATAN": null, "NORTH AKK": 1.54966, "EAST AKHR": 110.328706, "Road_type": "Tertiary road" }, "geometry": { "type": "MultiLineString", "coordinates": [ [ [ 2071176.746686127502471, 5171397.685924679040909 ], [ 2071178.352879340527579, 5171412.864246727898717 ], [ 2071189.054052539169788, 5171599.765802104957402 ] ] ] } },
{ "type": "Feature", "properties": { "NAMA JALAN": "JALAN SATOK TIMUR", "KTG JLN": "JRB", "PJG JLN": null, "LBR JLN": null, "JENIS SRT": "SRT1", "CON OF RD": "C1", "TARIKH": "2025-08-01", "NORTHING": null, "EASTING": null, "CATATAN": null, "NORTH AKK": null, "EAST AKHR": null, "Road_type": "Main road" }, "geometry": { "type": "MultiLineString", "coordinates": [ [ [ 2072381.086869050050154, 5171773.683201723732054 ], [ 2072371.490977107780054, 5171773.480998911894858 ], [ 2072349.560986776137725, 5171773.807961960323155 ], [ 2072336.049684366211295, 5171774.712447387166321 ], [ 2072315.585080485790968, 5171778.133151580579579 ], [ 2072305.076196840032935, 5171780.698861248791218 ], [ 2072291.838272264692932, 5171784.914263553917408 ], [ 2072267.34931920748204, 5171795.109301935881376 ], [ 2072152.362971037626266, 5171850.549445422366261 ], [ 2072117.099931907607242, 5171866.971094925887883 ], [ 2072104.298400172498077, 5171871.614362021908164 ], [ 2072085.225367064122111, 5171877.246182953007519 ], [ 2072059.771424195496365, 5171881.652828272432089 ] ] ] } },
{ "type": "Feature", "properties": { "NAMA JALAN": "JALAN SATOK TIMUR (DOWN)", "KTG JLN": "JRB", "PJG JLN": null, "LBR JLN": null, "JENIS SRT": "SRT1", "CON OF RD": "C1", "TARIKH": null, "NORTHING": null, "EASTING": null, "CATATAN": null, "NORTH AKK": null, "EAST AKHR": null, "Road_type": "Main road" }, "geometry": { "type": "MultiLineString", "coordinates": [ [ [ 2072383.565477412194014, 5171764.207569536752999 ], [ 2072353.149678887333721, 5171764.051697367802262 ], [ 2072327.445216485066339, 5171765.445613471791148 ], [ 2072301.111061985371634, 5171769.299588300287724 ], [ 2072238.866372524527833, 5171782.166954751126468 ], [ 2072222.387361343251541, 5171785.072747509926558 ], [ 2072193.773832845734432, 5171788.380512252449989 ], [ 2072182.971722518559545, 5171789.10583782568574 ], [ 2072164.0788556674961, 5171789.437088464386761 ], [ 2072064.164050744846463, 5171786.461063353344798 ], [ 2072017.535821143072098, 5171785.617742595262825 ] ] ] } },
{ "type": "Feature", "properties": { "NAMA JALAN": "SUSUR JALAN KULAS", "KTG JLN": "JRB", "PJG JLN": null, "LBR JLN": null, "JENIS SRT": "SRT1", "CON OF RD": "C1", "TARIKH": null, "NORTHING": null, "EASTING": null, "CATATAN": null, "NORTH AKK": null, "EAST AKHR": null, "Road_type": "Main road" }, "geometry": { "type": "MultiLineString", "coordinates": [ [ [ 2072060.450061126844957, 5171890.147099686786532 ], [ 2072080.629391066730022, 5171887.885651846416295 ], [ 2072100.117932165507227, 5171884.86635516397655 ], [ 2072103.838594682514668, 5171882.22207098081708 ], [ 2072126.263652295107022, 5171873.956822343170643 ], [ 2072143.323396489489824, 5171866.538628746755421 ], [ 2072150.62307198648341, 5171864.419519941322505 ], [ 2072168.499201459344476, 5171862.03216272033751 ], [ 2072205.678036712575704, 5171859.101708645001054 ] ] ] } },
{ "type": "Feature", "properties": { "NAMA JALAN": "SUSUR JALAN HAJI TAHA", "KTG JLN": "JRB", "PJG JLN": null, "LBR JLN": null, "JENIS SRT": "SRT1", "CON OF RD": "C1", "TARIKH": null, "NORTHING": null, "EASTING": null, "CATATAN": null, "NORTH AKK": null, "EAST AKHR": null, "Road_type": "Main road" }, "geometry": { "type": "MultiLineString", "coordinates": [ [ [ 2072210.285550488391891, 5171892.474470493383706 ], [ 2072205.464122108882293, 5171887.792428274638951 ], [ 2072197.360069956397638, 5171883.934605627320707 ], [ 2072189.855675709666684, 5171882.235515594482422 ], [ 2072182.642354283016175, 5171881.67547142971307 ], [ 2072104.528629381209612, 5171887.374575250782073 ] ] ] } },
{ "type": "Feature", "properties": { "NAMA JALAN": "JALAN HAJI TAHA (UP)", "KTG JLN": "JRB", "PJG JLN": 0.543, "LBR JLN": 8.36, "JENIS SRT": "SRT1", "CON OF RD": "C1", "TARIKH": null, "NORTHING": 1.557584, "EASTING": 110.340805, "CATATAN": null, "NORTH AKK": 1.553888, "EAST AKHR": 110.338028, "Road_type": "Secondary road" }, "geometry": { "type": "MultiLineString", "coordinates": [ [ [ 2072205.880520174046978, 5171835.915931794792414 ], [ 2072216.18130698101595, 5171888.580638524144888 ], [ 2072215.860715058399364, 5171896.85942137055099 ], [ 2072221.341301598586142, 5171922.990399388596416 ], [ 2072227.411796152126044, 5171945.64372419193387 ], [ 2072234.380099509144202, 5171966.082337910309434 ], [ 2072244.4327973627951, 5171990.033233985304832 ], [ 2072252.069152579642832, 5172005.900516121648252 ], [ 2072261.532417107373476, 5172022.931411664932966 ], [ 2072291.650887258118019, 5172069.980390036478639 ], [ 2072295.735400663223118, 5172073.099786099046469 ], [ 2072320.018855175003409, 5172107.777386079542339 ], [ 2072324.88667101575993, 5172116.303045659326017 ], [ 2072333.167966060340405, 5172126.194748008623719 ], [ 2072340.507812086259946, 5172132.638783974573016 ], [ 2072351.38181506190449, 5172144.244576802477241 ], [ 2072366.718276773346588, 5172159.153857969678938 ], [ 2072386.307582588633522, 5172176.087590868584812 ], [ 2072403.734303124481812, 5172189.515558767132461 ], [ 2072478.936710248468444, 5172241.961236264556646 ], [ 2072495.311740549979731, 5172251.901564786210656 ], [ 2072523.474205875303596, 5172267.185926246456802 ] ] ] } },
{ "type": "Feature", "properties": { "NAMA JALAN": "JALAN HAJI TAHA (DOWN)", "KTG JLN": "JRB", "PJG JLN": 0.535, "LBR JLN": 9.0, "JENIS SRT": "SRT1", "CON OF RD": "C1", "TARIKH": null, "NORTHING": 1.553835, "EASTING": 110.338124, "CATATAN": null, "NORTH AKK": 1.557375, "EAST AKHR": 110.34098, "Road_type": "Secondary road" }, "geometry": { "type": "MultiLineString", "coordinates": [ [ [ 2072216.157505491282791, 5171836.445754611864686 ], [ 2072221.774768478935584, 5171863.765803606249392 ], [ 2072221.976339829387143, 5171864.74678430147469 ], [ 2072222.177912796847522, 5171865.727764753624797 ], [ 2072222.376445759320632, 5171866.70919955894351 ], [ 2072222.562367730308324, 5171867.692519183270633 ], [ 2072223.058628667611629, 5171869.889860994182527 ], [ 2072224.617579533718526, 5171872.756143087521195 ], [ 2072225.723546914290637, 5171884.678794887848198 ], [ 2072232.361201801104471, 5171918.712649157270789 ], [ 2072237.264373303856701, 5171936.795717841945589 ], [ 2072242.754020550753921, 5171948.88064569234848 ], [ 2072245.88148092944175, 5171958.206615192815661 ], [ 2072249.485523222247139, 5171972.168929908424616 ], [ 2072261.387386664515361, 5171998.255618343129754 ], [ 2072270.542864759452641, 5172015.407620993442833 ], [ 2072279.631466592662036, 5172029.67233638651669 ], [ 2072281.413690663408488, 5172031.726854478009045 ], [ 2072282.041570248780772, 5172032.734397546388209 ], [ 2072282.740705280797556, 5172037.180397091433406 ], [ 2072286.739021691028029, 5172044.122004852630198 ], [ 2072308.556384465657175, 5172077.571545305661857 ], [ 2072330.08337227627635, 5172107.409083460457623 ], [ 2072341.372660201741382, 5172121.13164375629276 ], [ 2072358.20852876198478, 5172139.374622138217092 ], [ 2072381.085955349262804, 5172160.698094886727631 ], [ 2072387.686187106184661, 5172167.39923991356045 ], [ 2072395.459771529072896, 5172173.690134313888848 ], [ 2072429.359130650758743, 5172198.139362552203238 ], [ 2072452.131448454689234, 5172211.614894285798073 ], [ 2072461.578609418589622, 5172218.457483909092844 ], [ 2072488.741685042856261, 5172236.246063420549035 ], [ 2072498.35751973441802, 5172241.150216196663678 ], [ 2072506.46738179330714, 5172244.419700923375785 ], [ 2072511.163999869022518, 5172247.406547039747238 ], [ 2072513.942563887918368, 5172248.447506344877183 ], [ 2072532.284337315009907, 5172251.975065777078271 ], [ 2072543.067899543093517, 5172248.977695439942181 ] ] ] } },
{ "type": "Feature", "properties": { "NAMA JALAN": "JALAN HAJI TAHA", "KTG JLN": "JRB", "PJG JLN": null, "LBR JLN": null, "JENIS SRT": "SRT1", "CON OF RD": "C1", "TARIKH": null, "NORTHING": null, "EASTING": null, "CATATAN": null, "NORTH AKK": null, "EAST AKHR": null, "Road_type": "Main road" }, "geometry": { "type": "MultiLineString", "coordinates": [ [ [ 2072198.490102896699682, 5171794.159759717993438 ], [ 2072205.881052329670638, 5171835.878998152911663 ] ] ] } },
{ "type": "Feature", "properties": { "NAMA JALAN": "JALAN HAJI TAHA (DOWN)", "KTG JLN": "JRB", "PJG JLN": null, "LBR JLN": null, "JENIS SRT": "SRT1", "CON OF RD": "C1", "TARIKH": null, "NORTHING": null, "EASTING": null, "CATATAN": null, "NORTH AKK": null, "EAST AKHR": null, "Road_type": "Main road" }, "geometry": { "type": "MultiLineString", "coordinates": [ [ [ 2072217.489033924182877, 5171836.213172248564661 ], [ 2072210.287172449287027, 5171792.812655884772539 ] ] ] } },
{ "type": "Feature", "properties": { "NAMA JALAN": "JALAN TUN AHMAD ZAIDI ADRUCE (NB)", "KTG JLN": "JRB", "PJG JLN": 3.69, "LBR JLN": 8.6, "JENIS SRT": "SRT1", "CON OF RD": "C1", "TARIKH": null, "NORTHING": 1.526516, "EASTING": 110.33653, "CATATAN": null, "NORTH AKK": 1.552921, "EAST AKHR": 110.337914, "Road_type": "Main road" }, "geometry": { "type": "MultiLineString", "coordinates": [ [ [ 2072159.364057413069531, 5171151.63419758528471 ], [ 2072165.691996864276007, 5171304.706932778470218 ], [ 2072165.749988018535078, 5171331.631644073873758 ], [ 2072165.14874116377905, 5171345.262065938673913 ], [ 2072169.504796449560672, 5171442.049229987896979 ], [ 2072170.944284812780097, 5171463.695314029231668 ], [ 2072170.594629875617102, 5171478.87645563762635 ], [ 2072172.149309501517564, 5171505.1753054196015 ], [ 2072174.630688375560567, 5171523.568191663362086 ], [ 2072177.07551207463257, 5171566.264148427173495 ], [ 2072179.957837725058198, 5171588.81524655316025 ], [ 2072180.023743984755129, 5171593.457388855516911 ], [ 2072179.185171409510076, 5171597.059537088498473 ], [ 2072180.911881763488054, 5171625.163334983401 ], [ 2072182.323501776671037, 5171628.196982759982347 ], [ 2072182.91915768920444, 5171631.162273087538779 ], [ 2072189.331173835322261, 5171734.374710937961936 ], [ 2072190.74770239694044, 5171749.117153160274029 ], [ 2072190.971267394255847, 5171756.136464512906969 ], [ 2072189.808618176961318, 5171763.633274364285171 ], [ 2072190.785179375903681, 5171771.827111723832786 ], [ 2072193.758838163455948, 5171782.088609248399734 ] ] ] } },
{ "type": "Feature", "properties": { "NAMA JALAN": "JALAN TUN AHMAD ZAIDI ADRUCE (SB)", "KTG JLN": "JRB", "PJG JLN": 3.69, "LBR JLN": 4.3, "JENIS SRT": "SRT1", "CON OF RD": "C1", "TARIKH": null, "NORTHING": 1.548727, "EASTING": 110.337731, "CATATAN": null, "NORTH AKK": 1.52643, "EAST AKHR": 110.336616, "Road_type": "Main road" }, "geometry": { "type": "MultiLineString", "coordinates": [ [ [ 2072173.38853260781616, 5171148.957318294793367 ], [ 2072176.277082709828392, 5171171.278711586259305 ], [ 2072177.125759829301387, 5171194.917459283024073 ], [ 2072176.347346528200433, 5171211.325869933702052 ], [ 2072176.695783830014989, 5171221.31997939106077 ], [ 2072181.012172890361398, 5171283.823101620189846 ], [ 2072179.778347416082397, 5171290.304119102656841 ], [ 2072179.781550745479763, 5171306.065482426434755 ], [ 2072177.601918815402314, 5171312.149610889144242 ], [ 2072177.653064884245396, 5171327.20412882976234 ], [ 2072179.445748277707025, 5171332.054893959313631 ], [ 2072180.094519581878558, 5171339.604451981373131 ], [ 2072181.754994484363124, 5171343.617578610777855 ], [ 2072183.975727512035519, 5171395.074559289030731 ], [ 2072183.876943549141288, 5171426.435194835998118 ], [ 2072184.625554423313588, 5171444.398326720111072 ], [ 2072185.6782794049941, 5171461.366156327538192 ], [ 2072188.652206719387323, 5171481.878886641934514 ], [ 2072189.781454924261197, 5171501.418843018822372 ], [ 2072189.340889668092132, 5171525.228971567004919 ], [ 2072202.196513231378049, 5171733.822379747405648 ], [ 2072205.491563267540187, 5171762.645996697247028 ], [ 2072205.355256997747347, 5171766.636799297295511 ], [ 2072207.885053111240268, 5171780.539377400651574 ] ] ] } },
{ "type": "Feature", "properties": { "NAMA JALAN": "JALAN BADRUDDIN", "KTG JLN": "JRB", "PJG JLN": 0.4, "LBR JLN": 17.2, "JENIS SRT": "SRT1", "CON OF RD": "C1", "TARIKH": null, "NORTHING": 1.548899, "EASTING": 110.337798, "CATATAN": null, "NORTH AKK": 1.548491, "EAST AKHR": 110.341253, "Road_type": "Secondary road" }, "geometry": { "type": "MultiLineString", "coordinates": [ [ [ 2072579.044596699299291, 5171257.107006381265819 ], [ 2072562.746154049411416, 5171258.57010564673692 ] ], [ [ 2072523.874449677765369, 5171262.059590093791485 ], [ 2072484.286368494387716, 5171265.613383162766695 ], [ 2072392.223847213434055, 5171283.247607572004199 ], [ 2072309.446736632147804, 5171297.799157731235027 ], [ 2072277.956944794859737, 5171301.200675485655665 ], [ 2072215.359839154640213, 5171312.226052109152079 ], [ 2072203.962975850095972, 5171313.147272005677223 ], [ 2072195.1391407311894, 5171315.953022866509855 ], [ 2072184.579479609848931, 5171315.11136821936816 ] ] ] } },
{ "type": "Feature", "properties": { "NAMA JALAN": "JALAN TUN ABANG HJ OPENG", "KTG JLN": "JRB", "PJG JLN": 2.71, "LBR JLN": 37.344, "JENIS SRT": "SRT1", "CON OF RD": "C1", "TARIKH": null, "NORTHING": 1.536249, "EASTING": 110.340795, "CATATAN": null, "NORTH AKK": 1.559632, "EAST AKHR": 110.345558, "Road_type": "Main road" }, "geometry": { "type": "MultiLineString", "coordinates": [ [ [ 2072590.511908281827345, 5171172.728944210335612 ], [ 2072598.664015965536237, 5171190.961749500595033 ], [ 2072597.852791506797075, 5171203.572797263972461 ], [ 2072595.600621523102745, 5171218.232184713706374 ], [ 2072594.011706090997905, 5171233.941808531060815 ], [ 2072590.134293427458033, 5171284.254303434863687 ], [ 2072584.209328630007803, 5171333.387854709289968 ], [ 2072583.893628514138982, 5171338.970049461349845 ], [ 2072584.142722446238622, 5171341.421717491000891 ], [ 2072582.827786453999579, 5171370.722370469011366 ], [ 2072579.59968966501765, 5171421.520695194602013 ], [ 2072579.560189517447725, 5171434.175054866820574 ], [ 2072581.561879354994744, 5171455.303023286163807 ], [ 2072586.339985875645652, 5171479.880588944070041 ], [ 2072600.116755751427263, 5171523.481087128631771 ], [ 2072660.671738917008042, 5171698.077288093045354 ], [ 2072669.519379148958251, 5171721.920268931426108 ], [ 2072676.790871525648981, 5171738.037760453298688 ], [ 2072693.143864431651309, 5171780.087082200683653 ], [ 2072708.990642542717978, 5171837.858353978954256 ], [ 2072712.237833529245108, 5171855.430080744437873 ], [ 2072722.977638509124517, 5171899.785353071987629 ], [ 2072733.629789597121999, 5171935.325803575105965 ], [ 2072749.286793478997424, 5172000.85182605497539 ], [ 2072753.158940199296921, 5172008.140395357273519 ], [ 2072759.923799420241266, 5172019.010477121919394 ], [ 2072785.057123905513436, 5172053.168685568496585 ], [ 2072793.021469800267369, 5172065.937117045745254 ], [ 2072801.601075583603233, 5172086.620630057528615 ] ] ] } },
{ "type": "Feature", "properties": { "NAMA JALAN": "JALAN SATOK TIMUR (UP)", "KTG JLN": "JRB", "PJG JLN": 0.5, "LBR JLN": 10.7, "JENIS SRT": "SRT1", "CON OF RD": "C1", "TARIKH": null, "NORTHING": null, "EASTING": null, "CATATAN": null, "NORTH AKK": null, "EAST AKHR": null, "Road_type": "Main road" }, "geometry": { "type": "MultiLineString", "coordinates": [ [ [ 2072380.807378370780498, 5171776.770913456566632 ], [ 2072413.477967958664522, 5171777.184887229464948 ], [ 2072439.052402237895876, 5171779.551001800224185 ], [ 2072440.047508563613519, 5171779.649945522658527 ], [ 2072441.042493887478486, 5171779.750045747496188 ], [ 2072441.979864516062662, 5171779.854621079750359 ], [ 2072443.335080068791285, 5171779.96065787691623 ], [ 2072544.559934166958556, 5171791.148724186234176 ], [ 2072669.599073704332113, 5171807.483211562968791 ], [ 2072674.071563322562724, 5171806.017741707153618 ], [ 2072689.011145068332553, 5171805.027970092371106 ] ] ] } },
{ "type": "Feature", "properties": { "NAMA JALAN": "JALAN SATOK TIMUR (DOWN)", "KTG JLN": "JRB", "PJG JLN": null, "LBR JLN": null, "JENIS SRT": "SRT1", "CON OF RD": "C1", "TARIKH": null, "NORTHING": null, "EASTING": null, "CATATAN": null, "NORTH AKK": null, "EAST AKHR": null, "Road_type": "Main road" }, "geometry": { "type": "MultiLineString", "coordinates": [ [ [ 2072318.663974662078544, 5171755.866898168809712 ], [ 2072345.093151911394671, 5171758.112338622100651 ] ], [ [ 2072383.54763889987953, 5171761.379457376897335 ], [ 2072450.705162812955678, 5171767.085205213166773 ], [ 2072600.737862035399303, 5171783.017568237148225 ], [ 2072617.637037771986797, 5171783.796881563961506 ], [ 2072632.683421761728823, 5171787.775930105708539 ], [ 2072635.26399480458349, 5171789.190872034989297 ], [ 2072637.23199254903011, 5171789.588289905339479 ], [ 2072686.007098325528204, 5171793.754533207975328 ] ] ] } },
{ "type": "Feature", "properties": { "NAMA JALAN": "Jalan Mataim", "KTG JLN": null, "PJG JLN": null, "LBR JLN": null, "JENIS SRT": null, "CON OF RD": null, "TARIKH": null, "NORTHING": null, "EASTING": null, "CATATAN": null, "NORTH AKK": null, "EAST AKHR": null, "Road_type": "Secondary road" }, "geometry": { "type": "MultiLineString", "coordinates": [ [ [ 2071019.37490699859336, 5171953.891558670438826 ], [ 2071027.478878778871149, 5171972.530811007134616 ], [ 2071029.204285282175988, 5171978.69202970713377 ], [ 2071038.740305006504059, 5172007.897977665066719 ], [ 2071057.149711032398045, 5172061.931780703365803 ], [ 2071061.955152419861406, 5172078.042674191296101 ], [ 2071098.290264036739245, 5172187.522632348351181 ] ] ] } },
{ "type": "Feature", "properties": { "NAMA JALAN": "Jalan Patingan", "KTG JLN": null, "PJG JLN": null, "LBR JLN": null, "JENIS SRT": null, "CON OF RD": null, "TARIKH": null, "NORTHING": null, "EASTING": null, "CATATAN": null, "NORTH AKK": null, "EAST AKHR": null, "Road_type": "Secondary road" }, "geometry": { "type": "MultiLineString", "coordinates": [ [ [ 2071099.994554977398366, 5172187.607320923358202 ], [ 2071122.808695962186903, 5172260.12606081366539 ], [ 2071137.906145279528573, 5172305.406922977417707 ], [ 2071144.853462063940242, 5172323.965973526239395 ], [ 2071159.763421852840111, 5172372.125512182712555 ], [ 2071160.514263770775869, 5172376.770611957646906 ], [ 2071179.264157811645418, 5172429.454545870423317 ] ] ] } },
{ "type": "Feature", "properties": { "NAMA JALAN": "Jalan Patingan", "KTG JLN": null, "PJG JLN": null, "LBR JLN": null, "JENIS SRT": null, "CON OF RD": null, "TARIKH": null, "NORTHING": null, "EASTING": null, "CATATAN": null, "NORTH AKK": null, "EAST AKHR": null, "Road_type": "Secondary road" }, "geometry": { "type": "MultiLineString", "coordinates": [ [ [ 2071280.084637434454635, 5172871.375396881252527 ], [ 2071277.931087512057275, 5172822.287749068811536 ], [ 2071276.327466966118664, 5172814.50441659335047 ], [ 2071253.922228925395757, 5172699.644647928886116 ], [ 2071239.367633881047368, 5172631.417336979880929 ], [ 2071226.805714105488732, 5172576.843807267025113 ], [ 2071179.693634720286354, 5172429.329237669706345 ] ] ] } },
{ "type": "Feature", "properties": { "NAMA JALAN": "Jalan Patingan", "KTG JLN": null, "PJG JLN": null, "LBR JLN": null, "JENIS SRT": null, "CON OF RD": null, "TARIKH": null, "NORTHING": null, "EASTING": null, "CATATAN": null, "NORTH AKK": null, "EAST AKHR": null, "Road_type": "Secondary road" }, "geometry": { "type": "MultiLineString", "coordinates": [ [ [ 2071298.715402025030926, 5173380.846605393104255 ], [ 2071286.494020447833464, 5173049.176838551647961 ], [ 2071282.677475544158369, 5172893.003309446386993 ], [ 2071280.83397744433023, 5172870.839614656753838 ] ] ] } },
{ "type": "Feature", "properties": { "NAMA JALAN": "Jalan Muhibbah", "KTG JLN": null, "PJG JLN": null, "LBR JLN": null, "JENIS SRT": null, "CON OF RD": null, "TARIKH": null, "NORTHING": null, "EASTING": null, "CATATAN": null, "NORTH AKK": null, "EAST AKHR": null, "Road_type": "Secondary road" }, "geometry": { "type": "MultiLineString", "coordinates": [ [ [ 2071337.473872538423166, 5171931.033045195043087 ], [ 2071341.216795349959284, 5172054.081064741127193 ], [ 2071340.62812051246874, 5172060.909971691668034 ], [ 2071339.453021489083767, 5172167.334995744749904 ], [ 2071342.177084933267906, 5172282.448748159222305 ], [ 2071344.122483243932948, 5172422.316736864857376 ] ] ] } },
{ "type": "Feature", "properties": { "NAMA JALAN": "Jalan Muhibbah", "KTG JLN": null, "PJG JLN": null, "LBR JLN": null, "JENIS SRT": null, "CON OF RD": null, "TARIKH": null, "NORTHING": null, "EASTING": null, "CATATAN": null, "NORTH AKK": null, "EAST AKHR": null, "Road_type": "Secondary road" }, "geometry": { "type": "MultiLineString", "coordinates": [ [ [ 2071453.352318343007937, 5172864.539062065072358 ], [ 2071403.085599297424778, 5172693.510607761330903 ], [ 2071393.175446879817173, 5172658.081144268624485 ], [ 2071363.222154803574085, 5172545.81238860078156 ], [ 2071349.280546764610335, 5172496.449502125382423 ], [ 2071345.102059688419104, 5172469.121736438013613 ], [ 2071345.097871596459299, 5172442.701703385449946 ] ] ] } },
{ "type": "Feature", "properties": { "NAMA JALAN": "Jalan Muhibbah", "KTG JLN": null, "PJG JLN": null, "LBR JLN": null, "JENIS SRT": null, "CON OF RD": null, "TARIKH": null, "NORTHING": null, "EASTING": null, "CATATAN": null, "NORTH AKK": null, "EAST AKHR": null, "Road_type": "Secondary road" }, "geometry": { "type": "MultiLineString", "coordinates": [ [ [ 2071453.371661434182897, 5172864.181181616149843 ], [ 2071460.009961200878024, 5172882.533678161911666 ], [ 2071467.839172615902498, 5172914.064223805442452 ], [ 2071470.577487159054726, 5172938.350078217685223 ], [ 2071474.692663004854694, 5172965.784109259024262 ], [ 2071492.188126172404736, 5173122.330482301302254 ], [ 2071498.234912069514394, 5173201.584988644346595 ], [ 2071502.712101315148175, 5173250.925886486656964 ], [ 2071503.495421334402636, 5173281.197725402191281 ], [ 2071500.658476702170447, 5173287.174791028723121 ], [ 2071497.490189597476274, 5173299.255649652332067 ] ] ] } },
{ "type": "Feature", "properties": { "NAMA JALAN": "Jalan Tanjung", "KTG JLN": null, "PJG JLN": null, "LBR JLN": null, "JENIS SRT": null, "CON OF RD": null, "TARIKH": null, "NORTHING": null, "EASTING": null, "CATATAN": null, "NORTH AKK": null, "EAST AKHR": null, "Road_type": "Secondary road" }, "geometry": { "type": "MultiLineString", "coordinates": [ [ [ 2071205.10289693926461, 5173389.348097627982497 ], [ 2071222.020595979643986, 5173383.695454672910273 ], [ 2071222.3889753180556, 5173383.69447523355484 ], [ 2071222.639737519668415, 5173383.714832277968526 ], [ 2071223.388807239243761, 5173383.712843633256853 ], [ 2071223.639569495338947, 5173383.733197711408138 ], [ 2071224.388639160431921, 5173383.731212032027543 ], [ 2071224.639401465421543, 5173383.751563145779073 ], [ 2071225.388471086975187, 5173383.74958042986691 ], [ 2071225.639233446680009, 5173383.769928580150008 ], [ 2071226.388303002808243, 5173383.767948827706277 ], [ 2071226.63906542211771, 5173383.788294015452266 ], [ 2071227.388134923763573, 5173383.786317225545645 ], [ 2071227.638897397788242, 5173383.806659451685846 ], [ 2071228.387966845184565, 5173383.80468562245369 ], [ 2071228.638729373458773, 5173383.825024887919426 ], [ 2071229.387798766139895, 5173383.823054018430412 ], [ 2071229.638561348896474, 5173383.843390325084329 ], [ 2071230.387630693148822, 5173383.841422414407134 ], [ 2071230.638393324567005, 5173383.861755763180554 ], [ 2071231.387462608749047, 5173383.859790809452534 ], [ 2071231.63822529441677, 5173383.880121200345457 ], [ 2071232.387294529937208, 5173383.878159203566611 ], [ 2071232.638057275442407, 5173383.898486639373004 ], [ 2071233.387126451125368, 5173383.896527597680688 ], [ 2071233.637889251112938, 5173383.916852079331875 ], [ 2071234.386958372313529, 5173383.914895990863442 ], [ 2071234.637721226550639, 5173383.935217519290745 ], [ 2071235.386790299089625, 5173383.933264384046197 ], [ 2071235.637553201988339, 5173383.953582959249616 ], [ 2071236.386622214922681, 5173383.951632776297629 ], [ 2071236.63738517742604, 5173383.971948400139809 ], [ 2071237.386454136343673, 5173383.970001167617738 ], [ 2071237.637217152863741, 5173383.990313841961324 ], [ 2071238.386286057531834, 5173383.98836955986917 ], [ 2071238.637049128534272, 5173384.00867928378284 ], [ 2071239.386117984540761, 5173384.006737950257957 ], [ 2071239.636881098384038, 5173384.027044725604355 ], [ 2071240.385949900140986, 5173384.025106339715421 ], [ 2071240.636713079409674, 5173384.045410168357193 ], [ 2071241.385781821561977, 5173384.043474729172885 ], [ 2071241.636545054614544, 5173384.063775612972677 ], [ 2071242.385613742750138, 5173384.06184311863035 ], [ 2071242.636377030052245, 5173384.082141056656837 ], [ 2071243.385445664171129, 5173384.080211507156491 ], [ 2071243.636209005489945, 5173384.100506502203643 ], [ 2071244.385277590947226, 5173384.09857989475131 ], [ 2071244.636040981160477, 5173384.118871946819127 ], [ 2071245.385109506780282, 5173384.116948282346129 ], [ 2071245.635872956598178, 5173384.137237393297255 ], [ 2071246.384941428201273, 5173384.135316669009626 ], [ 2071246.635704926215112, 5173384.155602838844061 ], [ 2071247.384773349622265, 5173384.1536850547418 ], [ 2071247.635536907007918, 5173384.173968286253512 ], [ 2071248.384605270810425, 5173384.172053440473974 ], [ 2071248.635368882445619, 5173384.192333733662963 ], [ 2071249.384437197819352, 5173384.190421826206148 ], [ 2071249.635200857883319, 5173384.210699182003736 ], [ 2071250.384269113652408, 5173384.208790210075676 ], [ 2071250.63503283332102, 5173384.22906463034451 ], [ 2071251.3841010350734, 5173384.227158593945205 ], [ 2071251.63486480852589, 5173384.247430079616606 ], [ 2071252.383932956494391, 5173384.245526977814734 ], [ 2071252.63469678373076, 5173384.265795529820025 ], [ 2071253.383764877915382, 5173384.26389536075294 ], [ 2071253.634528753580526, 5173384.284160980023444 ], [ 2071254.383596804924309, 5173384.282263742759824 ], [ 2071254.634360734373331, 5173384.302526430226862 ], [ 2071255.383428720757365, 5173384.300632124766707 ], [ 2071255.634192709811032, 5173384.320891882292926 ], [ 2071256.383260642178357, 5173384.319000505842268 ], [ 2071256.634024685015902, 5173384.33925733435899 ], [ 2071257.34126219432801, 5173384.337474344298244 ], [ 2071285.083690400235355, 5173385.045935408212245 ], [ 2071289.608761727344245, 5173385.956749565899372 ], [ 2071339.776711670449004, 5173385.894834833219647 ], [ 2071342.938081875210628, 5173386.350918028503656 ], [ 2071439.202162003843114, 5173362.522645546123385 ], [ 2071454.033190410584211, 5173350.632605467922986 ], [ 2071459.131103644380346, 5173345.330482904799283 ], [ 2071498.715290157822892, 5173308.769106239080429 ], [ 2071501.753531902097166, 5173304.807104111649096 ], [ 2071507.660029573133215, 5173299.572118105366826 ], [ 2071511.11477545555681, 5173297.46883143670857 ], [ 2071515.313127118628472, 5173295.900311237201095 ], [ 2071554.186574846273288, 5173294.165312333963811 ], [ 2071575.390548296039924, 5173292.505399659276009 ], [ 2071580.899949247250333, 5173291.638974731788039 ], [ 2071581.408040999667719, 5173291.641024225391448 ], [ 2071581.556000026874244, 5173291.630631253123283 ], [ 2071582.446985653601587, 5173291.634621771983802 ], [ 2071582.594946328550577, 5173291.623814624734223 ], [ 2071583.485935466829687, 5173291.628237202763557 ], [ 2071583.633898158092052, 5173291.616977905854583 ], [ 2071584.175958111649379, 5173291.619955993257463 ], [ 2071596.719081772724167, 5173289.21624705567956 ] ] ] } },
{ "type": "Feature", "properties": { "NAMA JALAN": "Jalan Datuk Ajibah Abol", "KTG JLN": null, "PJG JLN": null, "LBR JLN": null, "JENIS SRT": null, "CON OF RD": null, "TARIKH": null, "NORTHING": null, "EASTING": null, "CATATAN": null, "NORTH AKK": null, "EAST AKHR": null, "Road_type": "Secondary road" }, "geometry": { "type": "MultiLineString", "coordinates": [ [ [ 2071589.84555757092312, 5173286.780936 ], [ 2071589.845557581400499, 5173286.780935985036194 ] ], [ [ 2071589.895731625845656, 5173286.70954177621752 ], [ 2071621.083077554591, 5173242.332096731290221 ], [ 2071655.09103045030497, 5173190.914620427414775 ], [ 2071679.661501116584986, 5173150.253333752043545 ], [ 2071687.918351716827601, 5173133.315176155418158 ], [ 2071706.268626104807481, 5173094.647234944626689 ], [ 2071711.248834148980677, 5173080.09892643801868 ], [ 2071723.975618452765048, 5173050.580689721740782 ], [ 2071727.996732077561319, 5173033.878513404168189 ], [ 2071734.35042020957917, 5173012.283100082539022 ], [ 2071740.476709094597027, 5172987.66513804346323 ], [ 2071741.821811978938058, 5172984.099810462445021 ], [ 2071744.429311599116772, 5172980.092462169006467 ], [ 2071745.252949201734737, 5172976.371722784824669 ], [ 2071744.597699971403927, 5172971.393089341931045 ], [ 2071744.864339956780896, 5172967.335546900518239 ], [ 2071761.156581074697897, 5172900.906246963888407 ], [ 2071767.294766418170184, 5172872.826846800744534 ], [ 2071768.850080071715638, 5172858.207446552813053 ], [ 2071777.118318820139393, 5172811.769338047131896 ], [ 2071788.295073262881488, 5172760.792843588627875 ], [ 2071797.96012128284201, 5172712.945210161618888 ], [ 2071817.873359265970066, 5172632.680708424188197 ], [ 2071819.761207406176254, 5172628.203242051415145 ], [ 2071823.809027475770563, 5172622.527606608346105 ], [ 2071828.3382740363013, 5172607.76245226431638 ], [ 2071834.799784608650953, 5172592.62461871188134 ], [ 2071849.659324790583923, 5172553.718812034465373 ], [ 2071860.843008989933878, 5172532.608737524598837 ], [ 2071879.44578772992827, 5172492.347951618023217 ], [ 2071890.412411083932966, 5172474.316860175691545 ], [ 2071905.714661680860445, 5172451.587433506734669 ], [ 2071913.847428631735966, 5172440.621570762246847 ], [ 2071925.822980755241588, 5172426.395622740499675 ], [ 2071931.035358877852559, 5172419.295616450719535 ], [ 2071940.785323175601661, 5172402.372478211298585 ], [ 2071950.311079654842615, 5172388.366211041808128 ], [ 2071972.466365826781839, 5172358.185035110451281 ], [ 2071985.848337201634422, 5172337.919825580902398 ], [ 2072008.631895150523633, 5172313.383421167731285 ], [ 2072026.819888786645606, 5172298.318972138687968 ], [ 2072035.542966323206201, 5172293.550541970878839 ], [ 2072045.682303972542286, 5172289.729581114836037 ], [ 2072073.790653891395777, 5172282.264012115076184 ], [ 2072085.134838874451816, 5172279.05445044208318 ], [ 2072134.446488898945972, 5172269.191837343387306 ], [ 2072144.766786977648735, 5172267.952437366358936 ], [ 2072151.750501789851114, 5172265.639450159855187 ], [ 2072173.221522201551124, 5172265.422328536398709 ], [ 2072205.373625392792746, 5172267.463501049205661 ], [ 2072233.497591541381553, 5172268.566450911574066 ], [ 2072240.138937842799351, 5172269.330506667494774 ], [ 2072281.767381503246725, 5172278.684739612974226 ], [ 2072293.647964427713305, 5172280.523222199641168 ], [ 2072308.824960203142837, 5172285.489202744327486 ], [ 2072322.30437677889131, 5172289.212679573334754 ], [ 2072343.4096373768989, 5172292.780294165015221 ], [ 2072362.389676688238978, 5172296.791809380985796 ], [ 2072405.838780737249181, 5172303.336070312187076 ], [ 2072417.451446096645668, 5172302.678325165063143 ], [ 2072502.771878234576434, 5172311.434817731380463 ] ] ] } },
{ "type": "Feature", "properties": { "NAMA JALAN": "Jalan Muda Hashim", "KTG JLN": null, "PJG JLN": null, "LBR JLN": null, "JENIS SRT": null, "CON OF RD": null, "TARIKH": null, "NORTHING": null, "EASTING": null, "CATATAN": null, "NORTH AKK": null, "EAST AKHR": null, "Road_type": "Tertiary road" }, "geometry": { "type": "MultiLineString", "coordinates": [ [ [ 2071774.629047252936289, 5172403.291427941992879 ], [ 2071763.631570520810783, 5172198.342098817229271 ], [ 2071755.959622220369056, 5172044.016540401615202 ], [ 2071754.429569756379351, 5172022.67488519102335 ], [ 2071749.18257096898742, 5171912.408388225361705 ] ] ] } },
{ "type": "Feature", "properties": { "NAMA JALAN": "Jalan Muhibbah", "KTG JLN": null, "PJG JLN": null, "LBR JLN": null, "JENIS SRT": null, "CON OF RD": null, "TARIKH": null, "NORTHING": null, "EASTING": null, "CATATAN": null, "NORTH AKK": null, "EAST AKHR": null, "Road_type": "Tertiary road" }, "geometry": { "type": "MultiLineString", "coordinates": [ [ [ 2071333.980760961072519, 5172443.953857094049454 ], [ 2071350.25468538235873, 5172427.017629502341151 ] ] ] } },
{ "type": "Feature", "properties": { "NAMA JALAN": "Jalan Hj Mataim", "KTG JLN": null, "PJG JLN": null, "LBR JLN": null, "JENIS SRT": null, "CON OF RD": null, "TARIKH": null, "NORTHING": null, "EASTING": null, "CATATAN": null, "NORTH AKK": null, "EAST AKHR": null, "Road_type": "Tertiary road" }, "geometry": { "type": "MultiLineString", "coordinates": [ [ [ 2071101.362251142738387, 5172445.262824245728552 ], [ 2071171.426394827663898, 5172441.214808388613164 ] ] ] } },
{ "type": "Feature", "properties": { "NAMA JALAN": "Jalan Mataim", "KTG JLN": null, "PJG JLN": null, "LBR JLN": null, "JENIS SRT": null, "CON OF RD": null, "TARIKH": null, "NORTHING": null, "EASTING": null, "CATATAN": null, "NORTH AKK": null, "EAST AKHR": null, "Road_type": "Tertiary road" }, "geometry": { "type": "MultiLineString", "coordinates": [ [ [ 2071194.779234671033919, 5172439.768564673140645 ], [ 2071334.647510159062222, 5172432.263716393150389 ] ] ] } },
{ "type": "Feature", "properties": { "NAMA JALAN": "Jalan Mataaim", "KTG JLN": null, "PJG JLN": null, "LBR JLN": null, "JENIS SRT": null, "CON OF RD": null, "TARIKH": null, "NORTHING": null, "EASTING": null, "CATATAN": null, "NORTH AKK": null, "EAST AKHR": null, "Road_type": "Tertiary road" }, "geometry": { "type": "MultiLineString", "coordinates": [ [ [ 2071356.567495759343728, 5172431.199486489407718 ], [ 2071453.638496929546818, 5172426.042297725565732 ], [ 2071751.958318484248593, 5172412.80494706146419 ], [ 2071771.022346102632582, 5172411.202619976364076 ], [ 2071863.202015971299261, 5172409.405246400274336 ], [ 2071888.236646686680615, 5172408.617535229772329 ], [ 2071892.255849274806678, 5172408.052969326265156 ], [ 2071912.794680409599096, 5172408.206697350367904 ], [ 2071933.897215807810426, 5172397.509355060756207 ] ] ] } },
{ "type": "Feature", "properties": { "NAMA JALAN": "Jalan Hj Bolhassan", "KTG JLN": null, "PJG JLN": null, "LBR JLN": null, "JENIS SRT": null, "CON OF RD": null, "TARIKH": null, "NORTHING": null, "EASTING": null, "CATATAN": null, "NORTH AKK": null, "EAST AKHR": null, "Road_type": "Tertiary road" }, "geometry": { "type": "MultiLineString", "coordinates": [ [ [ 2071601.376041824696586, 5172431.075543800368905 ], [ 2071603.593383618630469, 5172541.15715423040092 ], [ 2071609.015623848419636, 5172742.086053092963994 ], [ 2071613.847975351847708, 5172881.385618257336318 ], [ 2071615.65313947526738, 5173012.944694061763585 ], [ 2071616.866287967422977, 5173029.039654762484133 ], [ 2071616.862316650338471, 5173058.880196448415518 ], [ 2071614.04202792653814, 5173063.855563224293292 ], [ 2071606.360071109374985, 5173073.57028819527477 ] ] ] } },
{ "type": "Feature", "properties": { "NAMA JALAN": "Jalan Hj Kassan", "KTG JLN": null, "PJG JLN": null, "LBR JLN": null, "JENIS SRT": null, "CON OF RD": null, "TARIKH": null, "NORTHING": null, "EASTING": null, "CATATAN": null, "NORTH AKK": null, "EAST AKHR": null, "Road_type": "Tertiary road" }, "geometry": { "type": "MultiLineString", "coordinates": [ [ [ 2071277.091968258377165, 5173059.699636876583099 ], [ 2071215.081802881788462, 5173060.364994574338198 ] ] ] } },
{ "type": "Feature", "properties": { "NAMA JALAN": "Jalan Hj Kassan", "KTG JLN": null, "PJG JLN": null, "LBR JLN": null, "JENIS SRT": null, "CON OF RD": null, "TARIKH": null, "NORTHING": null, "EASTING": null, "CATATAN": null, "NORTH AKK": null, "EAST AKHR": null, "Road_type": "Tertiary road" }, "geometry": { "type": "MultiLineString", "coordinates": [ [ [ 2071296.772217725636438, 5173059.231154274195433 ], [ 2071474.867261419072747, 5173055.974521784111857 ] ] ] } },
{ "type": "Feature", "properties": { "NAMA JALAN": "Jalan Hj Kassan", "KTG JLN": null, "PJG JLN": null, "LBR JLN": null, "JENIS SRT": null, "CON OF RD": null, "TARIKH": null, "NORTHING": null, "EASTING": null, "CATATAN": null, "NORTH AKK": null, "EAST AKHR": null, "Road_type": "Tertiary road" }, "geometry": { "type": "MultiLineString", "coordinates": [ [ [ 2071495.042814299464226, 5173056.706938721239567 ], [ 2071606.385215799557045, 5173053.239747056737542 ] ] ] } },
{ "type": "Feature", "properties": { "NAMA JALAN": "Jalan Patinggi Ali", "KTG JLN": null, "PJG JLN": null, "LBR JLN": null, "JENIS SRT": null, "CON OF RD": null, "TARIKH": null, "NORTHING": null, "EASTING": null, "CATATAN": null, "NORTH AKK": null, "EAST AKHR": null, "Road_type": "Tertiary road" }, "geometry": { "type": "MultiLineString", "coordinates": [ [ [ 2071215.266984081594273, 5172883.50480127055198 ], [ 2071271.982146721333265, 5172881.560834661126137 ] ] ] } },
{ "type": "Feature", "properties": { "NAMA JALAN": "Jalan Patinggi Ali", "KTG JLN": null, "PJG JLN": null, "LBR JLN": null, "JENIS SRT": null, "CON OF RD": null, "TARIKH": null, "NORTHING": null, "EASTING": null, "CATATAN": null, "NORTH AKK": null, "EAST AKHR": null, "Road_type": "Tertiary road" }, "geometry": { "type": "MultiLineString", "coordinates": [ [ [ 2071291.935330355539918, 5172879.862031047232449 ], [ 2071446.640609652968124, 5172874.477303639985621 ] ] ] } },
{ "type": "Feature", "properties": { "NAMA JALAN": "Jalan Patinggi Ali", "KTG JLN": null, "PJG JLN": null, "LBR JLN": null, "JENIS SRT": null, "CON OF RD": null, "TARIKH": null, "NORTHING": null, "EASTING": null, "CATATAN": null, "NORTH AKK": null, "EAST AKHR": null, "Road_type": "Tertiary road" }, "geometry": { "type": "MultiLineString", "coordinates": [ [ [ 2071467.245520036201924, 5172875.292843825183809 ], [ 2071547.649628260638565, 5172873.76273884344846 ], [ 2071601.438217673683539, 5172870.906717643141747 ] ] ] } },
{ "type": "Feature", "properties": { "NAMA JALAN": "Jalan Patinggi Ali", "KTG JLN": null, "PJG JLN": null, "LBR JLN": null, "JENIS SRT": null, "CON OF RD": null, "TARIKH": null, "NORTHING": null, "EASTING": null, "CATATAN": null, "NORTH AKK": null, "EAST AKHR": null, "Road_type": "Tertiary road" }, "geometry": { "type": "MultiLineString", "coordinates": [ [ [ 2071624.94152213470079, 5172870.869150002487004 ], [ 2071667.391453292919323, 5172869.084481426514685 ], [ 2071682.50615476956591, 5172865.568966874852777 ], [ 2071758.945135152200237, 5172862.951549703255296 ] ] ] } },
{ "type": "Feature", "properties": { "NAMA JALAN": "Jalan Abg Ateh", "KTG JLN": null, "PJG JLN": null, "LBR JLN": null, "JENIS SRT": null, "CON OF RD": null, "TARIKH": null, "NORTHING": null, "EASTING": null, "CATATAN": null, "NORTH AKK": null, "EAST AKHR": null, "Road_type": "Tertiary road" }, "geometry": { "type": "MultiLineString", "coordinates": [ [ [ 2071764.618236704031006, 5172539.890632681548595 ], [ 2071751.26911490643397, 5172543.159924440085888 ], [ 2071723.986940608825535, 5172543.595055234618485 ], [ 2071614.001517737517133, 5172548.081724139861763 ] ] ] } },
{ "type": "Feature", "properties": { "NAMA JALAN": "Jalan Abg Taip", "KTG JLN": null, "PJG JLN": null, "LBR JLN": null, "JENIS SRT": null, "CON OF RD": null, "TARIKH": null, "NORTHING": null, "EASTING": null, "CATATAN": null, "NORTH AKK": null, "EAST AKHR": null, "Road_type": "Tertiary road" }, "geometry": { "type": "MultiLineString", "coordinates": [ [ [ 2071475.37689427472651, 5172436.741298904642463 ], [ 2071477.468336756341159, 5172537.520799238234758 ], [ 2071477.768062334740534, 5172540.739030111581087 ], [ 2071477.799499998334795, 5172541.738550994545221 ], [ 2071477.83093764516525, 5172542.738071876578033 ], [ 2071477.862375275231898, 5172543.737592762336135 ], [ 2071477.89381288853474, 5172544.737113647162914 ], [ 2071477.925250485073775, 5172545.736634531989694 ], [ 2071477.956688064616174, 5172546.736155416816473 ], [ 2071477.988125627161935, 5172547.735676305368543 ], [ 2071478.01956317294389, 5172548.735197192057967 ], [ 2071478.051000701496378, 5172549.734718078747392 ], [ 2071478.082438213052228, 5172550.734238969162107 ], [ 2071478.113875707378611, 5172551.733759858645499 ], [ 2071478.145313184708357, 5172552.733280748128891 ], [ 2071481.304689824348316, 5172652.583368480205536 ] ] ] } },
{ "type": "Feature", "properties": { "NAMA JALAN": "Jalan Laruh", "KTG JLN": null, "PJG JLN": null, "LBR JLN": null, "JENIS SRT": null, "CON OF RD": null, "TARIKH": null, "NORTHING": null, "EASTING": null, "CATATAN": null, "NORTH AKK": null, "EAST AKHR": null, "Road_type": "Tertiary road" }, "geometry": { "type": "MultiLineString", "coordinates": [ [ [ 2071008.867510541575029, 5172198.836996702477336 ], [ 2071089.77538751042448, 5172194.068638836964965 ] ] ] } },
{ "type": "Feature", "properties": { "NAMA JALAN": "Jalan Patingan", "KTG JLN": null, "PJG JLN": null, "LBR JLN": null, "JENIS SRT": null, "CON OF RD": null, "TARIKH": null, "NORTHING": null, "EASTING": null, "CATATAN": null, "NORTH AKK": null, "EAST AKHR": null, "Road_type": "Secondary road" }, "geometry": { "type": "MultiLineString", "coordinates": [ [ [ 2071108.9834472280927, 5172187.444012113846838 ], [ 2071101.146094398805872, 5172187.252171191386878 ] ] ] } },
{ "type": "Feature", "properties": { "NAMA JALAN": "Jlan Laruh", "KTG JLN": null, "PJG JLN": null, "LBR JLN": null, "JENIS SRT": null, "CON OF RD": null, "TARIKH": null, "NORTHING": null, "EASTING": null, "CATATAN": null, "NORTH AKK": null, "EAST AKHR": null, "Road_type": "Tertiary road" }, "geometry": { "type": "MultiLineString", "coordinates": [ [ [ 2071111.670216433703899, 5172193.406140553764999 ], [ 2071328.471132358536124, 5172181.246599623933434 ] ] ] } },
{ "type": "Feature", "properties": { "NAMA JALAN": "Jaan dagok", "KTG JLN": null, "PJG JLN": null, "LBR JLN": null, "JENIS SRT": null, "CON OF RD": null, "TARIKH": null, "NORTHING": null, "EASTING": null, "CATATAN": null, "NORTH AKK": null, "EAST AKHR": null, "Road_type": "Tertiary road" }, "geometry": { "type": "MultiLineString", "coordinates": [ [ [ 2070954.455733837094158, 5172070.261008840985596 ], [ 2070965.642875248100609, 5172074.986228571273386 ], [ 2071049.302708855830133, 5172070.271387184038758 ] ] ] } },
{ "type": "Feature", "properties": { "NAMA JALAN": "Jalan Dagok", "KTG JLN": null, "PJG JLN": null, "LBR JLN": null, "JENIS SRT": null, "CON OF RD": null, "TARIKH": null, "NORTHING": null, "EASTING": null, "CATATAN": null, "NORTH AKK": null, "EAST AKHR": null, "Road_type": "Tertiary road" }, "geometry": { "type": "MultiLineString", "coordinates": [ [ [ 2071068.928180874325335, 5172069.128293102607131 ], [ 2071327.199500257615, 5172054.483135610818863 ] ] ] } },
{ "type": "Feature", "properties": { "NAMA JALAN": "Jalan Dagok", "KTG JLN": null, "PJG JLN": null, "LBR JLN": null, "JENIS SRT": null, "CON OF RD": null, "TARIKH": null, "NORTHING": null, "EASTING": null, "CATATAN": null, "NORTH AKK": null, "EAST AKHR": null, "Road_type": "Tertiary road" }, "geometry": { "type": "MultiLineString", "coordinates": [ [ [ 2071349.216898827580735, 5172049.905609470792115 ], [ 2071518.471142643364146, 5172040.963633744046092 ], [ 2071574.608274360187352, 5172038.529913106001914 ], [ 2071688.432790574617684, 5172032.176146619953215 ], [ 2071744.184055352816358, 5172028.354224021546543 ] ] ] } },
{ "type": "Feature", "properties": { "NAMA JALAN": "Jalan Dagok", "KTG JLN": null, "PJG JLN": null, "LBR JLN": null, "JENIS SRT": null, "CON OF RD": null, "TARIKH": null, "NORTHING": null, "EASTING": null, "CATATAN": null, "NORTH AKK": null, "EAST AKHR": null, "Road_type": "Tertiary road" }, "geometry": { "type": "MultiLineString", "coordinates": [ [ [ 2071765.238164277980104, 5172028.411848100833595 ], [ 2071816.206278822617605, 5172025.26000620983541 ], [ 2071822.985748090548441, 5172023.971300126984715 ], [ 2071875.104199776193127, 5172022.293048040010035 ], [ 2072085.439258321654052, 5172009.30492979940027 ], [ 2072111.892427181825042, 5172011.703299005515873 ], [ 2072116.198233892675489, 5172010.909132517874241 ] ] ] } },
{ "type": "Feature", "properties": { "NAMA JALAN": "Jalan Laruh", "KTG JLN": null, "PJG JLN": null, "LBR JLN": null, "JENIS SRT": null, "CON OF RD": null, "TARIKH": null, "NORTHING": null, "EASTING": null, "CATATAN": null, "NORTH AKK": null, "EAST AKHR": null, "Road_type": "Tertiary road" }, "geometry": { "type": "MultiLineString", "coordinates": [ [ [ 2071350.544820960843936, 5172170.485597159713507 ], [ 2071361.834726963890716, 5172171.327086719684303 ], [ 2071698.413710401393473, 5172153.919039135798812 ], [ 2071750.702076432760805, 5172152.743585499934852 ] ] ] } },
{ "type": "Feature", "properties": { "NAMA JALAN": "Jalan Parit Lama", "KTG JLN": null, "PJG JLN": null, "LBR JLN": null, "JENIS SRT": null, "CON OF RD": null, "TARIKH": null, "NORTHING": null, "EASTING": null, "CATATAN": null, "NORTH AKK": null, "EAST AKHR": null, "Road_type": "Tertiary road" }, "geometry": { "type": "MultiLineString", "coordinates": [ [ [ 2071130.041390083031729, 5172315.159805834293365 ], [ 2071052.436153807910159, 5172319.04622011911124 ] ] ] } },
{ "type": "Feature", "properties": { "NAMA JALAN": "Jalan prit Lama", "KTG JLN": null, "PJG JLN": null, "LBR JLN": null, "JENIS SRT": null, "CON OF RD": null, "TARIKH": null, "NORTHING": null, "EASTING": null, "CATATAN": null, "NORTH AKK": null, "EAST AKHR": null, "Road_type": "Tertiary road" }, "geometry": { "type": "MultiLineString", "coordinates": [ [ [ 2071151.76962014567107, 5172314.086921512149274 ], [ 2071330.962108452338725, 5172304.38111016806215 ] ] ] } },
{ "type": "Feature", "properties": { "NAMA JALAN": "Jalan Green", "KTG JLN": null, "PJG JLN": null, "LBR JLN": null, "JENIS SRT": null, "CON OF RD": null, "TARIKH": null, "NORTHING": null, "EASTING": null, "CATATAN": null, "NORTH AKK": null, "EAST AKHR": null, "Road_type": "Secondary road" }, "geometry": { "type": "MultiLineString", "coordinates": [ [ [ 2071335.826444842852652, 5171917.906377087347209 ], [ 2071337.640256867045537, 5171868.653874553740025 ], [ 2071346.070056503172964, 5171823.445731258951128 ] ] ] } },
{ "type": "Feature", "properties": { "NAMA JALAN": "Jalan Muda Hashim", "KTG JLN": null, "PJG JLN": null, "LBR JLN": null, "JENIS SRT": null, "CON OF RD": null, "TARIKH": null, "NORTHING": null, "EASTING": null, "CATATAN": null, "NORTH AKK": null, "EAST AKHR": null, "Road_type": "Tertiary road" }, "geometry": { "type": "MultiLineString", "coordinates": [ [ [ 2071738.069266051752493, 5171909.796273412182927 ], [ 2071758.874033977510408, 5171908.733596491627395 ] ] ] } },
{ "type": "Feature", "properties": { "NAMA JALAN": "Jalan P. Ramlee", "KTG JLN": null, "PJG JLN": null, "LBR JLN": null, "JENIS SRT": null, "CON OF RD": null, "TARIKH": null, "NORTHING": null, "EASTING": null, "CATATAN": null, "NORTH AKK": null, "EAST AKHR": null, "Road_type": "Secondary road" }, "geometry": { "type": "MultiLineString", "coordinates": [ [ [ 2072504.141036501387134, 5171793.012451134622097 ], [ 2072504.558346716687083, 5171818.732735824771225 ], [ 2072508.150144947227091, 5171842.17725735437125 ], [ 2072524.74063379666768, 5171912.228094048798084 ], [ 2072543.006415971787646, 5171993.213821162469685 ], [ 2072552.206029021646827, 5172029.140258193016052 ], [ 2072560.317510557593778, 5172067.931134739890695 ], [ 2072577.688641163986176, 5172139.884432005695999 ], [ 2072578.556318925460801, 5172153.022026012651622 ], [ 2072588.669636413920671, 5172194.815818657167256 ], [ 2072603.969217024277896, 5172235.233026592060924 ], [ 2072621.054419942898676, 5172256.398636066354811 ] ] ] } },
{ "type": "Feature", "properties": { "NAMA JALAN": "Bulatan Padang Pasir", "KTG JLN": null, "PJG JLN": null, "LBR JLN": null, "JENIS SRT": null, "CON OF RD": null, "TARIKH": null, "NORTHING": null, "EASTING": null, "CATATAN": null, "NORTH AKK": null, "EAST AKHR": null, "Road_type": "Secondary road" }, "geometry": { "type": "MultiLineString", "coordinates": [ [ [ 2072514.08972653793171, 5172330.645006353966892 ], [ 2072516.025063357083127, 5172306.801940015517175 ], [ 2072520.18653109529987, 5172284.168087378144264 ], [ 2072524.707630611490458, 5172274.260676920413971 ], [ 2072530.223229976370931, 5172264.763044193387032 ], [ 2072532.824994447641075, 5172262.613514359109104 ], [ 2072541.835701029282063, 5172257.31360062584281 ], [ 2072552.704806933412328, 5172253.246656285598874 ], [ 2072598.248849789844826, 5172254.608266758732498 ], [ 2072613.621143149212003, 5172261.793066371232271 ], [ 2072617.066552495583892, 5172264.81639171205461 ], [ 2072619.478274418739602, 5172268.095606739632785 ], [ 2072644.377991425106302, 5172321.1942009748891 ] ] ] } },
{ "type": "Feature", "properties": { "NAMA JALAN": "Jalan Parit Lama", "KTG JLN": null, "PJG JLN": null, "LBR JLN": null, "JENIS SRT": null, "CON OF RD": null, "TARIKH": null, "NORTHING": null, "EASTING": null, "CATATAN": null, "NORTH AKK": null, "EAST AKHR": null, "Road_type": "Tertiary road" }, "geometry": { "type": "MultiLineString", "coordinates": [ [ [ 2071353.693870596121997, 5172296.675524525344372 ], [ 2071701.596381589537486, 5172277.539456793107092 ], [ 2071706.575490224640816, 5172278.250776721164584 ], [ 2071758.012579211266711, 5172275.796304943040013 ] ] ] } },
{ "type": "Feature", "properties": { "NAMA JALAN": "Jalan Datuk Paduka Sitom", "KTG JLN": null, "PJG JLN": null, "LBR JLN": null, "JENIS SRT": null, "CON OF RD": null, "TARIKH": null, "NORTHING": null, "EASTING": null, "CATATAN": null, "NORTH AKK": null, "EAST AKHR": null, "Road_type": "Tertiary road" }, "geometry": { "type": "MultiLineString", "coordinates": [ [ [ 2071286.570060296915472, 5172815.595753091387451 ], [ 2071340.901313725393265, 5172814.304628065787256 ], [ 2071425.380205132300034, 5172811.190172009170055 ] ] ] } },
{ "type": "Feature", "properties": { "NAMA JALAN": "Jalan Abong Taip", "KTG JLN": null, "PJG JLN": null, "LBR JLN": null, "JENIS SRT": null, "CON OF RD": null, "TARIKH": null, "NORTHING": null, "EASTING": null, "CATATAN": null, "NORTH AKK": null, "EAST AKHR": null, "Road_type": "Tertiary road" }, "geometry": { "type": "MultiLineString", "coordinates": [ [ [ 2071481.718202625168487, 5172686.993253366090357 ], [ 2071483.123509731842205, 5172742.489530740305781 ], [ 2071482.813511092448607, 5172747.135326319374144 ], [ 2071484.187110858270898, 5172802.479174823500216 ] ] ] } },
{ "type": "Feature", "properties": { "NAMA JALAN": "Jalan Datuk Paduka Sitom", "KTG JLN": null, "PJG JLN": null, "LBR JLN": null, "JENIS SRT": null, "CON OF RD": null, "TARIKH": null, "NORTHING": null, "EASTING": null, "CATATAN": null, "NORTH AKK": null, "EAST AKHR": null, "Road_type": "Tertiary road" }, "geometry": { "type": "MultiLineString", "coordinates": [ [ [ 2071448.852981821866706, 5172809.512751805596054 ], [ 2071543.027867957251146, 5172806.342067986726761 ], [ 2071547.684715149225667, 5172806.733029190450907 ], [ 2071600.032133130123839, 5172804.951421857811511 ] ] ] } }
]
}
