{
"type": "FeatureCollection",
"name": "Road_ReprojWGS1",
"crs": { "type": "name", "properties": { "name": "urn:ogc:def:crs:OGC:1.3:CRS84" } },
"features": [
{ "type": "Feature", "properties": { "NAMA JALAN": "JALAN JAMBATAN GANTUNG", "KTG JLN": "JRB", "PJG JLN": 2.0, "LBR JLN": 8.6, "JENIS SRT": "SRT1", "CON OF RD": "C1", "TARIKH": null, "NORTHING": 1.552749, "EASTING": 110.324666, "CATATAN": null, "NORTH AKK": 1.552438, "EAST AKHR": 110.330471, "Road_type": "Tertiary road" }, "geometry": { "type": "MultiLineString", "coordinates": [ [ [ 110.330555289551768, 1.552448751503559 ], [ 110.330489262124189, 1.552432458569147 ], [ 110.330433941137272, 1.552432116458383 ], [ 110.330143551810124, 1.552447782580691 ], [ 110.330020780319074, 1.552448350764338 ], [ 110.329246581566295, 1.552505214141707 ], [ 110.328385416447944, 1.552556388142745 ], [ 110.324799129177109, 1.552733804887106 ], [ 110.32471154732761, 1.552755304152678 ] ] ] } },
{ "type": "Feature", "properties": { "NAMA JALAN": "JALAN RUBBER", "KTG JLN": "JRB", "PJG JLN": 0.747, "LBR JLN": 8.6, "JENIS SRT": "SRT1", "CON OF RD": "C1", "TARIKH": null, "NORTHING": 1.551033, "EASTING": 110.337645, "CATATAN": null, "NORTH AKK": 1.551376, "EAST AKHR": 110.331037, "Road_type": "Secondary road" }, "geometry": { "type": "MultiLineString", "coordinates": [ [ [ 110.331018301642828, 1.551390717832263 ], [ 110.331820566290773, 1.551340838863942 ], [ 110.331820961882698, 1.55134082412832 ], [ 110.331869017604035, 1.551347829156261 ], [ 110.333574995007794, 1.551260984337808 ], [ 110.334950797591532, 1.551182327316286 ], [ 110.337714306215531, 1.551035036088763 ] ] ] } },
{ "type": "Feature", "properties": { "NAMA JALAN": "JALAN RUBBER BARAT", "KTG JLN": "JRB", "PJG JLN": 0.9, "LBR JLN": 7.6, "JENIS SRT": "SRT1", "CON OF RD": "C1", "TARIKH": null, "NORTHING": 1.551387, "EASTING": 110.330803, "CATATAN": null, "NORTH AKK": 1.551848, "EAST AKHR": 110.32281, "Road_type": "Secondary road" }, "geometry": { "type": "MultiLineString", "coordinates": [ [ [ 110.322904259301779, 1.551762413806456 ], [ 110.322919428332824, 1.551771458385834 ], [ 110.322928764920036, 1.551780502754651 ], [ 110.322929750424109, 1.551781340734651 ], [ 110.322990305395521, 1.551797180836603 ], [ 110.323026909533652, 1.551832505911886 ], [ 110.323032622389775, 1.551834495529653 ], [ 110.323041609160128, 1.551836113936216 ], [ 110.323076465149001, 1.551838878765915 ], [ 110.325651254194099, 1.551696275451891 ], [ 110.327420206204366, 1.551591988664902 ], [ 110.328701606680909, 1.55152545578248 ], [ 110.329861015591121, 1.551454190524335 ], [ 110.330219894000166, 1.55143548775691 ], [ 110.330652032961808, 1.551420826397557 ], [ 110.330741327798236, 1.551419723905604 ], [ 110.330865051601904, 1.551433714442246 ] ] ] } },
{ "type": "Feature", "properties": { "NAMA JALAN": "JALAN GREEN", "KTG JLN": "JRB", "PJG JLN": 2.4, "LBR JLN": 7.4, "JENIS SRT": "SRT1", "CON OF RD": "C1", "TARIKH": null, "NORTHING": 1.55335, "EASTING": 110.330264, "CATATAN": null, "NORTH AKK": 1.536136, "EAST AKHR": 110.340682, "Road_type": "Secondary road" }, "geometry": { "type": "MultiLineString", "coordinates": [ [ [ 110.330339349367492, 1.553403611849012 ], [ 110.330366166474306, 1.553246216980387 ], [ 110.330405977316346, 1.553148336969975 ], [ 110.330458939143909, 1.552955445293356 ], [ 110.330565458000748, 1.552630566192504 ], [ 110.330685800372677, 1.552190216427226 ], [ 110.330750434466495, 1.552025166914234 ], [ 110.330797704483274, 1.551877212788039 ], [ 110.330885020496282, 1.551586941995108 ], [ 110.331056732282576, 1.551049630893952 ], [ 110.331127945490465, 1.550792972473289 ], [ 110.331174623230496, 1.550668309701369 ], [ 110.331290866205109, 1.550275338429498 ], [ 110.331383906926405, 1.549989661117598 ], [ 110.331394595494373, 1.549929881358269 ], [ 110.331421765567569, 1.54983945453462 ], [ 110.331446384245268, 1.549785067304079 ], [ 110.331693881534733, 1.548950385959017 ], [ 110.33178390260467, 1.548515561270567 ], [ 110.331851619376792, 1.548128276187315 ], [ 110.331851897408953, 1.548086739369404 ], [ 110.331890479397458, 1.547870917275868 ] ] ] } },
{ "type": "Feature", "properties": { "NAMA JALAN": "JALAN KULAS", "KTG JLN": "JRB", "PJG JLN": 1.39, "LBR JLN": 12.9, "JENIS SRT": "SRT1", "CON OF RD": "C1", "TARIKH": null, "NORTHING": 1.554508, "EASTING": 110.327786, "CATATAN": null, "NORTH AKK": 1.553821, "EAST AKHR": 110.33792, "Road_type": "Main road" }, "geometry": { "type": "MultiLineString", "coordinates": [ [ [ 110.326406832755154, 1.554327668167555 ], [ 110.326622997458941, 1.554271021052286 ], [ 110.326788364540533, 1.554249650335912 ], [ 110.326962971453113, 1.554244795099322 ], [ 110.327164526249192, 1.554260192394414 ], [ 110.327298346683321, 1.554284715697102 ], [ 110.327385413038826, 1.554307135941755 ], [ 110.327796525657249, 1.554437929637117 ], [ 110.328036096004737, 1.554504182183213 ], [ 110.328083686587931, 1.554528624216031 ], [ 110.32823014520163, 1.554531821090817 ], [ 110.328507169268391, 1.554521265191476 ], [ 110.330050294812267, 1.554428596419928 ], [ 110.330880398515234, 1.554364389739854 ], [ 110.332872493586621, 1.554253887441279 ], [ 110.332967532946313, 1.554261062688105 ], [ 110.333236208846401, 1.554245682298386 ], [ 110.333284321945285, 1.554234646532977 ], [ 110.334263421282344, 1.554175263142448 ], [ 110.334356770687094, 1.554184858552924 ], [ 110.335214853061643, 1.554135519929274 ], [ 110.336032269763152, 1.554073600806511 ], [ 110.336703270751173, 1.554033102774478 ] ] ] } },
{ "type": "Feature", "properties": { "NAMA JALAN": "JALAN SATOK", "KTG JLN": "JRB", "PJG JLN": 1.351, "LBR JLN": 12.9, "JENIS SRT": "SRT1", "CON OF RD": "C1", "TARIKH": null, "NORTHING": 1.553103, "EASTING": 110.337785, "CATATAN": null, "NORTH AKK": 1.553661, "EAST AKHR": 110.325951, "Road_type": "Main road" }, "geometry": { "type": "MultiLineString", "coordinates": [ [ [ 110.325886086100013, 1.554436052310373 ], [ 110.325886086100013, 1.554436052310373 ], [ 110.326371331816887, 1.554105418853381 ], [ 110.326908293711696, 1.553817649232336 ], [ 110.32735550549252, 1.553661524338754 ], [ 110.327715275643712, 1.553610888579095 ], [ 110.32793011080615, 1.553589271394515 ], [ 110.328685071119367, 1.553542865230676 ], [ 110.328864540684179, 1.553528505155431 ], [ 110.328908289223932, 1.553521075167563 ], [ 110.328942155421828, 1.553520110820324 ], [ 110.329178908649993, 1.553517092336891 ], [ 110.329574036936208, 1.553497455494413 ], [ 110.33048348687565, 1.553439261702399 ], [ 110.33295620567587, 1.553305775585949 ], [ 110.333137720649191, 1.553289027197828 ], [ 110.333727714193657, 1.553264636602589 ], [ 110.334445980877433, 1.55322535930362 ], [ 110.335172343041975, 1.553183345678971 ], [ 110.335207896084356, 1.553175776939709 ], [ 110.335242053204141, 1.553160534575216 ], [ 110.335602377717748, 1.55313936787133 ], [ 110.335779573160735, 1.55311239532792 ], [ 110.335927656165538, 1.553107479983207 ], [ 110.336099975558128, 1.553120311963297 ], [ 110.336322603505849, 1.55311691151523 ] ] ] } },
{ "type": "Feature", "properties": { "NAMA JALAN": "JALAN NANAS", "KTG JLN": "JRB", "PJG JLN": 0.667, "LBR JLN": 12.67, "JENIS SRT": "SRT1", "CON OF RD": "C1", "TARIKH": null, "NORTHING": 1.549003, "EASTING": 110.337193, "CATATAN": null, "NORTH AKK": 1.549351, "EAST AKHR": 110.331613, "Road_type": "Secondary road" }, "geometry": { "type": "MultiLineString", "coordinates": [ [ [ 110.331654316485782, 1.549339205715795 ], [ 110.331751195555185, 1.549339541461413 ], [ 110.332020535294319, 1.549324448892052 ], [ 110.33240786577062, 1.549309837746608 ], [ 110.332570281348239, 1.549298276572371 ], [ 110.332801287882006, 1.549293880558747 ], [ 110.332942605287741, 1.549283341252491 ], [ 110.333179383088932, 1.549274732628763 ], [ 110.334906412876592, 1.549178481786236 ], [ 110.334949773026111, 1.549169584923994 ], [ 110.334951586480486, 1.549169643432402 ], [ 110.334956678499978, 1.549169432908568 ], [ 110.334960425396915, 1.549169552999616 ], [ 110.334985346796628, 1.549168900507129 ], [ 110.33509169188855, 1.549165390111696 ], [ 110.33547660269177, 1.549147026248323 ], [ 110.336016364261724, 1.549116642287613 ], [ 110.336152300615694, 1.549122905028394 ], [ 110.336472205353573, 1.549103992584878 ], [ 110.336672720682898, 1.549079611730945 ], [ 110.336744005235062, 1.549075585316484 ], [ 110.336831242974199, 1.549073764003499 ], [ 110.337073574076271, 1.549081458407738 ], [ 110.337201442497687, 1.549072618361909 ], [ 110.337335933675547, 1.549049636292209 ], [ 110.337610083506021, 1.548964284265384 ] ] ] } },
{ "type": "Feature", "properties": { "NAMA JALAN": "JALAN NANAS BARAT", "KTG JLN": "JRB", "PJG JLN": 0.829, "LBR JLN": 4.88, "JENIS SRT": "SRT1", "CON OF RD": "C1", "TARIKH": null, "NORTHING": 1.549374, "EASTING": 110.331326, "CATATAN": null, "NORTH AKK": 1.549963, "EAST AKHR": 110.321209, "Road_type": "Tertiary road" }, "geometry": { "type": "MultiLineString", "coordinates": [ [ [ 110.3224098612109, 1.549827697257527 ], [ 110.323008635857775, 1.549829422800011 ], [ 110.323322668933613, 1.549818156877632 ], [ 110.325035501223425, 1.549723479534983 ], [ 110.325135608410164, 1.549706216921386 ], [ 110.325292109865742, 1.549698705339031 ], [ 110.325376496494897, 1.549703252540303 ], [ 110.325583320025842, 1.549693726038483 ], [ 110.326884224850758, 1.549621616953234 ], [ 110.327103701949682, 1.549595912962248 ], [ 110.327220533132177, 1.54958843586882 ], [ 110.327539252599522, 1.549583266635379 ], [ 110.328405583392481, 1.549533504243642 ], [ 110.328579224159995, 1.549531173889525 ], [ 110.329392183661042, 1.549448653734185 ] ], [ [ 110.329647715923002, 1.549422715672037 ], [ 110.329879774980995, 1.549399160264965 ] ], [ [ 110.331473458997976, 1.549237391214273 ], [ 110.331540902789357, 1.549230545224837 ] ] ] } },
{ "type": "Feature", "properties": { "NAMA JALAN": "JALAN ONG GUAN POH", "KTG JLN": "JRB", "PJG JLN": 0.215, "LBR JLN": 8.6, "JENIS SRT": "SRT1", "CON OF RD": "C1", "TARIKH": null, "NORTHING": 1.55143, "EASTING": 110.328834, "CATATAN": null, "NORTH AKK": 1.54966, "EAST AKHR": 110.328706, "Road_type": "Tertiary road" }, "geometry": { "type": "MultiLineString", "coordinates": [ [ [ 110.328767444068887, 1.549651250579947 ], [ 110.328781874017068, 1.549788524486812 ], [ 110.328877986343187, 1.551478873366212 ] ] ] } },
{ "type": "Feature", "properties": { "NAMA JALAN": "JALAN SATOK TIMUR", "KTG JLN": "JRB", "PJG JLN": null, "LBR JLN": null, "JENIS SRT": "SRT1", "CON OF RD": "C1", "TARIKH": "2025-08-01", "NORTHING": null, "EASTING": null, "CATATAN": null, "NORTH AKK": null, "EAST AKHR": null, "Road_type": "Main road" }, "geometry": { "type": "MultiLineString", "coordinates": [ [ [ 110.339590548572701, 1.553052145722571 ], [ 110.339504311751426, 1.553050314241698 ], [ 110.33930723004363, 1.553053265024986 ], [ 110.339185805690391, 1.553061441359198 ], [ 110.339001892319814, 1.553092372501918 ], [ 110.33890744979135, 1.553115573887488 ], [ 110.338788481300568, 1.55315369438804 ], [ 110.338568399754053, 1.553245891766822 ], [ 110.337535018352582, 1.553747261762681 ], [ 110.337218109838403, 1.553895769629823 ], [ 110.337103063005927, 1.553937759803441 ], [ 110.336931654826117, 1.553988688656018 ], [ 110.336702902710741, 1.554028535072732 ] ] ] } },
{ "type": "Feature", "properties": { "NAMA JALAN": "JALAN SATOK TIMUR (DOWN)", "KTG JLN": "JRB", "PJG JLN": null, "LBR JLN": null, "JENIS SRT": "SRT1", "CON OF RD": "C1", "TARIKH": null, "NORTHING": null, "EASTING": null, "CATATAN": null, "NORTH AKK": null, "EAST AKHR": null, "Road_type": "Main road" }, "geometry": { "type": "MultiLineString", "coordinates": [ [ [ 110.339612826158415, 1.552966448314566 ], [ 110.339339483874681, 1.552965029886566 ], [ 110.339108481245589, 1.55297762915849 ], [ 110.338871818969125, 1.55301247713231 ], [ 110.33831243142788, 1.553128832283667 ], [ 110.338164336152204, 1.553155107647258 ], [ 110.337907189650494, 1.553185014934904 ], [ 110.337810112475609, 1.553191571676271 ], [ 110.337640324987291, 1.553194562026602 ], [ 110.336742406393981, 1.553167617512497 ], [ 110.33632336573622, 1.55315997678061 ] ] ] } },
{ "type": "Feature", "properties": { "NAMA JALAN": "SUSUR JALAN KULAS", "KTG JLN": "JRB", "PJG JLN": null, "LBR JLN": null, "JENIS SRT": "SRT1", "CON OF RD": "C1", "TARIKH": null, "NORTHING": null, "EASTING": null, "CATATAN": null, "NORTH AKK": null, "EAST AKHR": null, "Road_type": "Main road" }, "geometry": { "type": "MultiLineString", "coordinates": [ [ [ 110.336708999033959, 1.554105357859551 ], [ 110.336890348358395, 1.554084911161043 ], [ 110.337065489889412, 1.554057610228935 ], [ 110.33709892770753, 1.554033696290636 ], [ 110.337300460810098, 1.553958951567546 ], [ 110.33745377638094, 1.553891866064848 ], [ 110.337519378107459, 1.553872702877935 ], [ 110.337680028950373, 1.553851116727032 ], [ 110.338014150541312, 1.553824624397372 ] ] ] } },
{ "type": "Feature", "properties": { "NAMA JALAN": "SUSUR JALAN HAJI TAHA", "KTG JLN": "JRB", "PJG JLN": null, "LBR JLN": null, "JENIS SRT": "SRT1", "CON OF RD": "C1", "TARIKH": null, "NORTHING": null, "EASTING": null, "CATATAN": null, "NORTH AKK": null, "EAST AKHR": null, "Road_type": "Main road" }, "geometry": { "type": "MultiLineString", "coordinates": [ [ [ 110.338055547935213, 1.554126450622288 ], [ 110.338012219816932, 1.554084104600403 ], [ 110.33793939100012, 1.554049211902728 ], [ 110.337871950597403, 1.554033843061277 ], [ 110.337807125694383, 1.554028775889641 ], [ 110.337105127444417, 1.554080295985163 ] ] ] } },
{ "type": "Feature", "properties": { "NAMA JALAN": "JALAN HAJI TAHA (UP)", "KTG JLN": "JRB", "PJG JLN": 0.543, "LBR JLN": 8.36, "JENIS SRT": "SRT1", "CON OF RD": "C1", "TARIKH": null, "NORTHING": 1.557584, "EASTING": 110.340805, "CATATAN": null, "NORTH AKK": 1.553888, "EAST AKHR": 110.338028, "Road_type": "Secondary road" }, "geometry": { "type": "MultiLineString", "coordinates": [ [ [ 110.338015976934443, 1.553614931150842 ], [ 110.338108533367532, 1.554091236334994 ], [ 110.338105649857994, 1.554166109955039 ], [ 110.338154895525037, 1.554402441377619 ], [ 110.338209443616577, 1.554607320901834 ], [ 110.338272060829112, 1.554792170729684 ], [ 110.338362396035976, 1.555008786700384 ], [ 110.338431018265979, 1.555152293375795 ], [ 110.338516058335301, 1.555306324356091 ], [ 110.338786715116029, 1.555731846299058 ], [ 110.338823421158395, 1.555760059453758 ], [ 110.339041643104864, 1.556073692355036 ], [ 110.339085387014833, 1.556150800232422 ], [ 110.339159806992697, 1.556240263658372 ], [ 110.339225767301301, 1.556298545955948 ], [ 110.339323487095513, 1.5564035124486 ], [ 110.339461309439073, 1.556538357139517 ], [ 110.339637350932492, 1.556691512299579 ], [ 110.339793958596985, 1.556812960526821 ], [ 110.340469777278514, 1.557287303474123 ], [ 110.340616934609073, 1.557377209006391 ], [ 110.340870022513187, 1.557515449625601 ] ] ] } },
{ "type": "Feature", "properties": { "NAMA JALAN": "JALAN HAJI TAHA (DOWN)", "KTG JLN": "JRB", "PJG JLN": 0.535, "LBR JLN": 9.0, "JENIS SRT": "SRT1", "CON OF RD": "C1", "TARIKH": null, "NORTHING": 1.553835, "EASTING": 110.338124, "CATATAN": null, "NORTH AKK": 1.557375, "EAST AKHR": 110.34098, "Road_type": "Secondary road" }, "geometry": { "type": "MultiLineString", "coordinates": [ [ [ 110.338108334539498, 1.553619725882436 ], [ 110.338158808166966, 1.553866811384765 ], [ 110.338160619375728, 1.553875683480924 ], [ 110.338162430599027, 1.553884555574871 ], [ 110.338164214502115, 1.553893431777115 ], [ 110.338165885071518, 1.553902325022086 ], [ 110.338170344260988, 1.553922198033422 ], [ 110.338184353496459, 1.553948121282481 ], [ 110.338194289217114, 1.554055950649532 ], [ 110.338253931011224, 1.554363756410452 ], [ 110.338297989869318, 1.554527301982085 ], [ 110.338347321037915, 1.554636600248381 ], [ 110.338375424373183, 1.554720945673624 ], [ 110.338407809338705, 1.554847222563351 ], [ 110.338514762122912, 1.555083155279806 ], [ 110.338597036128846, 1.555238281470135 ], [ 110.338678709968292, 1.555367294876694 ], [ 110.338694725967869, 1.555385876554427 ], [ 110.338700368340724, 1.55539498900428 ], [ 110.338706650079615, 1.555435199036189 ], [ 110.338742580371303, 1.55549798042757 ], [ 110.338938640241409, 1.555800505991987 ], [ 110.339132091622091, 1.556070364344757 ], [ 110.339233542905035, 1.556194475103561 ], [ 110.3393848392367, 1.556359470345138 ], [ 110.339590429339168, 1.556552327473807 ], [ 110.339649742775364, 1.556612934857771 ], [ 110.339719601091403, 1.556669832257104 ], [ 110.340024242930696, 1.556890962053458 ], [ 110.340228890764706, 1.557012841992588 ], [ 110.340313789146236, 1.557074729428006 ], [ 110.34055789491201, 1.557235618031892 ], [ 110.34064430971209, 1.557279974200016 ], [ 110.340717191011493, 1.557309545918049 ], [ 110.34075939802841, 1.557336560450884 ], [ 110.34078436831102, 1.557345975738744 ], [ 110.340949202356967, 1.5573778844527 ], [ 110.341046113647849, 1.557350779211861 ] ] ] } },
{ "type": "Feature", "properties": { "NAMA JALAN": "JALAN HAJI TAHA", "KTG JLN": "JRB", "PJG JLN": null, "LBR JLN": null, "JENIS SRT": "SRT1", "CON OF RD": "C1", "TARIKH": null, "NORTHING": null, "EASTING": null, "CATATAN": null, "NORTH AKK": null, "EAST AKHR": null, "Road_type": "Main road" }, "geometry": { "type": "MultiLineString", "coordinates": [ [ [ 110.337949572403403, 1.553237284108102 ], [ 110.338015981727523, 1.553614597121321 ] ] ] } },
{ "type": "Feature", "properties": { "NAMA JALAN": "JALAN HAJI TAHA (DOWN)", "KTG JLN": "JRB", "PJG JLN": null, "LBR JLN": null, "JENIS SRT": "SRT1", "CON OF RD": "C1", "TARIKH": null, "NORTHING": null, "EASTING": null, "CATATAN": null, "NORTH AKK": null, "EAST AKHR": null, "Road_type": "Main road" }, "geometry": { "type": "MultiLineString", "coordinates": [ [ [ 110.338120300857298, 1.55361762278298 ], [ 110.338055591312184, 1.553225104258704 ] ] ] } },
{ "type": "Feature", "properties": { "NAMA JALAN": "JALAN TUN AHMAD ZAIDI ADRUCE (NB)", "KTG JLN": "JRB", "PJG JLN": 3.69, "LBR JLN": 8.6, "JENIS SRT": "SRT1", "CON OF RD": "C1", "TARIKH": null, "NORTHING": 1.526516, "EASTING": 110.33653, "CATATAN": null, "NORTH AKK": 1.552921, "EAST AKHR": 110.337914, "Road_type": "Main road" }, "geometry": { "type": "MultiLineString", "coordinates": [ [ [ 110.337598135850371, 1.547426236100117 ], [ 110.337654960805366, 1.548810636823213 ], [ 110.337655474331996, 1.549054145489294 ], [ 110.337650067155067, 1.549177419638124 ], [ 110.337689186822843, 1.550052769479696 ], [ 110.337702117111988, 1.550248538281257 ], [ 110.337698970487594, 1.550385837265641 ], [ 110.337712934645893, 1.550623685955538 ], [ 110.337735229160657, 1.550790032936594 ], [ 110.337757188204378, 1.55117617818328 ], [ 110.337783084766883, 1.55138013235331 ], [ 110.337783675726428, 1.551422116154924 ], [ 110.337776138570277, 1.551454693933564 ], [ 110.337791648195036, 1.5517088666693 ], [ 110.337804333339591, 1.55173630354738 ], [ 110.337809685558156, 1.551763121961352 ], [ 110.337867279708249, 1.552696582451698 ], [ 110.337880005591018, 1.552829914259115 ], [ 110.337882012712868, 1.552893397331285 ], [ 110.337871561995343, 1.55296119852077 ], [ 110.337880335842016, 1.553035304282038 ], [ 110.337907056711487, 1.553128110644574 ] ] ] } },
{ "type": "Feature", "properties": { "NAMA JALAN": "JALAN TUN AHMAD ZAIDI ADRUCE (SB)", "KTG JLN": "JRB", "PJG JLN": 3.69, "LBR JLN": 4.3, "JENIS SRT": "SRT1", "CON OF RD": "C1", "TARIKH": null, "NORTHING": 1.548727, "EASTING": 110.337731, "CATATAN": null, "NORTH AKK": 1.52643, "EAST AKHR": 110.336616, "Road_type": "Main road" }, "geometry": { "type": "MultiLineString", "coordinates": [ [ [ 110.337724172288731, 1.547402030211186 ], [ 110.337750124943312, 1.547603907067903 ], [ 110.337757745213537, 1.547817697571872 ], [ 110.337750745115429, 1.547966096003502 ], [ 110.337753873648055, 1.548056483426777 ], [ 110.337792646701658, 1.548621766595515 ], [ 110.337781556676049, 1.548680380946951 ], [ 110.337781581005629, 1.548822927639606 ], [ 110.337761991277105, 1.5488779522312 ], [ 110.337762446655717, 1.54901410618045 ], [ 110.337778555843855, 1.549057977292308 ], [ 110.337784384110108, 1.549126256116616 ], [ 110.337799305398789, 1.54916255153911 ], [ 110.337819248180281, 1.549627932053652 ], [ 110.337818351512524, 1.549911559387128 ], [ 110.337825074051892, 1.550074019174549 ], [ 110.337834529897563, 1.550227477474552 ], [ 110.337861250278351, 1.550412996599225 ], [ 110.337871393087411, 1.550589717367433 ], [ 110.337867427001711, 1.550805057349049 ], [ 110.337982898752827, 1.552691590868329 ], [ 110.338012502577598, 1.552952274081337 ], [ 110.338011276463561, 1.552988367062502 ], [ 110.338034007359525, 1.55311410341419 ] ] ] } },
{ "type": "Feature", "properties": { "NAMA JALAN": "JALAN BADRUDDIN", "KTG JLN": "JRB", "PJG JLN": 0.4, "LBR JLN": 17.2, "JENIS SRT": "SRT1", "CON OF RD": "C1", "TARIKH": null, "NORTHING": 1.548899, "EASTING": 110.337798, "CATATAN": null, "NORTH AKK": 1.548491, "EAST AKHR": 110.341253, "Road_type": "Secondary road" }, "geometry": { "type": "MultiLineString", "coordinates": [ [ [ 110.341369709089889, 1.548380256035898 ], [ 110.341223237107457, 1.548393483905615 ] ], [ [ 110.340873902169463, 1.54842503228318 ], [ 110.340518129259564, 1.548457162036788 ], [ 110.339690772862809, 1.548616621391852 ], [ 110.338946863887926, 1.548748203245301 ], [ 110.338663869128553, 1.548778957888422 ], [ 110.338101315710432, 1.548878654311438 ], [ 110.337998893641327, 1.548886982639163 ], [ 110.337919594437665, 1.548912355504053 ], [ 110.337824696672413, 1.548904740524385 ] ] ] } },
{ "type": "Feature", "properties": { "NAMA JALAN": "JALAN TUN ABANG HJ OPENG", "KTG JLN": "JRB", "PJG JLN": 2.71, "LBR JLN": 37.344, "JENIS SRT": "SRT1", "CON OF RD": "C1", "TARIKH": null, "NORTHING": 1.536249, "EASTING": 110.340795, "CATATAN": null, "NORTH AKK": 1.559632, "EAST AKHR": 110.345558, "Road_type": "Main road" }, "geometry": { "type": "MultiLineString", "coordinates": [ [ [ 110.341472787082665, 1.547617138509138 ], [ 110.341546043833034, 1.547782039433902 ], [ 110.341538750046979, 1.547896094353045 ], [ 110.341518506145874, 1.548028674190844 ], [ 110.341504222519717, 1.548170752612051 ], [ 110.341469363049129, 1.548625780984642 ], [ 110.341416102824866, 1.549070146301533 ], [ 110.341413264143029, 1.549120631934549 ], [ 110.341415502038629, 1.54914280504305 ], [ 110.341403676854185, 1.549407801616491 ], [ 110.341374652444955, 1.54986722390897 ], [ 110.341374293971896, 1.549981670701417 ], [ 110.341392277023957, 1.550172753891168 ], [ 110.341435210359521, 1.550395036212127 ], [ 110.34155900807805, 1.550789365571198 ], [ 110.342103158468433, 1.552368440735226 ], [ 110.342182664320418, 1.552584080492186 ], [ 110.342248007705322, 1.552729850037127 ], [ 110.342394958042277, 1.553110151058664 ], [ 110.342537354736834, 1.553632642111821 ], [ 110.342566531896622, 1.553791562693237 ], [ 110.342663036671098, 1.554192717227735 ], [ 110.342758756168394, 1.55451414998658 ], [ 110.342899445221633, 1.555106775253904 ], [ 110.342934241639611, 1.555172694551292 ], [ 110.342995033471283, 1.555271006050292 ], [ 110.343220893711845, 1.555579941760419 ], [ 110.343292464649309, 1.555695422366175 ], [ 110.343369562637619, 1.555882487555954 ] ] ] } },
{ "type": "Feature", "properties": { "NAMA JALAN": "JALAN SATOK TIMUR (UP)", "KTG JLN": "JRB", "PJG JLN": 0.5, "LBR JLN": 10.7, "JENIS SRT": "SRT1", "CON OF RD": "C1", "TARIKH": null, "NORTHING": null, "EASTING": null, "CATATAN": null, "NORTH AKK": null, "EAST AKHR": null, "Road_type": "Main road" }, "geometry": { "type": "MultiLineString", "coordinates": [ [ [ 110.339588035952417, 1.553080071069928 ], [ 110.339881641660767, 1.553083824413243 ], [ 110.340111474712614, 1.55310523097685 ], [ 110.340120417560655, 1.553106126112832 ], [ 110.340129359320954, 1.553107031708238 ], [ 110.34013778330511, 1.553107977760318 ], [ 110.34014996240056, 1.553108937149016 ], [ 110.341059652391763, 1.553210151368898 ], [ 110.342183356725599, 1.55335791659534 ], [ 110.342223550764274, 1.55334466405838 ], [ 110.342357810945174, 1.553335716694182 ] ] ] } },
{ "type": "Feature", "properties": { "NAMA JALAN": "JALAN SATOK TIMUR (DOWN)", "KTG JLN": "JRB", "PJG JLN": null, "LBR JLN": null, "JENIS SRT": "SRT1", "CON OF RD": "C1", "TARIKH": null, "NORTHING": null, "EASTING": null, "CATATAN": null, "NORTH AKK": null, "EAST AKHR": null, "Road_type": "Main road" }, "geometry": { "type": "MultiLineString", "coordinates": [ [ [ 110.339029568251703, 1.552890996234331 ], [ 110.339267082741401, 1.552911311703783 ] ], [ [ 110.339612666650268, 1.55294087071354 ], [ 110.340216199908042, 1.552992492965838 ], [ 110.341564517655868, 1.553136628607432 ], [ 110.341716387913692, 1.553143681516685 ], [ 110.341851606507177, 1.553179672482655 ], [ 110.341874797354123, 1.553192470021189 ], [ 110.341892483358393, 1.553196064843387 ], [ 110.342330817138802, 1.55323375825824 ] ] ] } },
{ "type": "Feature", "properties": { "NAMA JALAN": "Jalan Mataim", "KTG JLN": null, "PJG JLN": null, "LBR JLN": null, "JENIS SRT": null, "CON OF RD": null, "TARIKH": null, "NORTHING": null, "EASTING": null, "CATATAN": null, "NORTH AKK": null, "EAST AKHR": null, "Road_type": "Secondary road" }, "geometry": { "type": "MultiLineString", "coordinates": [ [ [ 110.327352996909724, 1.554681546389883 ], [ 110.327425820127218, 1.554850122964532 ], [ 110.327441324134981, 1.554905845772471 ], [ 110.32752701360441, 1.55516998832752 ], [ 110.327692438952752, 1.555658677589465 ], [ 110.327735619604724, 1.555804386536144 ], [ 110.328062122945923, 1.556794538136425 ] ] ] } },
{ "type": "Feature", "properties": { "NAMA JALAN": "Jalan Patingan", "KTG JLN": null, "PJG JLN": null, "LBR JLN": null, "JENIS SRT": null, "CON OF RD": null, "TARIKH": null, "NORTHING": null, "EASTING": null, "CATATAN": null, "NORTH AKK": null, "EAST AKHR": null, "Road_type": "Secondary road" }, "geometry": { "type": "MultiLineString", "coordinates": [ [ [ 110.328077439120591, 1.556795304606278 ], [ 110.328282443319225, 1.557451173454514 ], [ 110.328418107435638, 1.557860699659952 ], [ 110.328480536031051, 1.558028550444349 ], [ 110.328614514300824, 1.55846411138299 ], [ 110.328621260527726, 1.558506122029375 ], [ 110.328789746284613, 1.558982602915768 ] ] ] } },
{ "type": "Feature", "properties": { "NAMA JALAN": "Jalan Patingan", "KTG JLN": null, "PJG JLN": null, "LBR JLN": null, "JENIS SRT": null, "CON OF RD": null, "TARIKH": null, "NORTHING": null, "EASTING": null, "CATATAN": null, "NORTH AKK": null, "EAST AKHR": null, "Road_type": "Secondary road" }, "geometry": { "type": "MultiLineString", "coordinates": [ [ [ 110.32969566415953, 1.562979377551821 ], [ 110.32967632628764, 1.562535427201499 ], [ 110.329661917270897, 1.562465034067073 ], [ 110.329460601352324, 1.561426232661296 ], [ 110.329329823093673, 1.56080917863771 ], [ 110.329216948349384, 1.560315610316515 ], [ 110.328793605970333, 1.558981469762809 ] ] ] } },
{ "type": "Feature", "properties": { "NAMA JALAN": "Jalan Patingan", "KTG JLN": null, "PJG JLN": null, "LBR JLN": null, "JENIS SRT": null, "CON OF RD": null, "TARIKH": null, "NORTHING": null, "EASTING": null, "CATATAN": null, "NORTH AKK": null, "EAST AKHR": null, "Road_type": "Secondary road" }, "geometry": { "type": "MultiLineString", "coordinates": [ [ [ 110.329862930869368, 1.567587048805535 ], [ 110.329753207003492, 1.564587419023153 ], [ 110.32971895867874, 1.563174981646101 ], [ 110.32970239854852, 1.562974532169783 ] ] ] } },
{ "type": "Feature", "properties": { "NAMA JALAN": "Jalan Muhibbah", "KTG JLN": null, "PJG JLN": null, "LBR JLN": null, "JENIS SRT": null, "CON OF RD": null, "TARIKH": null, "NORTHING": null, "EASTING": null, "CATATAN": null, "NORTH AKK": null, "EAST AKHR": null, "Road_type": "Secondary road" }, "geometry": { "type": "MultiLineString", "coordinates": [ [ [ 110.330211709356988, 1.554474913194587 ], [ 110.330245308339286, 1.555587765038195 ], [ 110.330240015889473, 1.555649525724643 ], [ 110.330229422350016, 1.556612036841606 ], [ 110.330253867137188, 1.557653130107989 ], [ 110.330271306231126, 1.558918100913873 ] ] ] } },
{ "type": "Feature", "properties": { "NAMA JALAN": "Jalan Muhibbah", "KTG JLN": null, "PJG JLN": null, "LBR JLN": null, "JENIS SRT": null, "CON OF RD": null, "TARIKH": null, "NORTHING": null, "EASTING": null, "CATATAN": null, "NORTH AKK": null, "EAST AKHR": null, "Road_type": "Secondary road" }, "geometry": { "type": "MultiLineString", "coordinates": [ [ [ 110.331252799555145, 1.56291760539656 ], [ 110.330801113716376, 1.561370804092924 ], [ 110.330712063781093, 1.561050376005238 ], [ 110.330442913283008, 1.560035004999104 ], [ 110.330317637633271, 1.559588561315265 ], [ 110.330280094793622, 1.55934140693623 ], [ 110.33028006548453, 1.559102463429319 ] ] ] } },
{ "type": "Feature", "properties": { "NAMA JALAN": "Jalan Muhibbah", "KTG JLN": null, "PJG JLN": null, "LBR JLN": null, "JENIS SRT": null, "CON OF RD": null, "TARIKH": null, "NORTHING": null, "EASTING": null, "CATATAN": null, "NORTH AKK": null, "EAST AKHR": null, "Road_type": "Secondary road" }, "geometry": { "type": "MultiLineString", "coordinates": [ [ [ 110.331252973502728, 1.562914368724238 ], [ 110.331312625174704, 1.56308035122243 ], [ 110.331382975217693, 1.563365516651097 ], [ 110.331407576351495, 1.563585159298729 ], [ 110.331444550147793, 1.563833274551874 ], [ 110.331601729551579, 1.565249088516899 ], [ 110.331656045809893, 1.565965869557574 ], [ 110.331696265875536, 1.566412110862852 ], [ 110.331703295724111, 1.566685890083391 ], [ 110.33167779852954, 1.566739945832511 ], [ 110.331649321631247, 1.566849204264796 ] ] ] } },
{ "type": "Feature", "properties": { "NAMA JALAN": "Jalan Tanjung", "KTG JLN": null, "PJG JLN": null, "LBR JLN": null, "JENIS SRT": null, "CON OF RD": null, "TARIKH": null, "NORTHING": null, "EASTING": null, "CATATAN": null, "NORTH AKK": null, "EAST AKHR": null, "Road_type": "Secondary road" }, "geometry": { "type": "MultiLineString", "coordinates": [ [ [ 110.32902164424965, 1.567663905387713 ], [ 110.329173683342376, 1.567612788448879 ], [ 110.329176993921365, 1.567612779713024 ], [ 110.329179247482955, 1.567612963905514 ], [ 110.32918597927879, 1.567612946168674 ], [ 110.329188232840863, 1.567613130334329 ], [ 110.329194964636216, 1.567613112624298 ], [ 110.329197218198743, 1.567613296763125 ], [ 110.329203949993712, 1.567613279079867 ], [ 110.329206203556737, 1.567613463191901 ], [ 110.329212935351109, 1.567613445535424 ], [ 110.32921518891466, 1.567613629620662 ], [ 110.329221920708562, 1.56761361199098 ], [ 110.329224174272653, 1.567613796049419 ], [ 110.329230906066059, 1.56761377844648 ], [ 110.329233159630604, 1.567613962478144 ], [ 110.329239891423555, 1.567613944901973 ], [ 110.329242144988598, 1.567614128906863 ], [ 110.329248876781108, 1.56761411135743 ], [ 110.329251130346606, 1.567614295335563 ], [ 110.329257862138576, 1.567614277812858 ], [ 110.329260115704557, 1.567614461764246 ], [ 110.3292668474961, 1.567614444268267 ], [ 110.329269101062636, 1.56761462819293 ], [ 110.329275832853654, 1.567614610723636 ], [ 110.329278086420672, 1.567614794621574 ], [ 110.329284818211221, 1.567614777178999 ], [ 110.329287071778737, 1.567614961050203 ], [ 110.329293803568845, 1.567614943634323 ], [ 110.329296057136787, 1.567615127478826 ], [ 110.329302788926398, 1.567615110089623 ], [ 110.32930504249488, 1.567615293907442 ], [ 110.32931177428398, 1.567615276544888 ], [ 110.329314027852959, 1.567615460336011 ], [ 110.329320759641604, 1.567615443000157 ], [ 110.329323013211081, 1.567615626764582 ], [ 110.329329744999285, 1.567615609455384 ], [ 110.32933199856916, 1.567615793193134 ], [ 110.329338730356881, 1.567615775910572 ], [ 110.329340983927338, 1.56761595962168 ], [ 110.329347715714547, 1.567615942365729 ], [ 110.329349969285474, 1.567616126050204 ], [ 110.3293567010722, 1.567616108820879 ], [ 110.329358954643652, 1.567616292478711 ], [ 110.329365686429881, 1.56761627527599 ], [ 110.329367940001816, 1.567616458907212 ], [ 110.329374671787633, 1.567616441731082 ], [ 110.329376925360009, 1.567616625335681 ], [ 110.3293836571453, 1.567616608186158 ], [ 110.329385910718216, 1.567616791764143 ], [ 110.329392642503024, 1.567616774641206 ], [ 110.32939489607638, 1.56761695819257 ], [ 110.329401627860761, 1.567616941096218 ], [ 110.329403881434658, 1.567617124621007 ], [ 110.329410613218499, 1.567617107551205 ], [ 110.329412866792893, 1.567617291049412 ], [ 110.329419598576337, 1.567617274006156 ], [ 110.329421852151157, 1.567617457477801 ], [ 110.32942858393406, 1.567617440461101 ], [ 110.32943083750942, 1.567617623906174 ], [ 110.329437569291841, 1.567617606916002 ], [ 110.329439822867698, 1.56761779033455 ], [ 110.329446554649664, 1.567617773370889 ], [ 110.329448808226005, 1.567617956762888 ], [ 110.329455540007473, 1.567617939825738 ], [ 110.329457793584254, 1.567618123191221 ], [ 110.329464525365353, 1.567618106280568 ], [ 110.329466778942631, 1.567618289619521 ], [ 110.329473510723162, 1.567618272735366 ], [ 110.329475764300966, 1.56761845604783 ], [ 110.329482496081027, 1.56761843919016 ], [ 110.329484749659315, 1.567618622476119 ], [ 110.329491105514577, 1.567618606584824 ], [ 110.329740423005347, 1.567625023087807 ], [ 110.329781088955983, 1.567633261995137 ], [ 110.330231942080744, 1.567632718581156 ], [ 110.330260352772086, 1.56763684444319 ], [ 110.33112547388005, 1.567421372839724 ], [ 110.331258762354608, 1.567313844008988 ], [ 110.331304578388199, 1.567265893206669 ], [ 110.331660328387898, 1.566935244500091 ], [ 110.331687633967675, 1.566899413082897 ], [ 110.331740716617048, 1.566852069711076 ], [ 110.331771764667181, 1.566833048676672 ], [ 110.331809495237593, 1.566818864318672 ], [ 110.332158846651325, 1.566803185551322 ], [ 110.332349404672328, 1.566788180127989 ], [ 110.33239891725627, 1.566780345946228 ], [ 110.332403483413472, 1.56678036464591 ], [ 110.332404813106336, 1.566780270699458 ], [ 110.332412820282897, 1.566780307077342 ], [ 110.332414149990655, 1.566780209385106 ], [ 110.33242215719865, 1.566780249670537 ], [ 110.332423486924711, 1.566780147889016 ], [ 110.332428358349659, 1.566780174997832 ], [ 110.332541082625056, 1.566758439862455 ] ] ] } },
{ "type": "Feature", "properties": { "NAMA JALAN": "Jalan Datuk Ajibah Abol", "KTG JLN": null, "PJG JLN": null, "LBR JLN": null, "JENIS SRT": null, "CON OF RD": null, "TARIKH": null, "NORTHING": null, "EASTING": null, "CATATAN": null, "NORTH AKK": null, "EAST AKHR": null, "Road_type": "Secondary road" }, "geometry": { "type": "MultiLineString", "coordinates": [ [ [ 110.332479311891476, 1.566736412654204 ], [ 110.332479311891561, 1.566736412654055 ] ], [ [ 110.332479762822402, 1.566735766979903 ], [ 110.332760053836623, 1.566334426679637 ], [ 110.333065695460235, 1.565869417019119 ], [ 110.333286520113504, 1.565501683423163 ], [ 110.333360728757768, 1.565348497025377 ], [ 110.33352565258393, 1.564998789217971 ], [ 110.333570413673598, 1.564867215593114 ], [ 110.333684796969379, 1.564600256063145 ], [ 110.333720939459141, 1.564449202487463 ], [ 110.333778046028726, 1.564253895096359 ], [ 110.333833109926587, 1.564031251620615 ], [ 110.333845199311483, 1.563999007139945 ], [ 110.333868633832282, 1.563962765411313 ], [ 110.333876036923414, 1.563929115217382 ], [ 110.333870149841886, 1.563884088133736 ], [ 110.333872547371811, 1.563847391708854 ], [ 110.334018984401823, 1.563246608639183 ], [ 110.33407415622824, 1.562992659763305 ], [ 110.334088138180888, 1.562860442020833 ], [ 110.334162458195266, 1.562440457138018 ], [ 110.334262918017956, 1.561979427823859 ], [ 110.334349791314722, 1.56154669548559 ], [ 110.334528773642745, 1.560820787136064 ], [ 110.334545740855546, 1.560780293377816 ], [ 110.33458211981231, 1.560728964008769 ], [ 110.334622828071858, 1.560595428897536 ], [ 110.334680901435533, 1.560458523853851 ], [ 110.334814454015046, 1.560106663080828 ], [ 110.334914966709732, 1.55991574631976 ], [ 110.335082159608575, 1.559551632141343 ], [ 110.335180720631612, 1.559388561694956 ], [ 110.335318246754539, 1.559183000651843 ], [ 110.335391338135537, 1.559083827487126 ], [ 110.335498965079267, 1.558955171159902 ], [ 110.335545810149767, 1.558890960036873 ], [ 110.33563343684483, 1.558737909532166 ], [ 110.335719047726627, 1.558611239236275 ], [ 110.335918163300647, 1.55833828628186 ], [ 110.336038431306037, 1.558155011011858 ], [ 110.336243191325977, 1.557933109705748 ], [ 110.336406648796881, 1.557796871717352 ], [ 110.336485043303853, 1.557753748469289 ], [ 110.336576165259771, 1.557719194592752 ], [ 110.336828773314892, 1.557651684114416 ], [ 110.336930722883508, 1.557622660104407 ], [ 110.337373882768318, 1.557533476949191 ], [ 110.337466630225208, 1.557522270837648 ], [ 110.33752939258774, 1.55750135416418 ], [ 110.337722349744865, 1.557499396888093 ], [ 110.338011295662483, 1.557517866873906 ], [ 110.338264041556542, 1.557527850322852 ], [ 110.338323726200116, 1.557534762438571 ], [ 110.338697832585453, 1.557619374804152 ], [ 110.338804601226187, 1.557636005619511 ], [ 110.33894099336905, 1.557680922627549 ], [ 110.339062129966734, 1.557714601876112 ], [ 110.339251799041875, 1.557746873736672 ], [ 110.339422368919614, 1.557783159622499 ], [ 110.339812838261508, 1.557842358925154 ], [ 110.339917199916769, 1.557836413643215 ], [ 110.340683960708546, 1.557915632599794 ] ] ] } },
{ "type": "Feature", "properties": { "NAMA JALAN": "Jalan Muda Hashim", "KTG JLN": null, "PJG JLN": null, "LBR JLN": null, "JENIS SRT": null, "CON OF RD": null, "TARIKH": null, "NORTHING": null, "EASTING": null, "CATATAN": null, "NORTH AKK": null, "EAST AKHR": null, "Road_type": "Tertiary road" }, "geometry": { "type": "MultiLineString", "coordinates": [ [ [ 110.334140213223066, 1.558746169783253 ], [ 110.334041442809777, 1.556892597380982 ], [ 110.333972542760904, 1.555496868725498 ], [ 110.333958798833052, 1.555303853474217 ], [ 110.333911677962902, 1.554306597133356 ] ] ] } },
{ "type": "Feature", "properties": { "NAMA JALAN": "Jalan Muhibbah", "KTG JLN": null, "PJG JLN": null, "LBR JLN": null, "JENIS SRT": null, "CON OF RD": null, "TARIKH": null, "NORTHING": null, "EASTING": null, "CATATAN": null, "NORTH AKK": null, "EAST AKHR": null, "Road_type": "Tertiary road" }, "geometry": { "type": "MultiLineString", "coordinates": [ [ [ 110.330180157225598, 1.559113784415596 ], [ 110.330326413962482, 1.558960617861672 ] ] ] } },
{ "type": "Feature", "properties": { "NAMA JALAN": "Jalan Hj Mataim", "KTG JLN": null, "PJG JLN": null, "LBR JLN": null, "JENIS SRT": null, "CON OF RD": null, "TARIKH": null, "NORTHING": null, "EASTING": null, "CATATAN": null, "NORTH AKK": null, "EAST AKHR": null, "Road_type": "Tertiary road" }, "geometry": { "type": "MultiLineString", "coordinates": [ [ [ 110.328089648281306, 1.559125548344181 ], [ 110.328719305713619, 1.559088960519231 ] ] ] } },
{ "type": "Feature", "properties": { "NAMA JALAN": "Jalan Mataim", "KTG JLN": null, "PJG JLN": null, "LBR JLN": null, "JENIS SRT": null, "CON OF RD": null, "TARIKH": null, "NORTHING": null, "EASTING": null, "CATATAN": null, "NORTH AKK": null, "EAST AKHR": null, "Road_type": "Tertiary road" }, "geometry": { "type": "MultiLineString", "coordinates": [ [ [ 110.328929174718454, 1.559075888139595 ], [ 110.330186152889326, 1.559008058670979 ] ] ] } },
{ "type": "Feature", "properties": { "NAMA JALAN": "Jalan Mataaim", "KTG JLN": null, "PJG JLN": null, "LBR JLN": null, "JENIS SRT": null, "CON OF RD": null, "TARIKH": null, "NORTHING": null, "EASTING": null, "CATATAN": null, "NORTH AKK": null, "EAST AKHR": null, "Road_type": "Tertiary road" }, "geometry": { "type": "MultiLineString", "coordinates": [ [ [ 110.330383144958702, 1.558998440693199 ], [ 110.331255509663649, 1.558951829566461 ], [ 110.333936471653047, 1.558832203396462 ], [ 110.334107797888464, 1.558817717762648 ], [ 110.334936204276403, 1.558801490505807 ], [ 110.33516118726871, 1.558794374058895 ], [ 110.335197307456539, 1.558789269330307 ], [ 110.3353818870428, 1.5587906659083 ], [ 110.335571535843243, 1.558693925179043 ] ] ] } },
{ "type": "Feature", "properties": { "NAMA JALAN": "Jalan Hj Bolhassan", "KTG JLN": null, "PJG JLN": null, "LBR JLN": null, "JENIS SRT": null, "CON OF RD": null, "TARIKH": null, "NORTHING": null, "EASTING": null, "CATATAN": null, "NORTH AKK": null, "EAST AKHR": null, "Road_type": "Tertiary road" }, "geometry": { "type": "MultiLineString", "coordinates": [ [ [ 110.33258320433481, 1.558997396633798 ], [ 110.332603097137493, 1.559992978738504 ], [ 110.332651763381165, 1.561810186930315 ], [ 110.332695147337063, 1.563070017144081 ], [ 110.332711328583983, 1.56425984091604 ], [ 110.332722225898181, 1.564405404463042 ], [ 110.33272218075389, 1.564675282931635 ], [ 110.332696833602455, 1.564720279348981 ], [ 110.332627793756544, 1.564808137062381 ] ] ] } },
{ "type": "Feature", "properties": { "NAMA JALAN": "Jalan Hj Kassan", "KTG JLN": null, "PJG JLN": null, "LBR JLN": null, "JENIS SRT": null, "CON OF RD": null, "TARIKH": null, "NORTHING": null, "EASTING": null, "CATATAN": null, "NORTH AKK": null, "EAST AKHR": null, "Road_type": "Tertiary road" }, "geometry": { "type": "MultiLineString", "coordinates": [ [ [ 110.329668708593715, 1.564682584312372 ], [ 110.329111431249231, 1.56468858153536 ] ] ] } },
{ "type": "Feature", "properties": { "NAMA JALAN": "Jalan Hj Kassan", "KTG JLN": null, "PJG JLN": null, "LBR JLN": null, "JENIS SRT": null, "CON OF RD": null, "TARIKH": null, "NORTHING": null, "EASTING": null, "CATATAN": null, "NORTH AKK": null, "EAST AKHR": null, "Road_type": "Tertiary road" }, "geometry": { "type": "MultiLineString", "coordinates": [ [ [ 110.329845572546134, 1.564678353767754 ], [ 110.331446090427534, 1.564648958435183 ] ] ] } },
{ "type": "Feature", "properties": { "NAMA JALAN": "Jalan Hj Kassan", "KTG JLN": null, "PJG JLN": null, "LBR JLN": null, "JENIS SRT": null, "CON OF RD": null, "TARIKH": null, "NORTHING": null, "EASTING": null, "CATATAN": null, "NORTH AKK": null, "EAST AKHR": null, "Road_type": "Tertiary road" }, "geometry": { "type": "MultiLineString", "coordinates": [ [ [ 110.331627405269472, 1.564655588921457 ], [ 110.332628026179691, 1.564624267249981 ] ] ] } },
{ "type": "Feature", "properties": { "NAMA JALAN": "Jalan Patinggi Ali", "KTG JLN": null, "PJG JLN": null, "LBR JLN": null, "JENIS SRT": null, "CON OF RD": null, "TARIKH": null, "NORTHING": null, "EASTING": null, "CATATAN": null, "NORTH AKK": null, "EAST AKHR": null, "Road_type": "Tertiary road" }, "geometry": { "type": "MultiLineString", "coordinates": [ [ [ 110.329113152848464, 1.563089055065065 ], [ 110.329622844899347, 1.56307149221991 ] ] ] } },
{ "type": "Feature", "properties": { "NAMA JALAN": "Jalan Patinggi Ali", "KTG JLN": null, "PJG JLN": null, "LBR JLN": null, "JENIS SRT": null, "CON OF RD": null, "TARIKH": null, "NORTHING": null, "EASTING": null, "CATATAN": null, "NORTH AKK": null, "EAST AKHR": null, "Road_type": "Tertiary road" }, "geometry": { "type": "MultiLineString", "coordinates": [ [ [ 110.329802161992347, 1.563056134672736 ], [ 110.331192479167314, 1.563007484917261 ] ] ] } },
{ "type": "Feature", "properties": { "NAMA JALAN": "Jalan Patinggi Ali", "KTG JLN": null, "PJG JLN": null, "LBR JLN": null, "JENIS SRT": null, "CON OF RD": null, "TARIKH": null, "NORTHING": null, "EASTING": null, "CATATAN": null, "NORTH AKK": null, "EAST AKHR": null, "Road_type": "Tertiary road" }, "geometry": { "type": "MultiLineString", "coordinates": [ [ [ 110.331377652476576, 1.563014867277133 ], [ 110.33210023395948, 1.563001054628142 ], [ 110.332583625783585, 1.562975241789341 ] ] ] } },
{ "type": "Feature", "properties": { "NAMA JALAN": "Jalan Patinggi Ali", "KTG JLN": null, "PJG JLN": null, "LBR JLN": null, "JENIS SRT": null, "CON OF RD": null, "TARIKH": null, "NORTHING": null, "EASTING": null, "CATATAN": null, "NORTH AKK": null, "EAST AKHR": null, "Road_type": "Tertiary road" }, "geometry": { "type": "MultiLineString", "coordinates": [ [ [ 110.332794846887751, 1.562974909471008 ], [ 110.333176339388544, 1.562958782300208 ], [ 110.333312174326267, 1.562926992667416 ], [ 110.333999122255605, 1.562903344707608 ] ] ] } },
{ "type": "Feature", "properties": { "NAMA JALAN": "Jalan Abg Ateh", "KTG JLN": null, "PJG JLN": null, "LBR JLN": null, "JENIS SRT": null, "CON OF RD": null, "TARIKH": null, "NORTHING": null, "EASTING": null, "CATATAN": null, "NORTH AKK": null, "EAST AKHR": null, "Road_type": "Tertiary road" }, "geometry": { "type": "MultiLineString", "coordinates": [ [ [ 110.334050205612812, 1.559981574358921 ], [ 110.333930237883621, 1.560011137805119 ], [ 110.333685056602448, 1.560015064687142 ], [ 110.332696631438864, 1.560055608005929 ] ] ] } },
{ "type": "Feature", "properties": { "NAMA JALAN": "Jalan Abg Taip", "KTG JLN": null, "PJG JLN": null, "LBR JLN": null, "JENIS SRT": null, "CON OF RD": null, "TARIKH": null, "NORTHING": null, "EASTING": null, "CATATAN": null, "NORTH AKK": null, "EAST AKHR": null, "Road_type": "Tertiary road" }, "geometry": { "type": "MultiLineString", "coordinates": [ [ [ 110.331450866180887, 1.559048598482079 ], [ 110.331469630151574, 1.559960051825352 ], [ 110.331472322734342, 1.55998915768907 ], [ 110.331472604946882, 1.559998197393516 ], [ 110.331472887159251, 1.560007237097911 ], [ 110.331473169371478, 1.560016276802349 ], [ 110.331473451583506, 1.560025316506767 ], [ 110.331473733795391, 1.560034356211152 ], [ 110.331474016007121, 1.560043395915521 ], [ 110.331474298218666, 1.560052435619907 ], [ 110.331474580430054, 1.560061475324257 ], [ 110.331474862641301, 1.560070515028588 ], [ 110.331475144852362, 1.560079554732951 ], [ 110.331475427063253, 1.56008859443727 ], [ 110.331475709273988, 1.560097634141589 ], [ 110.331504070777498, 1.561000681990054 ] ] ] } },
{ "type": "Feature", "properties": { "NAMA JALAN": "Jalan Laruh", "KTG JLN": null, "PJG JLN": null, "LBR JLN": null, "JENIS SRT": null, "CON OF RD": null, "TARIKH": null, "NORTHING": null, "EASTING": null, "CATATAN": null, "NORTH AKK": null, "EAST AKHR": null, "Road_type": "Tertiary road" }, "geometry": { "type": "MultiLineString", "coordinates": [ [ [ 110.327258490804368, 1.556896836936887 ], [ 110.327985598978501, 1.556853737690413 ] ] ] } },
{ "type": "Feature", "properties": { "NAMA JALAN": "Jalan Patingan", "KTG JLN": null, "PJG JLN": null, "LBR JLN": null, "JENIS SRT": null, "CON OF RD": null, "TARIKH": null, "NORTHING": null, "EASTING": null, "CATATAN": null, "NORTH AKK": null, "EAST AKHR": null, "Road_type": "Secondary road" }, "geometry": { "type": "MultiLineString", "coordinates": [ [ [ 110.328158220970138, 1.556793830504364 ], [ 110.328087787941527, 1.556792092989212 ] ] ] } },
{ "type": "Feature", "properties": { "NAMA JALAN": "Jlan Laruh", "KTG JLN": null, "PJG JLN": null, "LBR JLN": null, "JENIS SRT": null, "CON OF RD": null, "TARIKH": null, "NORTHING": null, "EASTING": null, "CATATAN": null, "NORTH AKK": null, "EAST AKHR": null, "Road_type": "Tertiary road" }, "geometry": { "type": "MultiLineString", "coordinates": [ [ [ 110.328182364664272, 1.556847753025308 ], [ 110.330130725426457, 1.556737850390003 ] ] ] } },
{ "type": "Feature", "properties": { "NAMA JALAN": "Jaan dagok", "KTG JLN": null, "PJG JLN": null, "LBR JLN": null, "JENIS SRT": null, "CON OF RD": null, "TARIKH": null, "NORTHING": null, "EASTING": null, "CATATAN": null, "NORTH AKK": null, "EAST AKHR": null, "Road_type": "Tertiary road" }, "geometry": { "type": "MultiLineString", "coordinates": [ [ [ 110.326769541658933, 1.555733974557359 ], [ 110.326870077231703, 1.555776713171213 ], [ 110.327621916531498, 1.555734098746831 ] ] ] } },
{ "type": "Feature", "properties": { "NAMA JALAN": "Jalan Dagok", "KTG JLN": null, "PJG JLN": null, "LBR JLN": null, "JENIS SRT": null, "CON OF RD": null, "TARIKH": null, "NORTHING": null, "EASTING": null, "CATATAN": null, "NORTH AKK": null, "EAST AKHR": null, "Road_type": "Tertiary road" }, "geometry": { "type": "MultiLineString", "coordinates": [ [ [ 110.327798287943509, 1.555723766819771 ], [ 110.330119336930011, 1.555591397002039 ] ] ] } },
{ "type": "Feature", "properties": { "NAMA JALAN": "Jalan Dagok", "KTG JLN": null, "PJG JLN": null, "LBR JLN": null, "JENIS SRT": null, "CON OF RD": null, "TARIKH": null, "NORTHING": null, "EASTING": null, "CATATAN": null, "NORTH AKK": null, "EAST AKHR": null, "Road_type": "Tertiary road" }, "geometry": { "type": "MultiLineString", "coordinates": [ [ [ 110.330317205339895, 1.555550004572961 ], [ 110.331838270246038, 1.555469185515609 ], [ 110.332342766928534, 1.55544719212496 ], [ 110.333365692734617, 1.5553897632175 ], [ 110.333866722206537, 1.555355214537997 ] ] ] } },
{ "type": "Feature", "properties": { "NAMA JALAN": "Jalan Dagok", "KTG JLN": null, "PJG JLN": null, "LBR JLN": null, "JENIS SRT": null, "CON OF RD": null, "TARIKH": null, "NORTHING": null, "EASTING": null, "CATATAN": null, "NORTH AKK": null, "EAST AKHR": null, "Road_type": "Tertiary road" }, "geometry": { "type": "MultiLineString", "coordinates": [ [ [ 110.334055932341485, 1.555355742071979 ], [ 110.33451397619055, 1.555327252088432 ], [ 110.334574902665835, 1.555315599021982 ], [ 110.335043284013821, 1.555300436522933 ], [ 110.336933538352426, 1.55518303409345 ], [ 110.337171268454995, 1.555204732865283 ], [ 110.337209964351501, 1.555197551658093 ] ] ] } },
{ "type": "Feature", "properties": { "NAMA JALAN": "Jalan Laruh", "KTG JLN": null, "PJG JLN": null, "LBR JLN": null, "JENIS SRT": null, "CON OF RD": null, "TARIKH": null, "NORTHING": null, "EASTING": null, "CATATAN": null, "NORTH AKK": null, "EAST AKHR": null, "Road_type": "Tertiary road" }, "geometry": { "type": "MultiLineString", "coordinates": [ [ [ 110.330329101700244, 1.556640534462097 ], [ 110.330430562125898, 1.556648148459453 ], [ 110.333455352872505, 1.556490813653127 ], [ 110.333925261134809, 1.556480198766276 ] ] ] } },
{ "type": "Feature", "properties": { "NAMA JALAN": "Jalan Parit Lama", "KTG JLN": null, "PJG JLN": null, "LBR JLN": null, "JENIS SRT": null, "CON OF RD": null, "TARIKH": null, "NORTHING": null, "EASTING": null, "CATATAN": null, "NORTH AKK": null, "EAST AKHR": null, "Road_type": "Tertiary road" }, "geometry": { "type": "MultiLineString", "coordinates": [ [ [ 110.328347424961095, 1.557948902483561 ], [ 110.327649997148313, 1.557984026410094 ] ] ] } },
{ "type": "Feature", "properties": { "NAMA JALAN": "Jalan prit Lama", "KTG JLN": null, "PJG JLN": null, "LBR JLN": null, "JENIS SRT": null, "CON OF RD": null, "TARIKH": null, "NORTHING": null, "EASTING": null, "CATATAN": null, "NORTH AKK": null, "EAST AKHR": null, "Road_type": "Tertiary road" }, "geometry": { "type": "MultiLineString", "coordinates": [ [ [ 110.328542693646483, 1.557939206238306 ], [ 110.330153072930145, 1.557851483517389 ] ] ] } },
{ "type": "Feature", "properties": { "NAMA JALAN": "Jalan Green", "KTG JLN": null, "PJG JLN": null, "LBR JLN": null, "JENIS SRT": null, "CON OF RD": null, "TARIKH": null, "NORTHING": null, "EASTING": null, "CATATAN": null, "NORTH AKK": null, "EAST AKHR": null, "Road_type": "Secondary road" }, "geometry": { "type": "MultiLineString", "coordinates": [ [ [ 110.330196908233731, 1.554356194612762 ], [ 110.330213223864931, 1.55391075370085 ], [ 110.330288995054346, 1.553501892131407 ] ] ] } },
{ "type": "Feature", "properties": { "NAMA JALAN": "Jalan Muda Hashim", "KTG JLN": null, "PJG JLN": null, "LBR JLN": null, "JENIS SRT": null, "CON OF RD": null, "TARIKH": null, "NORTHING": null, "EASTING": null, "CATATAN": null, "NORTH AKK": null, "EAST AKHR": null, "Road_type": "Tertiary road" }, "geometry": { "type": "MultiLineString", "coordinates": [ [ [ 110.333811805153658, 1.554282969703109 ], [ 110.333998774779147, 1.554273365083589 ] ] ] } },
{ "type": "Feature", "properties": { "NAMA JALAN": "Jalan P. Ramlee", "KTG JLN": null, "PJG JLN": null, "LBR JLN": null, "JENIS SRT": null, "CON OF RD": null, "TARIKH": null, "NORTHING": null, "EASTING": null, "CATATAN": null, "NORTH AKK": null, "EAST AKHR": null, "Road_type": "Secondary road" }, "geometry": { "type": "MultiLineString", "coordinates": [ [ [ 110.340696413048605, 1.553226995561513 ], [ 110.340700156097071, 1.553459611314155 ], [ 110.340732428450849, 1.553671645835691 ], [ 110.340881505003267, 1.554305194004647 ], [ 110.341045634073737, 1.555037638294233 ], [ 110.3411282995216, 1.555362561434968 ], [ 110.341201185266158, 1.555713390381663 ], [ 110.341357276771191, 1.556364144515957 ], [ 110.341365070731158, 1.556482961802826 ], [ 110.341455945836088, 1.556860949777189 ], [ 110.341593429586766, 1.557226489321978 ], [ 110.341746965993153, 1.557417917000503 ] ] ] } },
{ "type": "Feature", "properties": { "NAMA JALAN": "Bulatan Padang Pasir", "KTG JLN": null, "PJG JLN": null, "LBR JLN": null, "JENIS SRT": null, "CON OF RD": null, "TARIKH": null, "NORTHING": null, "EASTING": null, "CATATAN": null, "NORTH AKK": null, "EAST AKHR": null, "Road_type": "Secondary road" }, "geometry": { "type": "MultiLineString", "coordinates": [ [ [ 110.340785667166543, 1.558089373689079 ], [ 110.340803066657571, 1.557873736492382 ], [ 110.340840471733188, 1.557669036112882 ], [ 110.340881105102, 1.557579434350886 ], [ 110.340930675787362, 1.557493538921798 ], [ 110.340954058114619, 1.557474099227639 ], [ 110.341035037652446, 1.557426169167831 ], [ 110.34113271802174, 1.557389390673253 ], [ 110.341542015874623, 1.557401718262661 ], [ 110.341680162580957, 1.557466702346881 ], [ 110.341711125154717, 1.557494046433261 ], [ 110.341732798043907, 1.557523704500859 ], [ 110.341956553358628, 1.558003937818241 ] ] ] } },
{ "type": "Feature", "properties": { "NAMA JALAN": "Jalan Parit Lama", "KTG JLN": null, "PJG JLN": null, "LBR JLN": null, "JENIS SRT": null, "CON OF RD": null, "TARIKH": null, "NORTHING": null, "EASTING": null, "CATATAN": null, "NORTH AKK": null, "EAST AKHR": null, "Road_type": "Tertiary road" }, "geometry": { "type": "MultiLineString", "coordinates": [ [ [ 110.33035736233218, 1.557781801136097 ], [ 110.333483917420992, 1.557608842169623 ], [ 110.333528663737653, 1.557615276901928 ], [ 110.33399092223037, 1.557593094343916 ] ] ] } },
{ "type": "Feature", "properties": { "NAMA JALAN": "Jalan Datuk Paduka Sitom", "KTG JLN": null, "PJG JLN": null, "LBR JLN": null, "JENIS SRT": null, "CON OF RD": null, "TARIKH": null, "NORTHING": null, "EASTING": null, "CATATAN": null, "NORTH AKK": null, "EAST AKHR": null, "Road_type": "Tertiary road" }, "geometry": { "type": "MultiLineString", "coordinates": [ [ [ 110.32975396569833, 1.562474907446851 ], [ 110.330242233638288, 1.562463248006887 ], [ 110.331001434917496, 1.562435107913906 ] ] ] } },
{ "type": "Feature", "properties": { "NAMA JALAN": "Jalan Abong Taip", "KTG JLN": null, "PJG JLN": null, "LBR JLN": null, "JENIS SRT": null, "CON OF RD": null, "TARIKH": null, "NORTHING": null, "EASTING": null, "CATATAN": null, "NORTH AKK": null, "EAST AKHR": null, "Road_type": "Tertiary road" }, "geometry": { "type": "MultiLineString", "coordinates": [ [ [ 110.331507776120318, 1.561311885994981 ], [ 110.331520387910032, 1.561813796141065 ], [ 110.331517600526809, 1.561855812729714 ], [ 110.331529927376181, 1.562356344237753 ] ] ] } },
{ "type": "Feature", "properties": { "NAMA JALAN": "Jalan Datuk Paduka Sitom", "KTG JLN": null, "PJG JLN": null, "LBR JLN": null, "JENIS SRT": null, "CON OF RD": null, "TARIKH": null, "NORTHING": null, "EASTING": null, "CATATAN": null, "NORTH AKK": null, "EAST AKHR": null, "Road_type": "Tertiary road" }, "geometry": { "type": "MultiLineString", "coordinates": [ [ [ 110.331212382110991, 1.562419944793993 ], [ 110.332058720108321, 1.562391299047855 ], [ 110.332100570445121, 1.562394836388295 ], [ 110.332571010236833, 1.56237874006994 ] ] ] } }
]
}
